{"type":"FeatureCollection","metadata":{"source":"MeteoSwiss OGD - ogd-local-forecasting","item_id":"20260322-ch","forecast_time_utc":"202603220900","forecast_time_iso":"2026-03-22T09:00:00+00:00","updated_utc":"2026-03-22T09:49:07.043759+00:00","total_stations":83},"features":[{"type":"Feature","geometry":{"type":"Point","coordinates":[7.732993,46.647366]},"properties":{"name":"Aeschiallmend","point_id":"370341","lat":46.647366,"lon":7.732993,"temp_c":"-0.1","temp_min_c":null,"temp_max_c":null,"wind_kmh":"4.5","gust_kmh":"16.8","precip_mm":"0.0","precip_prob_pct":"24","sunshine_min":"0","cloud_high":"0.00","cloud_low":"0.78","symbol_3h":"103","symbol_day":"3","zero_level_m":"1501","forecast_time_utc":"202603220900","forecast_time_iso":"2026-03-22T09:00:00+00:00"}},{"type":"Feature","geometry":{"type":"Point","coordinates":[7.394955,46.295128]},"properties":{"name":"Anzère","point_id":"197200","lat":46.295128,"lon":7.394955,"temp_c":"-1.6","temp_min_c":null,"temp_max_c":null,"wind_kmh":"2.3","gust_kmh":"13.3","precip_mm":"0.0","precip_prob_pct":"22","sunshine_min":"0","cloud_high":"0.00","cloud_low":"0.50","symbol_3h":"103","symbol_day":"3","zero_level_m":"1471","forecast_time_utc":"202603220900","forecast_time_iso":"2026-03-22T09:00:00+00:00"}},{"type":"Feature","geometry":{"type":"Point","coordinates":[8.059329,46.738341]},"properties":{"name":"Axalp","point_id":"857","lat":46.738341,"lon":8.059329,"temp_c":"-19.6","temp_min_c":"-0.1","temp_max_c":"9.7","wind_kmh":"18.9","gust_kmh":"49.3","precip_mm":"0.0","precip_prob_pct":"37","sunshine_min":"0","cloud_high":"0.00","cloud_low":"0.53","symbol_3h":"104","symbol_day":"3","zero_level_m":"2133","forecast_time_utc":"202603220900","forecast_time_iso":"2026-03-22T09:00:00+00:00"}},{"type":"Feature","geometry":{"type":"Point","coordinates":[7.543444,47.265914]},"properties":{"name":"Balmberg","point_id":"452402","lat":47.265914,"lon":7.543444,"temp_c":"-0.6","temp_min_c":null,"temp_max_c":null,"wind_kmh":"4.0","gust_kmh":"19.0","precip_mm":"0.0","precip_prob_pct":"20","sunshine_min":"0","cloud_high":"0.10","cloud_low":"0.46","symbol_3h":"103","symbol_day":"3","zero_level_m":"1280","forecast_time_utc":"202603220900","forecast_time_iso":"2026-03-22T09:00:00+00:00"}},{"type":"Feature","geometry":{"type":"Point","coordinates":[7.975012,46.371792]},"properties":{"name":"Belalp","point_id":"391401","lat":46.371792,"lon":7.975012,"temp_c":"-4.1","temp_min_c":null,"temp_max_c":null,"wind_kmh":"6.7","gust_kmh":"23.5","precip_mm":"0.0","precip_prob_pct":"20","sunshine_min":"0","cloud_high":"0.00","cloud_low":"0.60","symbol_3h":"103","symbol_day":"3","zero_level_m":"1735","forecast_time_utc":"202603220900","forecast_time_iso":"2026-03-22T09:00:00+00:00"}},{"type":"Feature","geometry":{"type":"Point","coordinates":[7.01847,47.126057]},"properties":{"name":"Bugnenets-Savagnières","point_id":"642","lat":47.126057,"lon":7.01847,"temp_c":"-1.1","temp_min_c":null,"temp_max_c":null,"wind_kmh":"20.4","gust_kmh":"41.4","precip_mm":"0.0","precip_prob_pct":"18","sunshine_min":"0","cloud_high":"0.03","cloud_low":"0.64","symbol_3h":"103","symbol_day":"3","zero_level_m":"1255","forecast_time_utc":"202603220900","forecast_time_iso":"2026-03-22T09:00:00+00:00"}},{"type":"Feature","geometry":{"type":"Point","coordinates":[7.888115,46.807377]},"properties":{"name":"Bumbach","point_id":"1030","lat":46.807377,"lon":7.888115,"temp_c":"-5.1","temp_min_c":null,"temp_max_c":null,"wind_kmh":"8.0","gust_kmh":"20.2","precip_mm":"0.0","precip_prob_pct":"33","sunshine_min":"0","cloud_high":"0.01","cloud_low":"0.87","symbol_3h":"105","symbol_day":"3","zero_level_m":"1301","forecast_time_utc":"202603220900","forecast_time_iso":"2026-03-22T09:00:00+00:00"}},{"type":"Feature","geometry":{"type":"Point","coordinates":[7.188038,46.622372]},"properties":{"name":"Charmey","point_id":"163700","lat":46.622372,"lon":7.188038,"temp_c":"0.1","temp_min_c":null,"temp_max_c":null,"wind_kmh":"5.1","gust_kmh":"17.1","precip_mm":"0.0","precip_prob_pct":"22","sunshine_min":"0","cloud_high":"0.08","cloud_low":"0.69","symbol_3h":"103","symbol_day":"3","zero_level_m":"1333","forecast_time_utc":"202603220900","forecast_time_iso":"2026-03-22T09:00:00+00:00"}},{"type":"Feature","geometry":{"type":"Point","coordinates":[6.993179,47.090527]},"properties":{"name":"Crêt-du-Puy","point_id":"205800","lat":47.090527,"lon":6.993179,"temp_c":"0.7","temp_min_c":null,"temp_max_c":null,"wind_kmh":"3.7","gust_kmh":"16.4","precip_mm":"0.0","precip_prob_pct":"18","sunshine_min":"0","cloud_high":"0.03","cloud_low":"0.64","symbol_3h":"103","symbol_day":"3","zero_level_m":"1255","forecast_time_utc":"202603220900","forecast_time_iso":"2026-03-22T09:00:00+00:00"}},{"type":"Feature","geometry":{"type":"Point","coordinates":[7.776881,46.289505]},"properties":{"name":"Eischoll","point_id":"394300","lat":46.289505,"lon":7.776881,"temp_c":"-0.4","temp_min_c":null,"temp_max_c":null,"wind_kmh":"2.5","gust_kmh":"14.5","precip_mm":"0.0","precip_prob_pct":"20","sunshine_min":"0","cloud_high":"0.04","cloud_low":"0.57","symbol_3h":"103","symbol_day":"3","zero_level_m":"1681","forecast_time_utc":"202603220900","forecast_time_iso":"2026-03-22T09:00:00+00:00"}},{"type":"Feature","geometry":{"type":"Point","coordinates":[7.910718,46.803519]},"properties":{"name":"Eriz","point_id":"4465","lat":46.803519,"lon":7.910718,"temp_c":"-0.5","temp_min_c":"-1.5","temp_max_c":"6.9","wind_kmh":"3.5","gust_kmh":"13.5","precip_mm":"0.0","precip_prob_pct":"25","sunshine_min":"0","cloud_high":"0.00","cloud_low":"0.82","symbol_3h":"103","symbol_day":"3","zero_level_m":"1237","forecast_time_utc":"202603220900","forecast_time_iso":"2026-03-22T09:00:00+00:00"}},{"type":"Feature","geometry":{"type":"Point","coordinates":[7.473954,46.020262]},"properties":{"name":"Arolla","point_id":"4309","lat":46.020262,"lon":7.473954,"temp_c":"-2.0","temp_min_c":"-3.7","temp_max_c":"3.4","wind_kmh":"6.3","gust_kmh":"17.9","precip_mm":"0.0","precip_prob_pct":"31","sunshine_min":"0","cloud_high":"0.00","cloud_low":"0.63","symbol_3h":"103","symbol_day":"3","zero_level_m":"1789","forecast_time_utc":"202603220900","forecast_time_iso":"2026-03-22T09:00:00+00:00"}},{"type":"Feature","geometry":{"type":"Point","coordinates":[7.477226,46.121571]},"properties":{"name":"Evolène","point_id":"198302","lat":46.121571,"lon":7.477226,"temp_c":"-0.4","temp_min_c":null,"temp_max_c":null,"wind_kmh":"5.6","gust_kmh":"19.1","precip_mm":"0.0","precip_prob_pct":"24","sunshine_min":"0","cloud_high":"0.00","cloud_low":"0.46","symbol_3h":"103","symbol_day":"3","zero_level_m":"1632","forecast_time_utc":"202603220900","forecast_time_iso":"2026-03-22T09:00:00+00:00"}},{"type":"Feature","geometry":{"type":"Point","coordinates":[7.523221,46.086246]},"properties":{"name":"La Forclaz","point_id":"198501","lat":46.086246,"lon":7.523221,"temp_c":"-1.3","temp_min_c":null,"temp_max_c":null,"wind_kmh":"4.8","gust_kmh":"15.5","precip_mm":"0.0","precip_prob_pct":"22","sunshine_min":"0","cloud_high":"0.00","cloud_low":"0.46","symbol_3h":"103","symbol_day":"3","zero_level_m":"1746","forecast_time_utc":"202603220900","forecast_time_iso":"2026-03-22T09:00:00+00:00"}},{"type":"Feature","geometry":{"type":"Point","coordinates":[7.72498,46.628002]},"properties":{"name":"Faltschen","point_id":"370341","lat":46.628002,"lon":7.72498,"temp_c":"-0.1","temp_min_c":null,"temp_max_c":null,"wind_kmh":"4.5","gust_kmh":"16.8","precip_mm":"0.0","precip_prob_pct":"24","sunshine_min":"0","cloud_high":"0.00","cloud_low":"0.78","symbol_3h":"103","symbol_day":"3","zero_level_m":"1501","forecast_time_utc":"202603220900","forecast_time_iso":"2026-03-22T09:00:00+00:00"}},{"type":"Feature","geometry":{"type":"Point","coordinates":[7.454506,46.724655]},"properties":{"name":"Gantrisch Gurnigel","point_id":"625","lat":46.724655,"lon":7.454506,"temp_c":"-3.8","temp_min_c":null,"temp_max_c":null,"wind_kmh":"7.1","gust_kmh":"29.2","precip_mm":"0.0","precip_prob_pct":"25","sunshine_min":"0","cloud_high":"0.05","cloud_low":"0.81","symbol_3h":"103","symbol_day":"3","zero_level_m":"1316","forecast_time_utc":"202603220900","forecast_time_iso":"2026-03-22T09:00:00+00:00"}},{"type":"Feature","geometry":{"type":"Point","coordinates":[7.205612,46.353821]},"properties":{"name":"Glacier 3000","point_id":"630","lat":46.353821,"lon":7.205612,"temp_c":"-2.6","temp_min_c":"0.5","temp_max_c":"11.4","wind_kmh":"5.7","gust_kmh":"15.5","precip_mm":"0.0","precip_prob_pct":"22","sunshine_min":"0","cloud_high":"0.01","cloud_low":"0.67","symbol_3h":"103","symbol_day":"3","zero_level_m":"1410","forecast_time_utc":"202603220900","forecast_time_iso":"2026-03-22T09:00:00+00:00"}},{"type":"Feature","geometry":{"type":"Point","coordinates":[7.902122,46.225312]},"properties":{"name":"Gpson","point_id":"393300","lat":46.225312,"lon":7.902122,"temp_c":"0.6","temp_min_c":null,"temp_max_c":null,"wind_kmh":"4.6","gust_kmh":"17.6","precip_mm":"0.0","precip_prob_pct":"24","sunshine_min":"0","cloud_high":"0.00","cloud_low":"0.58","symbol_3h":"103","symbol_day":"3","zero_level_m":"1736","forecast_time_utc":"202603220900","forecast_time_iso":"2026-03-22T09:00:00+00:00"}},{"type":"Feature","geometry":{"type":"Point","coordinates":[7.380616,47.221455]},"properties":{"name":"Grenchenberg","point_id":"254000","lat":47.221455,"lon":7.380616,"temp_c":"2.5","temp_min_c":null,"temp_max_c":null,"wind_kmh":"4.6","gust_kmh":"18.9","precip_mm":"0.0","precip_prob_pct":"16","sunshine_min":"0","cloud_high":"0.11","cloud_low":"0.44","symbol_3h":"103","symbol_day":"3","zero_level_m":"1267","forecast_time_utc":"202603220900","forecast_time_iso":"2026-03-22T09:00:00+00:00"}},{"type":"Feature","geometry":{"type":"Point","coordinates":[7.584548,46.163437]},"properties":{"name":"Grimentz-Zinal","point_id":"1122","lat":46.163437,"lon":7.584548,"temp_c":"-7.4","temp_min_c":null,"temp_max_c":null,"wind_kmh":"14.6","gust_kmh":"29.6","precip_mm":"0.0","precip_prob_pct":"24","sunshine_min":"0","cloud_high":"0.00","cloud_low":"0.55","symbol_3h":"103","symbol_day":"3","zero_level_m":"1482","forecast_time_utc":"202603220900","forecast_time_iso":"2026-03-22T09:00:00+00:00"}},{"type":"Feature","geometry":{"type":"Point","coordinates":[7.273952,46.465485]},"properties":{"name":"Gstaad","point_id":"378000","lat":46.465485,"lon":7.273952,"temp_c":"-0.4","temp_min_c":null,"temp_max_c":null,"wind_kmh":"4.3","gust_kmh":"13.4","precip_mm":"0.0","precip_prob_pct":"18","sunshine_min":"0","cloud_high":"0.00","cloud_low":"0.73","symbol_3h":"103","symbol_day":"3","zero_level_m":"1322","forecast_time_utc":"202603220900","forecast_time_iso":"2026-03-22T09:00:00+00:00"}},{"type":"Feature","geometry":{"type":"Point","coordinates":[7.206613,46.472771]},"properties":{"name":"Rougemont","point_id":"1101","lat":46.472771,"lon":7.206613,"temp_c":"-4.5","temp_min_c":null,"temp_max_c":null,"wind_kmh":"10.2","gust_kmh":"24.8","precip_mm":"0.0","precip_prob_pct":"22","sunshine_min":"0","cloud_high":"0.00","cloud_low":"0.69","symbol_3h":"103","symbol_day":"3","zero_level_m":"1325","forecast_time_utc":"202603220900","forecast_time_iso":"2026-03-22T09:00:00+00:00"}},{"type":"Feature","geometry":{"type":"Point","coordinates":[7.323383,46.506207]},"properties":{"name":"Saanenmöser","point_id":"377700","lat":46.506207,"lon":7.323383,"temp_c":"-1.7","temp_min_c":null,"temp_max_c":null,"wind_kmh":"4.2","gust_kmh":"13.9","precip_mm":"0.0","precip_prob_pct":"18","sunshine_min":"0","cloud_high":"0.00","cloud_low":"0.73","symbol_3h":"103","symbol_day":"3","zero_level_m":"1334","forecast_time_utc":"202603220900","forecast_time_iso":"2026-03-22T09:00:00+00:00"}},{"type":"Feature","geometry":{"type":"Point","coordinates":[7.274805,46.507072]},"properties":{"name":"Schönried","point_id":"377800","lat":46.507072,"lon":7.274805,"temp_c":"-1.5","temp_min_c":null,"temp_max_c":null,"wind_kmh":"4.7","gust_kmh":"14.3","precip_mm":"0.0","precip_prob_pct":"20","sunshine_min":"0","cloud_high":"0.00","cloud_low":"0.73","symbol_3h":"103","symbol_day":"3","zero_level_m":"1334","forecast_time_utc":"202603220900","forecast_time_iso":"2026-03-22T09:00:00+00:00"}},{"type":"Feature","geometry":{"type":"Point","coordinates":[7.382613,46.511063]},"properties":{"name":"St-Stephan","point_id":"377200","lat":46.511063,"lon":7.382613,"temp_c":"-0.1","temp_min_c":null,"temp_max_c":null,"wind_kmh":"4.6","gust_kmh":"13.7","precip_mm":"0.0","precip_prob_pct":"16","sunshine_min":"0","cloud_high":"0.00","cloud_low":"0.75","symbol_3h":"103","symbol_day":"3","zero_level_m":"1334","forecast_time_utc":"202603220900","forecast_time_iso":"2026-03-22T09:00:00+00:00"}},{"type":"Feature","geometry":{"type":"Point","coordinates":[7.373709,46.550652]},"properties":{"name":"Zweisimmen","point_id":"377000","lat":46.550652,"lon":7.373709,"temp_c":"0.2","temp_min_c":null,"temp_max_c":null,"wind_kmh":"3.7","gust_kmh":"15.9","precip_mm":"0.0","precip_prob_pct":"20","sunshine_min":"0","cloud_high":"0.03","cloud_low":"0.84","symbol_3h":"135","symbol_day":"3","zero_level_m":"1333","forecast_time_utc":"202603220900","forecast_time_iso":"2026-03-22T09:00:00+00:00"}},{"type":"Feature","geometry":{"type":"Point","coordinates":[7.484264,46.568069]},"properties":{"name":"Grimmialp","point_id":"375700","lat":46.568069,"lon":7.484264,"temp_c":"-1.3","temp_min_c":null,"temp_max_c":null,"wind_kmh":"4.8","gust_kmh":"15.2","precip_mm":"0.0","precip_prob_pct":"27","sunshine_min":"0","cloud_high":"0.03","cloud_low":"0.84","symbol_3h":"103","symbol_day":"3","zero_level_m":"1290","forecast_time_utc":"202603220900","forecast_time_iso":"2026-03-22T09:00:00+00:00"}},{"type":"Feature","geometry":{"type":"Point","coordinates":[7.44959,46.757008]},"properties":{"name":"Gurnigelbad","point_id":"625","lat":46.757008,"lon":7.44959,"temp_c":"-3.8","temp_min_c":null,"temp_max_c":null,"wind_kmh":"7.1","gust_kmh":"29.2","precip_mm":"0.0","precip_prob_pct":"25","sunshine_min":"0","cloud_high":"0.05","cloud_low":"0.81","symbol_3h":"103","symbol_day":"3","zero_level_m":"1316","forecast_time_utc":"202603220900","forecast_time_iso":"2026-03-22T09:00:00+00:00"}},{"type":"Feature","geometry":{"type":"Point","coordinates":[7.854006,46.731907]},"properties":{"name":"Habkern","point_id":"4198","lat":46.731907,"lon":7.854006,"temp_c":"-1.0","temp_min_c":"-2.4","temp_max_c":"6.2","wind_kmh":"2.5","gust_kmh":"15.5","precip_mm":"0.0","precip_prob_pct":"27","sunshine_min":"0","cloud_high":"0.01","cloud_low":"0.69","symbol_3h":"103","symbol_day":"3","zero_level_m":"1392","forecast_time_utc":"202603220900","forecast_time_iso":"2026-03-22T09:00:00+00:00"}},{"type":"Feature","geometry":{"type":"Point","coordinates":[7.677143,46.827389]},"properties":{"name":"Heimenschwand","point_id":"361500","lat":46.827389,"lon":7.677143,"temp_c":"-0.4","temp_min_c":null,"temp_max_c":null,"wind_kmh":"4.1","gust_kmh":"13.2","precip_mm":"0.0","precip_prob_pct":"18","sunshine_min":"0","cloud_high":"0.01","cloud_low":"0.57","symbol_3h":"103","symbol_day":"3","zero_level_m":"1346","forecast_time_utc":"202603220900","forecast_time_iso":"2026-03-22T09:00:00+00:00"}},{"type":"Feature","geometry":{"type":"Point","coordinates":[7.821546,46.70932]},"properties":{"name":"Hohwald","point_id":"380300","lat":46.70932,"lon":7.821546,"temp_c":"-0.2","temp_min_c":null,"temp_max_c":null,"wind_kmh":"2.4","gust_kmh":"11.9","precip_mm":"0.0","precip_prob_pct":"20","sunshine_min":"0","cloud_high":"0.04","cloud_low":"0.73","symbol_3h":"135","symbol_day":"3","zero_level_m":"1307","forecast_time_utc":"202603220900","forecast_time_iso":"2026-03-22T09:00:00+00:00"}},{"type":"Feature","geometry":{"type":"Point","coordinates":[7.677712,46.767752]},"properties":{"name":"Homberg","point_id":"362200","lat":46.767752,"lon":7.677712,"temp_c":"-0.2","temp_min_c":null,"temp_max_c":null,"wind_kmh":"3.5","gust_kmh":"13.7","precip_mm":"0.0","precip_prob_pct":"20","sunshine_min":"0","cloud_high":"0.01","cloud_low":"0.57","symbol_3h":"103","symbol_day":"3","zero_level_m":"1346","forecast_time_utc":"202603220900","forecast_time_iso":"2026-03-22T09:00:00+00:00"}},{"type":"Feature","geometry":{"type":"Point","coordinates":[7.290691,46.608944]},"properties":{"name":"Jaun","point_id":"165600","lat":46.608944,"lon":7.290691,"temp_c":"-0.5","temp_min_c":null,"temp_max_c":null,"wind_kmh":"3.2","gust_kmh":"13.9","precip_mm":"0.0","precip_prob_pct":"18","sunshine_min":"0","cloud_high":"0.00","cloud_low":"0.80","symbol_3h":"103","symbol_day":"3","zero_level_m":"1333","forecast_time_utc":"202603220900","forecast_time_iso":"2026-03-22T09:00:00+00:00"}},{"type":"Feature","geometry":{"type":"Point","coordinates":[7.33801,46.59558]},"properties":{"name":"Jaunpass","point_id":"626","lat":46.59558,"lon":7.33801,"temp_c":"-3.2","temp_min_c":null,"temp_max_c":null,"wind_kmh":"6.0","gust_kmh":"21.3","precip_mm":"0.0","precip_prob_pct":"20","sunshine_min":"0","cloud_high":"0.00","cloud_low":"0.80","symbol_3h":"103","symbol_day":"3","zero_level_m":"1333","forecast_time_utc":"202603220900","forecast_time_iso":"2026-03-22T09:00:00+00:00"}},{"type":"Feature","geometry":{"type":"Point","coordinates":[7.722714,46.331917]},"properties":{"name":"Jeizinen","point_id":"10103","lat":46.331917,"lon":7.722714,"temp_c":"-2.1","temp_min_c":"-3.9","temp_max_c":"6.6","wind_kmh":"2.5","gust_kmh":"16.0","precip_mm":"0.0","precip_prob_pct":"22","sunshine_min":"0","cloud_high":"0.03","cloud_low":"0.57","symbol_3h":"103","symbol_day":"3","zero_level_m":"1507","forecast_time_utc":"202603220900","forecast_time_iso":"2026-03-22T09:00:00+00:00"}},{"type":"Feature","geometry":{"type":"Point","coordinates":[7.715937,46.582592]},"properties":{"name":"Kiental","point_id":"372300","lat":46.582592,"lon":7.715937,"temp_c":"0.3","temp_min_c":null,"temp_max_c":null,"wind_kmh":"3.3","gust_kmh":"15.3","precip_mm":"0.0","precip_prob_pct":"25","sunshine_min":"0","cloud_high":"0.00","cloud_low":"0.78","symbol_3h":"103","symbol_day":"3","zero_level_m":"1501","forecast_time_utc":"202603220900","forecast_time_iso":"2026-03-22T09:00:00+00:00"}},{"type":"Feature","geometry":{"type":"Point","coordinates":[7.166771,46.682167]},"properties":{"name":"La Berra","point_id":"163400","lat":46.682167,"lon":7.166771,"temp_c":"1.1","temp_min_c":null,"temp_max_c":null,"wind_kmh":"4.9","gust_kmh":"16.3","precip_mm":"0.0","precip_prob_pct":"14","sunshine_min":"0","cloud_high":"0.12","cloud_low":"0.55","symbol_3h":"103","symbol_day":"3","zero_level_m":"1344","forecast_time_utc":"202603220900","forecast_time_iso":"2026-03-22T09:00:00+00:00"}},{"type":"Feature","geometry":{"type":"Point","coordinates":[7.119769,46.416975]},"properties":{"name":"La Lécherette","point_id":"166004","lat":46.416975,"lon":7.119769,"temp_c":"-1.8","temp_min_c":null,"temp_max_c":null,"wind_kmh":"5.1","gust_kmh":"15.1","precip_mm":"0.0","precip_prob_pct":"25","sunshine_min":"0","cloud_high":"0.00","cloud_low":"0.45","symbol_3h":"103","symbol_day":"3","zero_level_m":"1328","forecast_time_utc":"202603220900","forecast_time_iso":"2026-03-22T09:00:00+00:00"}},{"type":"Feature","geometry":{"type":"Point","coordinates":[7.776004,46.406406]},"properties":{"name":"Lauchernalp","point_id":"391800","lat":46.406406,"lon":7.776004,"temp_c":"-1.0","temp_min_c":null,"temp_max_c":null,"wind_kmh":"4.7","gust_kmh":"15.1","precip_mm":"0.0","precip_prob_pct":"29","sunshine_min":"0","cloud_high":"0.00","cloud_low":"0.48","symbol_3h":"103","symbol_day":"3","zero_level_m":"1681","forecast_time_utc":"202603220900","forecast_time_iso":"2026-03-22T09:00:00+00:00"}},{"type":"Feature","geometry":{"type":"Point","coordinates":[6.213542,46.576439]},"properties":{"name":"Le Brassus","point_id":"134800","lat":46.576439,"lon":6.213542,"temp_c":"0.9","temp_min_c":null,"temp_max_c":null,"wind_kmh":"11.2","gust_kmh":"27.2","precip_mm":"0.0","precip_prob_pct":"20","sunshine_min":"0","cloud_high":"0.00","cloud_low":"0.78","symbol_3h":"103","symbol_day":"3","zero_level_m":"1416","forecast_time_utc":"202603220900","forecast_time_iso":"2026-03-22T09:00:00+00:00"}},{"type":"Feature","geometry":{"type":"Point","coordinates":[7.147033,46.341095]},"properties":{"name":"Les Diablerets","point_id":"186500","lat":46.341095,"lon":7.147033,"temp_c":"-1.2","temp_min_c":null,"temp_max_c":null,"wind_kmh":"4.3","gust_kmh":"13.5","precip_mm":"0.0","precip_prob_pct":"25","sunshine_min":"0","cloud_high":"0.01","cloud_low":"0.67","symbol_3h":"103","symbol_day":"3","zero_level_m":"1410","forecast_time_utc":"202603220900","forecast_time_iso":"2026-03-22T09:00:00+00:00"}},{"type":"Feature","geometry":{"type":"Point","coordinates":[7.006306,46.111336]},"properties":{"name":"Les Marécottes","point_id":"192300","lat":46.111336,"lon":7.006306,"temp_c":"-1.0","temp_min_c":null,"temp_max_c":null,"wind_kmh":"2.7","gust_kmh":"14.8","precip_mm":"0.0","precip_prob_pct":"18","sunshine_min":"0","cloud_high":"0.00","cloud_low":"0.54","symbol_3h":"103","symbol_day":"3","zero_level_m":"1345","forecast_time_utc":"202603220900","forecast_time_iso":"2026-03-22T09:00:00+00:00"}},{"type":"Feature","geometry":{"type":"Point","coordinates":[7.284725,46.256624]},"properties":{"name":"Les Mayens de Conthey","point_id":"197600","lat":46.256624,"lon":7.284725,"temp_c":"0.9","temp_min_c":null,"temp_max_c":null,"wind_kmh":"2.8","gust_kmh":"13.6","precip_mm":"0.0","precip_prob_pct":"14","sunshine_min":"0","cloud_high":"0.00","cloud_low":"0.39","symbol_3h":"103","symbol_day":"3","zero_level_m":"1469","forecast_time_utc":"202603220900","forecast_time_iso":"2026-03-22T09:00:00+00:00"}},{"type":"Feature","geometry":{"type":"Point","coordinates":[7.071578,46.391678]},"properties":{"name":"Les Mosses","point_id":"186202","lat":46.391678,"lon":7.071578,"temp_c":"-1.9","temp_min_c":null,"temp_max_c":null,"wind_kmh":"3.8","gust_kmh":"13.6","precip_mm":"0.0","precip_prob_pct":"27","sunshine_min":"0","cloud_high":"0.00","cloud_low":"0.45","symbol_3h":"103","symbol_day":"3","zero_level_m":"1328","forecast_time_utc":"202603220900","forecast_time_iso":"2026-03-22T09:00:00+00:00"}},{"type":"Feature","geometry":{"type":"Point","coordinates":[6.936362,46.514724]},"properties":{"name":"Les Paccots","point_id":"161900","lat":46.514724,"lon":6.936362,"temp_c":"-0.6","temp_min_c":null,"temp_max_c":null,"wind_kmh":"4.6","gust_kmh":"20.2","precip_mm":"0.0","precip_prob_pct":"12","sunshine_min":"0","cloud_high":"0.09","cloud_low":"0.21","symbol_3h":"103","symbol_day":"3","zero_level_m":"1423","forecast_time_utc":"202603220900","forecast_time_iso":"2026-03-22T09:00:00+00:00"}},{"type":"Feature","geometry":{"type":"Point","coordinates":[6.916388,46.488899]},"properties":{"name":"Les Pléiades","point_id":"4407","lat":46.488899,"lon":6.916388,"temp_c":"1.1","temp_min_c":"-0.2","temp_max_c":"8.4","wind_kmh":"5.5","gust_kmh":"17.9","precip_mm":"0.0","precip_prob_pct":"12","sunshine_min":"0","cloud_high":"0.09","cloud_low":"0.21","symbol_3h":"103","symbol_day":"3","zero_level_m":"1423","forecast_time_utc":"202603220900","forecast_time_iso":"2026-03-22T09:00:00+00:00"}},{"type":"Feature","geometry":{"type":"Point","coordinates":[6.534253,46.834576]},"properties":{"name":"Les Rasses","point_id":"145200","lat":46.834576,"lon":6.534253,"temp_c":"-0.4","temp_min_c":null,"temp_max_c":null,"wind_kmh":"5.7","gust_kmh":"23.3","precip_mm":"0.0","precip_prob_pct":"18","sunshine_min":"0","cloud_high":"0.01","cloud_low":"0.64","symbol_3h":"103","symbol_day":"3","zero_level_m":"1372","forecast_time_utc":"202603220900","forecast_time_iso":"2026-03-22T09:00:00+00:00"}},{"type":"Feature","geometry":{"type":"Point","coordinates":[6.979251,46.432796]},"properties":{"name":"Les Rochers de Naye","point_id":"1110","lat":46.432796,"lon":6.979251,"temp_c":"-3.3","temp_min_c":null,"temp_max_c":null,"wind_kmh":"14.8","gust_kmh":"29.6","precip_mm":"0.0","precip_prob_pct":"20","sunshine_min":"0","cloud_high":"0.03","cloud_low":"0.49","symbol_3h":"103","symbol_day":"3","zero_level_m":"1401","forecast_time_utc":"202603220900","forecast_time_iso":"2026-03-22T09:00:00+00:00"}},{"type":"Feature","geometry":{"type":"Point","coordinates":[7.638759,46.371437]},"properties":{"name":"Leukerbad","point_id":"395400","lat":46.371437,"lon":7.638759,"temp_c":"-1.1","temp_min_c":null,"temp_max_c":null,"wind_kmh":"5.1","gust_kmh":"15.6","precip_mm":"0.0","precip_prob_pct":"27","sunshine_min":"0","cloud_high":"0.00","cloud_low":"0.70","symbol_3h":"103","symbol_day":"3","zero_level_m":"1505","forecast_time_utc":"202603220900","forecast_time_iso":"2026-03-22T09:00:00+00:00"}},{"type":"Feature","geometry":{"type":"Point","coordinates":[7.010152,46.353519]},"properties":{"name":"Leysin","point_id":"185400","lat":46.353519,"lon":7.010152,"temp_c":"-2.1","temp_min_c":null,"temp_max_c":null,"wind_kmh":"2.3","gust_kmh":"14.1","precip_mm":"0.0","precip_prob_pct":"20","sunshine_min":"0","cloud_high":"0.01","cloud_low":"0.27","symbol_3h":"103","symbol_day":"3","zero_level_m":"1386","forecast_time_utc":"202603220900","forecast_time_iso":"2026-03-22T09:00:00+00:00"}},{"type":"Feature","geometry":{"type":"Point","coordinates":[7.678084,46.843925]},"properties":{"name":"Linden","point_id":"367300","lat":46.843925,"lon":7.678084,"temp_c":"-0.1","temp_min_c":null,"temp_max_c":null,"wind_kmh":"3.4","gust_kmh":"12.9","precip_mm":"0.0","precip_prob_pct":"16","sunshine_min":"0","cloud_high":"0.01","cloud_low":"0.57","symbol_3h":"103","symbol_day":"3","zero_level_m":"1346","forecast_time_utc":"202603220900","forecast_time_iso":"2026-03-22T09:00:00+00:00"}},{"type":"Feature","geometry":{"type":"Point","coordinates":[7.911718,46.834702]},"properties":{"name":"Marbachegg","point_id":"10237","lat":46.834702,"lon":7.911718,"temp_c":"-2.0","temp_min_c":"-3.4","temp_max_c":"5.1","wind_kmh":"6.2","gust_kmh":"19.0","precip_mm":"0.0","precip_prob_pct":"33","sunshine_min":"0","cloud_high":"0.01","cloud_low":"0.87","symbol_3h":"135","symbol_day":"3","zero_level_m":"1301","forecast_time_utc":"202603220900","forecast_time_iso":"2026-03-22T09:00:00+00:00"}},{"type":"Feature","geometry":{"type":"Point","coordinates":[8.200658,46.730618]},"properties":{"name":"Meiringen-Hasliberg","point_id":"608500","lat":46.730618,"lon":8.200658,"temp_c":"-1.1","temp_min_c":null,"temp_max_c":null,"wind_kmh":"3.6","gust_kmh":"14.9","precip_mm":"0.0","precip_prob_pct":"33","sunshine_min":"0","cloud_high":"0.03","cloud_low":"0.70","symbol_3h":"103","symbol_day":"3","zero_level_m":"1281","forecast_time_utc":"202603220900","forecast_time_iso":"2026-03-22T09:00:00+00:00"}},{"type":"Feature","geometry":{"type":"Point","coordinates":[8.270116,46.776344]},"properties":{"name":"Melchsee-Frutt","point_id":"606800","lat":46.776344,"lon":8.270116,"temp_c":"-4.4","temp_min_c":null,"temp_max_c":null,"wind_kmh":"6.7","gust_kmh":"21.0","precip_mm":"0.0","precip_prob_pct":"43","sunshine_min":"0","cloud_high":"0.02","cloud_low":"0.66","symbol_3h":"108","symbol_day":"3","zero_level_m":"1275","forecast_time_utc":"202603220900","forecast_time_iso":"2026-03-22T09:00:00+00:00"}},{"type":"Feature","geometry":{"type":"Point","coordinates":[7.034523,46.561966]},"properties":{"name":"Moléson","point_id":"166304","lat":46.561966,"lon":7.034523,"temp_c":"-0.8","temp_min_c":null,"temp_max_c":null,"wind_kmh":"2.1","gust_kmh":"14.2","precip_mm":"0.0","precip_prob_pct":"14","sunshine_min":"0","cloud_high":"0.09","cloud_low":"0.45","symbol_3h":"103","symbol_day":"3","zero_level_m":"1350","forecast_time_utc":"202603220900","forecast_time_iso":"2026-03-22T09:00:00+00:00"}},{"type":"Feature","geometry":{"type":"Point","coordinates":[7.829611,46.248253]},"properties":{"name":"Moosalp","point_id":"392300","lat":46.248253,"lon":7.829611,"temp_c":"-1.5","temp_min_c":null,"temp_max_c":null,"wind_kmh":"3.2","gust_kmh":"17.4","precip_mm":"0.0","precip_prob_pct":"20","sunshine_min":"0","cloud_high":"0.00","cloud_low":"0.58","symbol_3h":"103","symbol_day":"3","zero_level_m":"1734","forecast_time_utc":"202603220900","forecast_time_iso":"2026-03-22T09:00:00+00:00"}},{"type":"Feature","geometry":{"type":"Point","coordinates":[8.108218,46.822742]},"properties":{"name":"Mörlialp","point_id":"588","lat":46.822742,"lon":8.108218,"temp_c":"-3.3","temp_min_c":null,"temp_max_c":null,"wind_kmh":"4.4","gust_kmh":"16.4","precip_mm":"0.0","precip_prob_pct":"35","sunshine_min":"0","cloud_high":"0.02","cloud_low":"0.87","symbol_3h":"135","symbol_day":"3","zero_level_m":"1275","forecast_time_utc":"202603220900","forecast_time_iso":"2026-03-22T09:00:00+00:00"}},{"type":"Feature","geometry":{"type":"Point","coordinates":[7.462543,46.225464]},"properties":{"name":"Nax","point_id":"397900","lat":46.225464,"lon":7.462543,"temp_c":"3.0","temp_min_c":null,"temp_max_c":null,"wind_kmh":"2.2","gust_kmh":"15.1","precip_mm":"0.0","precip_prob_pct":"14","sunshine_min":"0","cloud_high":"0.01","cloud_low":"0.37","symbol_3h":"103","symbol_day":"3","zero_level_m":"1471","forecast_time_utc":"202603220900","forecast_time_iso":"2026-03-22T09:00:00+00:00"}},{"type":"Feature","geometry":{"type":"Point","coordinates":[7.775802,46.710602]},"properties":{"name":"Niederhorn","point_id":"1025","lat":46.710602,"lon":7.775802,"temp_c":"-4.4","temp_min_c":null,"temp_max_c":null,"wind_kmh":"6.5","gust_kmh":"21.6","precip_mm":"0.0","precip_prob_pct":"31","sunshine_min":"0","cloud_high":"0.04","cloud_low":"0.73","symbol_3h":"135","symbol_day":"3","zero_level_m":"1307","forecast_time_utc":"202603220900","forecast_time_iso":"2026-03-22T09:00:00+00:00"}},{"type":"Feature","geometry":{"type":"Point","coordinates":[7.364665,46.735054]},"properties":{"name":"Ottenleue","point_id":"173800","lat":46.735054,"lon":7.364665,"temp_c":"-0.2","temp_min_c":null,"temp_max_c":null,"wind_kmh":"4.1","gust_kmh":"15.2","precip_mm":"0.0","precip_prob_pct":"22","sunshine_min":"0","cloud_high":"0.02","cloud_low":"0.67","symbol_3h":"103","symbol_day":"3","zero_level_m":"1332","forecast_time_utc":"202603220900","forecast_time_iso":"2026-03-22T09:00:00+00:00"}},{"type":"Feature","geometry":{"type":"Point","coordinates":[7.151211,46.204193]},"properties":{"name":"Ovronnaz","point_id":"191100","lat":46.204193,"lon":7.151211,"temp_c":"-1.2","temp_min_c":null,"temp_max_c":null,"wind_kmh":"2.4","gust_kmh":"13.8","precip_mm":"0.0","precip_prob_pct":"20","sunshine_min":"0","cloud_high":"0.01","cloud_low":"0.33","symbol_3h":"103","symbol_day":"3","zero_level_m":"1458","forecast_time_utc":"202603220900","forecast_time_iso":"2026-03-22T09:00:00+00:00"}},{"type":"Feature","geometry":{"type":"Point","coordinates":[6.975307,46.544109]},"properties":{"name":"Rathvel","point_id":"161900","lat":46.544109,"lon":6.975307,"temp_c":"-0.6","temp_min_c":null,"temp_max_c":null,"wind_kmh":"4.6","gust_kmh":"20.2","precip_mm":"0.0","precip_prob_pct":"12","sunshine_min":"0","cloud_high":"0.09","cloud_low":"0.21","symbol_3h":"103","symbol_day":"3","zero_level_m":"1423","forecast_time_utc":"202603220900","forecast_time_iso":"2026-03-22T09:00:00+00:00"}},{"type":"Feature","geometry":{"type":"Point","coordinates":[6.55007,46.8811]},"properties":{"name":"Robella - Val de Travers","point_id":"211500","lat":46.8811,"lon":6.55007,"temp_c":"1.9","temp_min_c":null,"temp_max_c":null,"wind_kmh":"5.6","gust_kmh":"18.8","precip_mm":"0.0","precip_prob_pct":"20","sunshine_min":"0","cloud_high":"0.00","cloud_low":"0.65","symbol_3h":"103","symbol_day":"3","zero_level_m":"1246","forecast_time_utc":"202603220900","forecast_time_iso":"2026-03-22T09:00:00+00:00"}},{"type":"Feature","geometry":{"type":"Point","coordinates":[7.433806,46.627453]},"properties":{"name":"Rossberg","point_id":"376500","lat":46.627453,"lon":7.433806,"temp_c":"1.0","temp_min_c":null,"temp_max_c":null,"wind_kmh":"3.5","gust_kmh":"16.0","precip_mm":"0.0","precip_prob_pct":"24","sunshine_min":"0","cloud_high":"0.05","cloud_low":"0.81","symbol_3h":"103","symbol_day":"3","zero_level_m":"1316","forecast_time_utc":"202603220900","forecast_time_iso":"2026-03-22T09:00:00+00:00"}},{"type":"Feature","geometry":{"type":"Point","coordinates":[8.041525,46.304493]},"properties":{"name":"Rosswald","point_id":"391300","lat":46.304493,"lon":8.041525,"temp_c":"-2.9","temp_min_c":null,"temp_max_c":null,"wind_kmh":"7.2","gust_kmh":"22.4","precip_mm":"0.0","precip_prob_pct":"20","sunshine_min":"0","cloud_high":"0.00","cloud_low":"0.40","symbol_3h":"103","symbol_day":"3","zero_level_m":"1735","forecast_time_utc":"202603220900","forecast_time_iso":"2026-03-22T09:00:00+00:00"}},{"type":"Feature","geometry":{"type":"Point","coordinates":[7.425229,46.750965]},"properties":{"name":"Rüschegg","point_id":"625","lat":46.750965,"lon":7.425229,"temp_c":"-3.8","temp_min_c":null,"temp_max_c":null,"wind_kmh":"7.1","gust_kmh":"29.2","precip_mm":"0.0","precip_prob_pct":"25","sunshine_min":"0","cloud_high":"0.05","cloud_low":"0.81","symbol_3h":"103","symbol_day":"3","zero_level_m":"1316","forecast_time_utc":"202603220900","forecast_time_iso":"2026-03-22T09:00:00+00:00"}},{"type":"Feature","geometry":{"type":"Point","coordinates":[7.963252,46.089706]},"properties":{"name":"Saas-Almagell","point_id":"390500","lat":46.089706,"lon":7.963252,"temp_c":"-1.6","temp_min_c":null,"temp_max_c":null,"wind_kmh":"5.3","gust_kmh":"20.3","precip_mm":"0.0","precip_prob_pct":"22","sunshine_min":"0","cloud_high":"0.00","cloud_low":"0.58","symbol_3h":"103","symbol_day":"3","zero_level_m":"2093","forecast_time_utc":"202603220900","forecast_time_iso":"2026-03-22T09:00:00+00:00"}},{"type":"Feature","geometry":{"type":"Point","coordinates":[7.925277,46.099144]},"properties":{"name":"Saas Fee","point_id":"4871","lat":46.099144,"lon":7.925277,"temp_c":"-2.3","temp_min_c":"-4.3","temp_max_c":"5.6","wind_kmh":"5.4","gust_kmh":"20.8","precip_mm":"0.0","precip_prob_pct":"25","sunshine_min":"0","cloud_high":"0.00","cloud_low":"0.60","symbol_3h":"103","symbol_day":"3","zero_level_m":"2146","forecast_time_utc":"202603220900","forecast_time_iso":"2026-03-22T09:00:00+00:00"}},{"type":"Feature","geometry":{"type":"Point","coordinates":[6.995653,47.25581]},"properties":{"name":"Saignelégier","point_id":"235000","lat":47.25581,"lon":6.995653,"temp_c":"0.1","temp_min_c":null,"temp_max_c":null,"wind_kmh":"9.4","gust_kmh":"25.9","precip_mm":"0.0","precip_prob_pct":"20","sunshine_min":"0","cloud_high":"0.11","cloud_low":"0.66","symbol_3h":"103","symbol_day":"35","zero_level_m":"1291","forecast_time_utc":"202603220900","forecast_time_iso":"2026-03-22T09:00:00+00:00"}},{"type":"Feature","geometry":{"type":"Point","coordinates":[7.729452,46.736632]},"properties":{"name":"Schwanden","point_id":"365700","lat":46.736632,"lon":7.729452,"temp_c":"-0.5","temp_min_c":null,"temp_max_c":null,"wind_kmh":"2.8","gust_kmh":"12.9","precip_mm":"0.0","precip_prob_pct":"20","sunshine_min":"0","cloud_high":"0.08","cloud_low":"0.78","symbol_3h":"103","symbol_day":"3","zero_level_m":"1266","forecast_time_utc":"202603220900","forecast_time_iso":"2026-03-22T09:00:00+00:00"}},{"type":"Feature","geometry":{"type":"Point","coordinates":[7.290966,46.664074]},"properties":{"name":"Schwarzsee","point_id":"171603","lat":46.664074,"lon":7.290966,"temp_c":"-0.4","temp_min_c":null,"temp_max_c":null,"wind_kmh":"4.1","gust_kmh":"17.2","precip_mm":"0.0","precip_prob_pct":"22","sunshine_min":"0","cloud_high":"0.02","cloud_low":"0.67","symbol_3h":"103","symbol_day":"3","zero_level_m":"1332","forecast_time_utc":"202603220900","forecast_time_iso":"2026-03-22T09:00:00+00:00"}},{"type":"Feature","geometry":{"type":"Point","coordinates":[7.392882,46.744904]},"properties":{"name":"Selital","point_id":"624","lat":46.744904,"lon":7.392882,"temp_c":"-3.4","temp_min_c":null,"temp_max_c":null,"wind_kmh":"8.0","gust_kmh":"29.5","precip_mm":"0.0","precip_prob_pct":"27","sunshine_min":"0","cloud_high":"0.05","cloud_low":"0.81","symbol_3h":"103","symbol_day":"3","zero_level_m":"1316","forecast_time_utc":"202603220900","forecast_time_iso":"2026-03-22T09:00:00+00:00"}},{"type":"Feature","geometry":{"type":"Point","coordinates":[8.030524,46.8148]},"properties":{"name":"Sörenberg","point_id":"617400","lat":46.8148,"lon":8.030524,"temp_c":"-1.4","temp_min_c":null,"temp_max_c":null,"wind_kmh":"3.6","gust_kmh":"13.8","precip_mm":"0.0","precip_prob_pct":"27","sunshine_min":"0","cloud_high":"0.01","cloud_low":"0.84","symbol_3h":"135","symbol_day":"3","zero_level_m":"1278","forecast_time_utc":"202603220900","forecast_time_iso":"2026-03-22T09:00:00+00:00"}},{"type":"Feature","geometry":{"type":"Point","coordinates":[7.576687,46.616902]},"properties":{"name":"Springenboden","point_id":"375500","lat":46.616902,"lon":7.576687,"temp_c":"-0.5","temp_min_c":null,"temp_max_c":null,"wind_kmh":"3.2","gust_kmh":"15.3","precip_mm":"0.0","precip_prob_pct":"33","sunshine_min":"0","cloud_high":"0.02","cloud_low":"0.81","symbol_3h":"104","symbol_day":"3","zero_level_m":"1289","forecast_time_utc":"202603220900","forecast_time_iso":"2026-03-22T09:00:00+00:00"}},{"type":"Feature","geometry":{"type":"Point","coordinates":[6.08722,46.442966]},"properties":{"name":"St Cergue","point_id":"622","lat":46.442966,"lon":6.08722,"temp_c":"0.7","temp_min_c":null,"temp_max_c":null,"wind_kmh":"11.1","gust_kmh":"29.0","precip_mm":"0.0","precip_prob_pct":"16","sunshine_min":"0","cloud_high":"0.00","cloud_low":"0.43","symbol_3h":"103","symbol_day":"3","zero_level_m":"1456","forecast_time_utc":"202603220900","forecast_time_iso":"2026-03-22T09:00:00+00:00"}},{"type":"Feature","geometry":{"type":"Point","coordinates":[7.604917,46.248325]},"properties":{"name":"St-Luc / Chandolin","point_id":"396123","lat":46.248325,"lon":7.604917,"temp_c":"-3.2","temp_min_c":null,"temp_max_c":null,"wind_kmh":"5.0","gust_kmh":"17.8","precip_mm":"0.0","precip_prob_pct":"25","sunshine_min":"0","cloud_high":"0.00","cloud_low":"0.35","symbol_3h":"103","symbol_day":"3","zero_level_m":"1477","forecast_time_utc":"202603220900","forecast_time_iso":"2026-03-22T09:00:00+00:00"}},{"type":"Feature","geometry":{"type":"Point","coordinates":[7.083587,47.214433]},"properties":{"name":"Tramelan","point_id":"272200","lat":47.214433,"lon":7.083587,"temp_c":"-0.3","temp_min_c":null,"temp_max_c":null,"wind_kmh":"9.3","gust_kmh":"24.1","precip_mm":"0.0","precip_prob_pct":"20","sunshine_min":"0","cloud_high":"0.00","cloud_low":"0.68","symbol_3h":"103","symbol_day":"3","zero_level_m":"1251","forecast_time_utc":"202603220900","forecast_time_iso":"2026-03-22T09:00:00+00:00"}},{"type":"Feature","geometry":{"type":"Point","coordinates":[7.799555,46.27927]},"properties":{"name":"Unterbäch","point_id":"394400","lat":46.27927,"lon":7.799555,"temp_c":"-0.3","temp_min_c":null,"temp_max_c":null,"wind_kmh":"3.1","gust_kmh":"16.7","precip_mm":"0.0","precip_prob_pct":"18","sunshine_min":"0","cloud_high":"0.04","cloud_low":"0.57","symbol_3h":"103","symbol_day":"3","zero_level_m":"1733","forecast_time_utc":"202603220900","forecast_time_iso":"2026-03-22T09:00:00+00:00"}},{"type":"Feature","geometry":{"type":"Point","coordinates":[7.532484,46.246895]},"properties":{"name":"Vercorin","point_id":"396700","lat":46.246895,"lon":7.532484,"temp_c":"-1.1","temp_min_c":null,"temp_max_c":null,"wind_kmh":"3.3","gust_kmh":"14.7","precip_mm":"0.0","precip_prob_pct":"18","sunshine_min":"0","cloud_high":"0.01","cloud_low":"0.37","symbol_3h":"103","symbol_day":"3","zero_level_m":"1475","forecast_time_utc":"202603220900","forecast_time_iso":"2026-03-22T09:00:00+00:00"}},{"type":"Feature","geometry":{"type":"Point","coordinates":[7.090662,46.299984]},"properties":{"name":"Villars-Gryon","point_id":"188402","lat":46.299984,"lon":7.090662,"temp_c":"-2.0","temp_min_c":null,"temp_max_c":null,"wind_kmh":"4.0","gust_kmh":"14.3","precip_mm":"0.0","precip_prob_pct":"24","sunshine_min":"0","cloud_high":"0.02","cloud_low":"0.25","symbol_3h":"103","symbol_day":"3","zero_level_m":"1340","forecast_time_utc":"202603220900","forecast_time_iso":"2026-03-22T09:00:00+00:00"}},{"type":"Feature","geometry":{"type":"Point","coordinates":[7.913731,46.256939]},"properties":{"name":"Visperterminen","point_id":"4640","lat":46.256939,"lon":7.913731,"temp_c":"-0.6","temp_min_c":"-3.1","temp_max_c":"9.4","wind_kmh":"2.4","gust_kmh":"18.6","precip_mm":"0.0","precip_prob_pct":"25","sunshine_min":"0","cloud_high":"0.00","cloud_low":"0.37","symbol_3h":"103","symbol_day":"3","zero_level_m":"1734","forecast_time_utc":"202603220900","forecast_time_iso":"2026-03-22T09:00:00+00:00"}},{"type":"Feature","geometry":{"type":"Point","coordinates":[7.745841,46.726089]},"properties":{"name":"Wilerallmi","point_id":"365700","lat":46.726089,"lon":7.745841,"temp_c":"-0.5","temp_min_c":null,"temp_max_c":null,"wind_kmh":"2.8","gust_kmh":"12.9","precip_mm":"0.0","precip_prob_pct":"20","sunshine_min":"0","cloud_high":"0.08","cloud_low":"0.78","symbol_3h":"103","symbol_day":"3","zero_level_m":"1266","forecast_time_utc":"202603220900","forecast_time_iso":"2026-03-22T09:00:00+00:00"}},{"type":"Feature","geometry":{"type":"Point","coordinates":[7.532542,46.612373]},"properties":{"name":"Wiriehorn","point_id":"375600","lat":46.612373,"lon":7.532542,"temp_c":"-0.7","temp_min_c":null,"temp_max_c":null,"wind_kmh":"3.1","gust_kmh":"13.5","precip_mm":"0.0","precip_prob_pct":"27","sunshine_min":"0","cloud_high":"0.03","cloud_low":"0.84","symbol_3h":"103","symbol_day":"3","zero_level_m":"1290","forecast_time_utc":"202603220900","forecast_time_iso":"2026-03-22T09:00:00+00:00"}}]}