{"type":"FeatureCollection","metadata":{"source":"Open-Meteo — ICON Seamless","forecast_time_iso":"2026-08-27T00:00","forecast_time_str":"202608270000","updated_utc":"2026-08-24T00:35:16.971475+00:00","total_stations":76},"features":[{"type":"Feature","geometry":{"type":"Point","coordinates":[7.732993,46.647366]},"properties":{"name":"Aeschiallmend","lat":46.647366,"lon":7.732993,"forecast_time_iso":"2026-08-27T00:00","forecast_time_str":"202608270000","temp_c":18.7,"wind_kmh":6.1,"gust_kmh":18.7,"precip_mm":0.0,"precip_prob_pct":1,"snowfall_cm":0.0,"weathercode":3,"zero_level_m":4370.0,"cloudcover_pct":100,"sunshine_min":0.0}},{"type":"Feature","geometry":{"type":"Point","coordinates":[7.394955,46.295128]},"properties":{"name":"Anzère","lat":46.295128,"lon":7.394955,"forecast_time_iso":"2026-08-27T00:00","forecast_time_str":"202608270000","temp_c":15.9,"wind_kmh":7.8,"gust_kmh":22.7,"precip_mm":0.0,"precip_prob_pct":3,"snowfall_cm":0.0,"weathercode":2,"zero_level_m":4420.0,"cloudcover_pct":48,"sunshine_min":0.0}},{"type":"Feature","geometry":{"type":"Point","coordinates":[8.059329,46.738341]},"properties":{"name":"Axalp","lat":46.738341,"lon":8.059329,"forecast_time_iso":"2026-08-27T00:00","forecast_time_str":"202608270000","temp_c":22.1,"wind_kmh":2.8,"gust_kmh":9.4,"precip_mm":0.0,"precip_prob_pct":9,"snowfall_cm":0.0,"weathercode":3,"zero_level_m":4420.0,"cloudcover_pct":87,"sunshine_min":0.0}},{"type":"Feature","geometry":{"type":"Point","coordinates":[7.543444,47.265914]},"properties":{"name":"Balmberg","lat":47.265914,"lon":7.543444,"forecast_time_iso":"2026-08-27T00:00","forecast_time_str":"202608270000","temp_c":18.7,"wind_kmh":5.1,"gust_kmh":28.4,"precip_mm":0.0,"precip_prob_pct":2,"snowfall_cm":0.0,"weathercode":1,"zero_level_m":4230.0,"cloudcover_pct":30,"sunshine_min":0.0}},{"type":"Feature","geometry":{"type":"Point","coordinates":[7.975012,46.371792]},"properties":{"name":"Belalp","lat":46.371792,"lon":7.975012,"forecast_time_iso":"2026-08-27T00:00","forecast_time_str":"202608270000","temp_c":12.7,"wind_kmh":6.9,"gust_kmh":20.2,"precip_mm":0.0,"precip_prob_pct":1,"snowfall_cm":0.0,"weathercode":2,"zero_level_m":4350.0,"cloudcover_pct":63,"sunshine_min":0.0}},{"type":"Feature","geometry":{"type":"Point","coordinates":[7.01847,47.126057]},"properties":{"name":"Bugnenets-Savagnières","lat":47.126057,"lon":7.01847,"forecast_time_iso":"2026-08-27T00:00","forecast_time_str":"202608270000","temp_c":17.2,"wind_kmh":7.2,"gust_kmh":25.2,"precip_mm":0.0,"precip_prob_pct":3,"snowfall_cm":0.0,"weathercode":2,"zero_level_m":4360.0,"cloudcover_pct":58,"sunshine_min":0.0}},{"type":"Feature","geometry":{"type":"Point","coordinates":[7.888115,46.807377]},"properties":{"name":"Bumbach","lat":46.807377,"lon":7.888115,"forecast_time_iso":"2026-08-27T00:00","forecast_time_str":"202608270000","temp_c":16.8,"wind_kmh":6.9,"gust_kmh":18.7,"precip_mm":0.0,"precip_prob_pct":5,"snowfall_cm":0.0,"weathercode":3,"zero_level_m":4410.0,"cloudcover_pct":100,"sunshine_min":0.0}},{"type":"Feature","geometry":{"type":"Point","coordinates":[7.188038,46.622372]},"properties":{"name":"Charmey","lat":46.622372,"lon":7.188038,"forecast_time_iso":"2026-08-27T00:00","forecast_time_str":"202608270000","temp_c":17.9,"wind_kmh":8.5,"gust_kmh":17.6,"precip_mm":0.0,"precip_prob_pct":4,"snowfall_cm":0.0,"weathercode":1,"zero_level_m":4450.0,"cloudcover_pct":26,"sunshine_min":0.0}},{"type":"Feature","geometry":{"type":"Point","coordinates":[6.993179,47.090527]},"properties":{"name":"Crêt-du-Puy","lat":47.090527,"lon":6.993179,"forecast_time_iso":"2026-08-27T00:00","forecast_time_str":"202608270000","temp_c":19.2,"wind_kmh":10.9,"gust_kmh":30.2,"precip_mm":0.0,"precip_prob_pct":3,"snowfall_cm":0.0,"weathercode":3,"zero_level_m":4370.0,"cloudcover_pct":81,"sunshine_min":0.0}},{"type":"Feature","geometry":{"type":"Point","coordinates":[7.776881,46.289505]},"properties":{"name":"Eischoll","lat":46.289505,"lon":7.776881,"forecast_time_iso":"2026-08-27T00:00","forecast_time_str":"202608270000","temp_c":15.7,"wind_kmh":10.8,"gust_kmh":26.6,"precip_mm":0.0,"precip_prob_pct":1,"snowfall_cm":0.0,"weathercode":2,"zero_level_m":4390.0,"cloudcover_pct":36,"sunshine_min":0.0}},{"type":"Feature","geometry":{"type":"Point","coordinates":[7.473954,46.020262]},"properties":{"name":"Arolla","lat":46.020262,"lon":7.473954,"forecast_time_iso":"2026-08-27T00:00","forecast_time_str":"202608270000","temp_c":12.8,"wind_kmh":18.3,"gust_kmh":49.0,"precip_mm":0.0,"precip_prob_pct":5,"snowfall_cm":0.0,"weathercode":2,"zero_level_m":4500.0,"cloudcover_pct":53,"sunshine_min":0.0}},{"type":"Feature","geometry":{"type":"Point","coordinates":[7.477226,46.121571]},"properties":{"name":"Evolène","lat":46.121571,"lon":7.477226,"forecast_time_iso":"2026-08-27T00:00","forecast_time_str":"202608270000","temp_c":17.2,"wind_kmh":5.0,"gust_kmh":14.0,"precip_mm":0.0,"precip_prob_pct":3,"snowfall_cm":0.0,"weathercode":0,"zero_level_m":4450.0,"cloudcover_pct":2,"sunshine_min":0.0}},{"type":"Feature","geometry":{"type":"Point","coordinates":[7.523221,46.086246]},"properties":{"name":"La Forclaz","lat":46.086246,"lon":7.523221,"forecast_time_iso":"2026-08-27T00:00","forecast_time_str":"202608270000","temp_c":15.9,"wind_kmh":9.7,"gust_kmh":20.9,"precip_mm":0.0,"precip_prob_pct":5,"snowfall_cm":0.0,"weathercode":2,"zero_level_m":4440.0,"cloudcover_pct":48,"sunshine_min":0.0}},{"type":"Feature","geometry":{"type":"Point","coordinates":[7.72498,46.628002]},"properties":{"name":"Faltschen","lat":46.628002,"lon":7.72498,"forecast_time_iso":"2026-08-27T00:00","forecast_time_str":"202608270000","temp_c":18.0,"wind_kmh":6.1,"gust_kmh":18.7,"precip_mm":0.0,"precip_prob_pct":4,"snowfall_cm":0.0,"weathercode":3,"zero_level_m":4370.0,"cloudcover_pct":100,"sunshine_min":0.0}},{"type":"Feature","geometry":{"type":"Point","coordinates":[7.454506,46.724655]},"properties":{"name":"Gantrisch Gurnigel","lat":46.724655,"lon":7.454506,"forecast_time_iso":"2026-08-27T00:00","forecast_time_str":"202608270000","temp_c":16.4,"wind_kmh":5.1,"gust_kmh":20.9,"precip_mm":0.0,"precip_prob_pct":4,"snowfall_cm":0.0,"weathercode":2,"zero_level_m":4440.0,"cloudcover_pct":58,"sunshine_min":0.0}},{"type":"Feature","geometry":{"type":"Point","coordinates":[7.205612,46.353821]},"properties":{"name":"Glacier 3000","lat":46.353821,"lon":7.205612,"forecast_time_iso":"2026-08-27T00:00","forecast_time_str":"202608270000","temp_c":17.1,"wind_kmh":8.6,"gust_kmh":31.0,"precip_mm":0.0,"precip_prob_pct":10,"snowfall_cm":0.0,"weathercode":2,"zero_level_m":4500.0,"cloudcover_pct":60,"sunshine_min":0.0}},{"type":"Feature","geometry":{"type":"Point","coordinates":[7.902122,46.225312]},"properties":{"name":"Gpson","lat":46.225312,"lon":7.902122,"forecast_time_iso":"2026-08-27T00:00","forecast_time_str":"202608270000","temp_c":13.8,"wind_kmh":9.2,"gust_kmh":24.5,"precip_mm":0.0,"precip_prob_pct":0,"snowfall_cm":0.0,"weathercode":1,"zero_level_m":4360.0,"cloudcover_pct":25,"sunshine_min":0.0}},{"type":"Feature","geometry":{"type":"Point","coordinates":[7.380616,47.221455]},"properties":{"name":"Grenchenberg","lat":47.221455,"lon":7.380616,"forecast_time_iso":"2026-08-27T00:00","forecast_time_str":"202608270000","temp_c":16.8,"wind_kmh":6.6,"gust_kmh":30.6,"precip_mm":0.0,"precip_prob_pct":2,"snowfall_cm":0.0,"weathercode":1,"zero_level_m":4300.0,"cloudcover_pct":17,"sunshine_min":0.0}},{"type":"Feature","geometry":{"type":"Point","coordinates":[7.584548,46.163437]},"properties":{"name":"Grimentz-Zinal","lat":46.163437,"lon":7.584548,"forecast_time_iso":"2026-08-27T00:00","forecast_time_str":"202608270000","temp_c":12.0,"wind_kmh":14.2,"gust_kmh":31.7,"precip_mm":0.0,"precip_prob_pct":1,"snowfall_cm":0.0,"weathercode":1,"zero_level_m":4390.0,"cloudcover_pct":19,"sunshine_min":0.0}},{"type":"Feature","geometry":{"type":"Point","coordinates":[7.273952,46.465485]},"properties":{"name":"Gstaad","lat":46.465485,"lon":7.273952,"forecast_time_iso":"2026-08-27T00:00","forecast_time_str":"202608270000","temp_c":15.0,"wind_kmh":4.5,"gust_kmh":6.8,"precip_mm":0.0,"precip_prob_pct":10,"snowfall_cm":0.0,"weathercode":2,"zero_level_m":4490.0,"cloudcover_pct":50,"sunshine_min":0.0}},{"type":"Feature","geometry":{"type":"Point","coordinates":[7.323383,46.506207]},"properties":{"name":"Saanenmöser","lat":46.506207,"lon":7.323383,"forecast_time_iso":"2026-08-27T00:00","forecast_time_str":"202608270000","temp_c":15.2,"wind_kmh":3.4,"gust_kmh":14.0,"precip_mm":0.0,"precip_prob_pct":9,"snowfall_cm":0.0,"weathercode":3,"zero_level_m":4470.0,"cloudcover_pct":49,"sunshine_min":0.0}},{"type":"Feature","geometry":{"type":"Point","coordinates":[7.274805,46.507072]},"properties":{"name":"Schönried","lat":46.507072,"lon":7.274805,"forecast_time_iso":"2026-08-27T00:00","forecast_time_str":"202608270000","temp_c":14.2,"wind_kmh":2.5,"gust_kmh":6.8,"precip_mm":0.0,"precip_prob_pct":10,"snowfall_cm":0.0,"weathercode":1,"zero_level_m":4480.0,"cloudcover_pct":34,"sunshine_min":0.0}},{"type":"Feature","geometry":{"type":"Point","coordinates":[7.382613,46.511063]},"properties":{"name":"St-Stephan","lat":46.511063,"lon":7.382613,"forecast_time_iso":"2026-08-27T00:00","forecast_time_str":"202608270000","temp_c":16.8,"wind_kmh":5.4,"gust_kmh":13.7,"precip_mm":0.0,"precip_prob_pct":9,"snowfall_cm":0.0,"weathercode":2,"zero_level_m":4470.0,"cloudcover_pct":67,"sunshine_min":0.0}},{"type":"Feature","geometry":{"type":"Point","coordinates":[7.373709,46.550652]},"properties":{"name":"Zweisimmen","lat":46.550652,"lon":7.373709,"forecast_time_iso":"2026-08-27T00:00","forecast_time_str":"202608270000","temp_c":16.9,"wind_kmh":4.7,"gust_kmh":13.7,"precip_mm":0.0,"precip_prob_pct":9,"snowfall_cm":0.0,"weathercode":2,"zero_level_m":4470.0,"cloudcover_pct":59,"sunshine_min":0.0}},{"type":"Feature","geometry":{"type":"Point","coordinates":[7.484264,46.568069]},"properties":{"name":"Grimmialp","lat":46.568069,"lon":7.484264,"forecast_time_iso":"2026-08-27T00:00","forecast_time_str":"202608270000","temp_c":15.5,"wind_kmh":6.9,"gust_kmh":18.4,"precip_mm":0.0,"precip_prob_pct":6,"snowfall_cm":0.0,"weathercode":3,"zero_level_m":4450.0,"cloudcover_pct":98,"sunshine_min":0.0}},{"type":"Feature","geometry":{"type":"Point","coordinates":[7.44959,46.757008]},"properties":{"name":"Gurnigelbad","lat":46.757008,"lon":7.44959,"forecast_time_iso":"2026-08-27T00:00","forecast_time_str":"202608270000","temp_c":17.6,"wind_kmh":7.4,"gust_kmh":20.5,"precip_mm":0.0,"precip_prob_pct":4,"snowfall_cm":0.0,"weathercode":3,"zero_level_m":4430.0,"cloudcover_pct":77,"sunshine_min":0.0}},{"type":"Feature","geometry":{"type":"Point","coordinates":[7.854006,46.731907]},"properties":{"name":"Habkern","lat":46.731907,"lon":7.854006,"forecast_time_iso":"2026-08-27T00:00","forecast_time_str":"202608270000","temp_c":16.5,"wind_kmh":5.4,"gust_kmh":18.4,"precip_mm":0.0,"precip_prob_pct":5,"snowfall_cm":0.0,"weathercode":3,"zero_level_m":4360.0,"cloudcover_pct":100,"sunshine_min":0.0}},{"type":"Feature","geometry":{"type":"Point","coordinates":[7.677143,46.827389]},"properties":{"name":"Heimenschwand","lat":46.827389,"lon":7.677143,"forecast_time_iso":"2026-08-27T00:00","forecast_time_str":"202608270000","temp_c":16.7,"wind_kmh":7.0,"gust_kmh":15.5,"precip_mm":0.0,"precip_prob_pct":0,"snowfall_cm":0.0,"weathercode":3,"zero_level_m":4400.0,"cloudcover_pct":100,"sunshine_min":0.0}},{"type":"Feature","geometry":{"type":"Point","coordinates":[7.821546,46.70932]},"properties":{"name":"Hohwald","lat":46.70932,"lon":7.821546,"forecast_time_iso":"2026-08-27T00:00","forecast_time_str":"202608270000","temp_c":16.3,"wind_kmh":5.0,"gust_kmh":17.3,"precip_mm":0.0,"precip_prob_pct":5,"snowfall_cm":0.0,"weathercode":3,"zero_level_m":4380.0,"cloudcover_pct":100,"sunshine_min":0.0}},{"type":"Feature","geometry":{"type":"Point","coordinates":[7.677712,46.767752]},"properties":{"name":"Homberg","lat":46.767752,"lon":7.677712,"forecast_time_iso":"2026-08-27T00:00","forecast_time_str":"202608270000","temp_c":18.2,"wind_kmh":7.1,"gust_kmh":16.6,"precip_mm":0.0,"precip_prob_pct":0,"snowfall_cm":0.0,"weathercode":3,"zero_level_m":4380.0,"cloudcover_pct":100,"sunshine_min":0.0}},{"type":"Feature","geometry":{"type":"Point","coordinates":[7.33801,46.59558]},"properties":{"name":"Jaunpass","lat":46.59558,"lon":7.33801,"forecast_time_iso":"2026-08-27T00:00","forecast_time_str":"202608270000","temp_c":13.7,"wind_kmh":5.4,"gust_kmh":22.0,"precip_mm":0.0,"precip_prob_pct":6,"snowfall_cm":0.0,"weathercode":1,"zero_level_m":4470.0,"cloudcover_pct":23,"sunshine_min":0.0}},{"type":"Feature","geometry":{"type":"Point","coordinates":[7.722714,46.331917]},"properties":{"name":"Jeizinen","lat":46.331917,"lon":7.722714,"forecast_time_iso":"2026-08-27T00:00","forecast_time_str":"202608270000","temp_c":13.7,"wind_kmh":10.8,"gust_kmh":26.6,"precip_mm":0.0,"precip_prob_pct":3,"snowfall_cm":0.0,"weathercode":2,"zero_level_m":4390.0,"cloudcover_pct":36,"sunshine_min":0.0}},{"type":"Feature","geometry":{"type":"Point","coordinates":[7.715937,46.582592]},"properties":{"name":"Kiental","lat":46.582592,"lon":7.715937,"forecast_time_iso":"2026-08-27T00:00","forecast_time_str":"202608270000","temp_c":16.8,"wind_kmh":6.6,"gust_kmh":13.3,"precip_mm":0.0,"precip_prob_pct":4,"snowfall_cm":0.0,"weathercode":3,"zero_level_m":4410.0,"cloudcover_pct":100,"sunshine_min":0.0}},{"type":"Feature","geometry":{"type":"Point","coordinates":[7.166771,46.682167]},"properties":{"name":"La Berra","lat":46.682167,"lon":7.166771,"forecast_time_iso":"2026-08-27T00:00","forecast_time_str":"202608270000","temp_c":17.0,"wind_kmh":7.7,"gust_kmh":19.1,"precip_mm":0.0,"precip_prob_pct":4,"snowfall_cm":0.0,"weathercode":2,"zero_level_m":4430.0,"cloudcover_pct":52,"sunshine_min":0.0}},{"type":"Feature","geometry":{"type":"Point","coordinates":[7.119769,46.416975]},"properties":{"name":"La Lécherette","lat":46.416975,"lon":7.119769,"forecast_time_iso":"2026-08-27T00:00","forecast_time_str":"202608270000","temp_c":14.4,"wind_kmh":7.8,"gust_kmh":20.5,"precip_mm":0.0,"precip_prob_pct":4,"snowfall_cm":0.0,"weathercode":1,"zero_level_m":4490.0,"cloudcover_pct":56,"sunshine_min":0.0}},{"type":"Feature","geometry":{"type":"Point","coordinates":[7.776004,46.406406]},"properties":{"name":"Lauchernalp","lat":46.406406,"lon":7.776004,"forecast_time_iso":"2026-08-27T00:00","forecast_time_str":"202608270000","temp_c":15.7,"wind_kmh":8.4,"gust_kmh":41.0,"precip_mm":0.0,"precip_prob_pct":5,"snowfall_cm":0.0,"weathercode":1,"zero_level_m":4360.0,"cloudcover_pct":32,"sunshine_min":0.0}},{"type":"Feature","geometry":{"type":"Point","coordinates":[6.213542,46.576439]},"properties":{"name":"Le Brassus","lat":46.576439,"lon":6.213542,"forecast_time_iso":"2026-08-27T00:00","forecast_time_str":"202608270000","temp_c":18.0,"wind_kmh":5.3,"gust_kmh":17.3,"precip_mm":0.0,"precip_prob_pct":4,"snowfall_cm":0.0,"weathercode":0,"zero_level_m":4430.0,"cloudcover_pct":11,"sunshine_min":0.0}},{"type":"Feature","geometry":{"type":"Point","coordinates":[7.147033,46.341095]},"properties":{"name":"Les Diablerets","lat":46.341095,"lon":7.147033,"forecast_time_iso":"2026-08-27T00:00","forecast_time_str":"202608270000","temp_c":17.3,"wind_kmh":10.2,"gust_kmh":34.9,"precip_mm":0.0,"precip_prob_pct":4,"snowfall_cm":0.0,"weathercode":2,"zero_level_m":4460.0,"cloudcover_pct":77,"sunshine_min":0.0}},{"type":"Feature","geometry":{"type":"Point","coordinates":[7.006306,46.111336]},"properties":{"name":"Les Marécottes","lat":46.111336,"lon":7.006306,"forecast_time_iso":"2026-08-27T00:00","forecast_time_str":"202608270000","temp_c":17.9,"wind_kmh":1.8,"gust_kmh":6.8,"precip_mm":0.0,"precip_prob_pct":3,"snowfall_cm":0.0,"weathercode":1,"zero_level_m":4490.0,"cloudcover_pct":7,"sunshine_min":0.0}},{"type":"Feature","geometry":{"type":"Point","coordinates":[7.284725,46.256624]},"properties":{"name":"Les Mayens de Conthey","lat":46.256624,"lon":7.284725,"forecast_time_iso":"2026-08-27T00:00","forecast_time_str":"202608270000","temp_c":17.6,"wind_kmh":7.9,"gust_kmh":29.2,"precip_mm":0.0,"precip_prob_pct":3,"snowfall_cm":0.0,"weathercode":1,"zero_level_m":4450.0,"cloudcover_pct":9,"sunshine_min":0.0}},{"type":"Feature","geometry":{"type":"Point","coordinates":[6.936362,46.514724]},"properties":{"name":"Les Paccots","lat":46.514724,"lon":6.936362,"forecast_time_iso":"2026-08-27T00:00","forecast_time_str":"202608270000","temp_c":19.1,"wind_kmh":9.0,"gust_kmh":19.8,"precip_mm":0.0,"precip_prob_pct":1,"snowfall_cm":0.0,"weathercode":2,"zero_level_m":4460.0,"cloudcover_pct":62,"sunshine_min":0.0}},{"type":"Feature","geometry":{"type":"Point","coordinates":[6.916388,46.488899]},"properties":{"name":"Les Pléiades","lat":46.488899,"lon":6.916388,"forecast_time_iso":"2026-08-27T00:00","forecast_time_str":"202608270000","temp_c":19.3,"wind_kmh":9.0,"gust_kmh":19.8,"precip_mm":0.0,"precip_prob_pct":1,"snowfall_cm":0.0,"weathercode":2,"zero_level_m":4460.0,"cloudcover_pct":62,"sunshine_min":0.0}},{"type":"Feature","geometry":{"type":"Point","coordinates":[6.534253,46.834576]},"properties":{"name":"Les Rasses","lat":46.834576,"lon":6.534253,"forecast_time_iso":"2026-08-27T00:00","forecast_time_str":"202608270000","temp_c":15.8,"wind_kmh":4.0,"gust_kmh":12.6,"precip_mm":0.0,"precip_prob_pct":2,"snowfall_cm":0.0,"weathercode":3,"zero_level_m":4370.0,"cloudcover_pct":100,"sunshine_min":0.0}},{"type":"Feature","geometry":{"type":"Point","coordinates":[6.979251,46.432796]},"properties":{"name":"Les Rochers de Naye","lat":46.432796,"lon":6.979251,"forecast_time_iso":"2026-08-27T00:00","forecast_time_str":"202608270000","temp_c":14.0,"wind_kmh":6.5,"gust_kmh":25.2,"precip_mm":0.0,"precip_prob_pct":1,"snowfall_cm":0.0,"weathercode":2,"zero_level_m":4470.0,"cloudcover_pct":64,"sunshine_min":0.0}},{"type":"Feature","geometry":{"type":"Point","coordinates":[7.638759,46.371437]},"properties":{"name":"Leukerbad","lat":46.371437,"lon":7.638759,"forecast_time_iso":"2026-08-27T00:00","forecast_time_str":"202608270000","temp_c":15.3,"wind_kmh":9.6,"gust_kmh":30.2,"precip_mm":0.0,"precip_prob_pct":4,"snowfall_cm":0.0,"weathercode":1,"zero_level_m":4360.0,"cloudcover_pct":22,"sunshine_min":0.0}},{"type":"Feature","geometry":{"type":"Point","coordinates":[7.010152,46.353519]},"properties":{"name":"Leysin","lat":46.353519,"lon":7.010152,"forecast_time_iso":"2026-08-27T00:00","forecast_time_str":"202608270000","temp_c":17.3,"wind_kmh":9.1,"gust_kmh":25.2,"precip_mm":0.0,"precip_prob_pct":1,"snowfall_cm":0.0,"weathercode":3,"zero_level_m":4490.0,"cloudcover_pct":95,"sunshine_min":0.0}},{"type":"Feature","geometry":{"type":"Point","coordinates":[7.678084,46.843925]},"properties":{"name":"Linden","lat":46.843925,"lon":7.678084,"forecast_time_iso":"2026-08-27T00:00","forecast_time_str":"202608270000","temp_c":16.9,"wind_kmh":6.0,"gust_kmh":13.3,"precip_mm":0.0,"precip_prob_pct":0,"snowfall_cm":0.0,"weathercode":3,"zero_level_m":4400.0,"cloudcover_pct":82,"sunshine_min":0.0}},{"type":"Feature","geometry":{"type":"Point","coordinates":[7.911718,46.834702]},"properties":{"name":"Marbachegg","lat":46.834702,"lon":7.911718,"forecast_time_iso":"2026-08-27T00:00","forecast_time_str":"202608270000","temp_c":16.0,"wind_kmh":5.9,"gust_kmh":20.5,"precip_mm":0.0,"precip_prob_pct":0,"snowfall_cm":0.0,"weathercode":3,"zero_level_m":4400.0,"cloudcover_pct":100,"sunshine_min":0.0}},{"type":"Feature","geometry":{"type":"Point","coordinates":[8.200658,46.730618]},"properties":{"name":"Meiringen-Hasliberg","lat":46.730618,"lon":8.200658,"forecast_time_iso":"2026-08-27T00:00","forecast_time_str":"202608270000","temp_c":20.7,"wind_kmh":8.4,"gust_kmh":17.6,"precip_mm":0.0,"precip_prob_pct":0,"snowfall_cm":0.0,"weathercode":1,"zero_level_m":4450.0,"cloudcover_pct":45,"sunshine_min":0.0}},{"type":"Feature","geometry":{"type":"Point","coordinates":[8.270116,46.776344]},"properties":{"name":"Melchsee-Frutt","lat":46.776344,"lon":8.270116,"forecast_time_iso":"2026-08-27T00:00","forecast_time_str":"202608270000","temp_c":15.1,"wind_kmh":8.6,"gust_kmh":23.0,"precip_mm":0.0,"precip_prob_pct":3,"snowfall_cm":0.0,"weathercode":1,"zero_level_m":4410.0,"cloudcover_pct":15,"sunshine_min":0.0}},{"type":"Feature","geometry":{"type":"Point","coordinates":[7.829611,46.248253]},"properties":{"name":"Moosalp","lat":46.248253,"lon":7.829611,"forecast_time_iso":"2026-08-27T00:00","forecast_time_str":"202608270000","temp_c":12.9,"wind_kmh":9.2,"gust_kmh":24.5,"precip_mm":0.0,"precip_prob_pct":0,"snowfall_cm":0.0,"weathercode":1,"zero_level_m":4360.0,"cloudcover_pct":25,"sunshine_min":0.0}},{"type":"Feature","geometry":{"type":"Point","coordinates":[8.108218,46.822742]},"properties":{"name":"Mörlialp","lat":46.822742,"lon":8.108218,"forecast_time_iso":"2026-08-27T00:00","forecast_time_str":"202608270000","temp_c":14.8,"wind_kmh":4.3,"gust_kmh":10.4,"precip_mm":0.0,"precip_prob_pct":0,"snowfall_cm":0.0,"weathercode":2,"zero_level_m":4450.0,"cloudcover_pct":77,"sunshine_min":0.0}},{"type":"Feature","geometry":{"type":"Point","coordinates":[7.462543,46.225464]},"properties":{"name":"Nax","lat":46.225464,"lon":7.462543,"forecast_time_iso":"2026-08-27T00:00","forecast_time_str":"202608270000","temp_c":16.6,"wind_kmh":5.0,"gust_kmh":14.0,"precip_mm":0.0,"precip_prob_pct":3,"snowfall_cm":0.0,"weathercode":0,"zero_level_m":4450.0,"cloudcover_pct":2,"sunshine_min":0.0}},{"type":"Feature","geometry":{"type":"Point","coordinates":[7.775802,46.710602]},"properties":{"name":"Niederhorn","lat":46.710602,"lon":7.775802,"forecast_time_iso":"2026-08-27T00:00","forecast_time_str":"202608270000","temp_c":14.9,"wind_kmh":7.3,"gust_kmh":24.5,"precip_mm":0.0,"precip_prob_pct":4,"snowfall_cm":0.0,"weathercode":3,"zero_level_m":4370.0,"cloudcover_pct":100,"sunshine_min":0.0}},{"type":"Feature","geometry":{"type":"Point","coordinates":[7.364665,46.735054]},"properties":{"name":"Ottenleue","lat":46.735054,"lon":7.364665,"forecast_time_iso":"2026-08-27T00:00","forecast_time_str":"202608270000","temp_c":14.6,"wind_kmh":6.2,"gust_kmh":18.0,"precip_mm":0.0,"precip_prob_pct":6,"snowfall_cm":0.0,"weathercode":1,"zero_level_m":4440.0,"cloudcover_pct":36,"sunshine_min":0.0}},{"type":"Feature","geometry":{"type":"Point","coordinates":[7.151211,46.204193]},"properties":{"name":"Ovronnaz","lat":46.204193,"lon":7.151211,"forecast_time_iso":"2026-08-27T00:00","forecast_time_str":"202608270000","temp_c":16.9,"wind_kmh":10.3,"gust_kmh":41.4,"precip_mm":0.0,"precip_prob_pct":1,"snowfall_cm":0.0,"weathercode":1,"zero_level_m":4460.0,"cloudcover_pct":15,"sunshine_min":0.0}},{"type":"Feature","geometry":{"type":"Point","coordinates":[6.975307,46.544109]},"properties":{"name":"Rathvel","lat":46.544109,"lon":6.975307,"forecast_time_iso":"2026-08-27T00:00","forecast_time_str":"202608270000","temp_c":16.4,"wind_kmh":8.1,"gust_kmh":17.6,"precip_mm":0.0,"precip_prob_pct":1,"snowfall_cm":0.0,"weathercode":2,"zero_level_m":4460.0,"cloudcover_pct":45,"sunshine_min":0.0}},{"type":"Feature","geometry":{"type":"Point","coordinates":[6.55007,46.8811]},"properties":{"name":"Robella - Val de Travers","lat":46.8811,"lon":6.55007,"forecast_time_iso":"2026-08-27T00:00","forecast_time_str":"202608270000","temp_c":18.2,"wind_kmh":6.6,"gust_kmh":16.2,"precip_mm":0.0,"precip_prob_pct":2,"snowfall_cm":0.0,"weathercode":3,"zero_level_m":4370.0,"cloudcover_pct":100,"sunshine_min":0.0}},{"type":"Feature","geometry":{"type":"Point","coordinates":[7.433806,46.627453]},"properties":{"name":"Rossberg","lat":46.627453,"lon":7.433806,"forecast_time_iso":"2026-08-27T00:00","forecast_time_str":"202608270000","temp_c":13.9,"wind_kmh":5.5,"gust_kmh":16.9,"precip_mm":0.0,"precip_prob_pct":6,"snowfall_cm":0.0,"weathercode":3,"zero_level_m":4470.0,"cloudcover_pct":80,"sunshine_min":0.0}},{"type":"Feature","geometry":{"type":"Point","coordinates":[8.041525,46.304493]},"properties":{"name":"Rosswald","lat":46.304493,"lon":8.041525,"forecast_time_iso":"2026-08-27T00:00","forecast_time_str":"202608270000","temp_c":14.4,"wind_kmh":5.8,"gust_kmh":17.3,"precip_mm":0.0,"precip_prob_pct":3,"snowfall_cm":0.0,"weathercode":2,"zero_level_m":4360.0,"cloudcover_pct":67,"sunshine_min":0.0}},{"type":"Feature","geometry":{"type":"Point","coordinates":[7.963252,46.089706]},"properties":{"name":"Saas-Almagell","lat":46.089706,"lon":7.963252,"forecast_time_iso":"2026-08-27T00:00","forecast_time_str":"202608270000","temp_c":13.1,"wind_kmh":14.0,"gust_kmh":40.7,"precip_mm":0.0,"precip_prob_pct":18,"snowfall_cm":0.0,"weathercode":1,"zero_level_m":4320.0,"cloudcover_pct":75,"sunshine_min":0.0}},{"type":"Feature","geometry":{"type":"Point","coordinates":[7.925277,46.099144]},"properties":{"name":"Saas Fee","lat":46.099144,"lon":7.925277,"forecast_time_iso":"2026-08-27T00:00","forecast_time_str":"202608270000","temp_c":13.6,"wind_kmh":9.2,"gust_kmh":24.5,"precip_mm":0.0,"precip_prob_pct":0,"snowfall_cm":0.0,"weathercode":1,"zero_level_m":4360.0,"cloudcover_pct":25,"sunshine_min":0.0}},{"type":"Feature","geometry":{"type":"Point","coordinates":[6.995653,47.25581]},"properties":{"name":"Saignelégier","lat":47.25581,"lon":6.995653,"forecast_time_iso":"2026-08-27T00:00","forecast_time_str":"202608270000","temp_c":18.2,"wind_kmh":6.4,"gust_kmh":23.0,"precip_mm":0.0,"precip_prob_pct":4,"snowfall_cm":0.0,"weathercode":1,"zero_level_m":4340.0,"cloudcover_pct":25,"sunshine_min":0.0}},{"type":"Feature","geometry":{"type":"Point","coordinates":[7.729452,46.736632]},"properties":{"name":"Schwanden","lat":46.736632,"lon":7.729452,"forecast_time_iso":"2026-08-27T00:00","forecast_time_str":"202608270000","temp_c":19.0,"wind_kmh":5.4,"gust_kmh":15.5,"precip_mm":0.0,"precip_prob_pct":1,"snowfall_cm":0.0,"weathercode":3,"zero_level_m":4380.0,"cloudcover_pct":100,"sunshine_min":0.0}},{"type":"Feature","geometry":{"type":"Point","coordinates":[7.290966,46.664074]},"properties":{"name":"Schwarzsee","lat":46.664074,"lon":7.290966,"forecast_time_iso":"2026-08-27T00:00","forecast_time_str":"202608270000","temp_c":16.6,"wind_kmh":7.7,"gust_kmh":19.8,"precip_mm":0.0,"precip_prob_pct":4,"snowfall_cm":0.0,"weathercode":1,"zero_level_m":4440.0,"cloudcover_pct":40,"sunshine_min":0.0}},{"type":"Feature","geometry":{"type":"Point","coordinates":[7.392882,46.744904]},"properties":{"name":"Selital","lat":46.744904,"lon":7.392882,"forecast_time_iso":"2026-08-27T00:00","forecast_time_str":"202608270000","temp_c":15.2,"wind_kmh":6.2,"gust_kmh":18.0,"precip_mm":0.0,"precip_prob_pct":6,"snowfall_cm":0.0,"weathercode":1,"zero_level_m":4440.0,"cloudcover_pct":36,"sunshine_min":0.0}},{"type":"Feature","geometry":{"type":"Point","coordinates":[8.030524,46.8148]},"properties":{"name":"Sörenberg","lat":46.8148,"lon":8.030524,"forecast_time_iso":"2026-08-27T00:00","forecast_time_str":"202608270000","temp_c":16.5,"wind_kmh":3.3,"gust_kmh":15.8,"precip_mm":0.0,"precip_prob_pct":1,"snowfall_cm":0.0,"weathercode":3,"zero_level_m":4430.0,"cloudcover_pct":100,"sunshine_min":0.0}},{"type":"Feature","geometry":{"type":"Point","coordinates":[7.576687,46.616902]},"properties":{"name":"Springenboden","lat":46.616902,"lon":7.576687,"forecast_time_iso":"2026-08-27T00:00","forecast_time_str":"202608270000","temp_c":17.2,"wind_kmh":9.4,"gust_kmh":23.4,"precip_mm":0.0,"precip_prob_pct":4,"snowfall_cm":0.0,"weathercode":3,"zero_level_m":4430.0,"cloudcover_pct":100,"sunshine_min":0.0}},{"type":"Feature","geometry":{"type":"Point","coordinates":[6.08722,46.442966]},"properties":{"name":"St Cergue","lat":46.442966,"lon":6.08722,"forecast_time_iso":"2026-08-27T00:00","forecast_time_str":"202608270000","temp_c":18.1,"wind_kmh":7.0,"gust_kmh":21.2,"precip_mm":0.0,"precip_prob_pct":3,"snowfall_cm":0.0,"weathercode":0,"zero_level_m":4440.0,"cloudcover_pct":3,"sunshine_min":0.0}},{"type":"Feature","geometry":{"type":"Point","coordinates":[7.604917,46.248325]},"properties":{"name":"St-Luc / Chandolin","lat":46.248325,"lon":7.604917,"forecast_time_iso":"2026-08-27T00:00","forecast_time_str":"202608270000","temp_c":14.3,"wind_kmh":10.8,"gust_kmh":30.2,"precip_mm":0.0,"precip_prob_pct":3,"snowfall_cm":0.0,"weathercode":1,"zero_level_m":4420.0,"cloudcover_pct":5,"sunshine_min":0.0}},{"type":"Feature","geometry":{"type":"Point","coordinates":[7.799555,46.27927]},"properties":{"name":"Unterbäch","lat":46.27927,"lon":7.799555,"forecast_time_iso":"2026-08-27T00:00","forecast_time_str":"202608270000","temp_c":16.9,"wind_kmh":6.1,"gust_kmh":16.9,"precip_mm":0.0,"precip_prob_pct":1,"snowfall_cm":0.0,"weathercode":2,"zero_level_m":4400.0,"cloudcover_pct":40,"sunshine_min":0.0}},{"type":"Feature","geometry":{"type":"Point","coordinates":[7.532484,46.246895]},"properties":{"name":"Vercorin","lat":46.246895,"lon":7.532484,"forecast_time_iso":"2026-08-27T00:00","forecast_time_str":"202608270000","temp_c":14.6,"wind_kmh":5.9,"gust_kmh":24.8,"precip_mm":0.0,"precip_prob_pct":3,"snowfall_cm":0.0,"weathercode":0,"zero_level_m":4460.0,"cloudcover_pct":4,"sunshine_min":0.0}},{"type":"Feature","geometry":{"type":"Point","coordinates":[7.090662,46.299984]},"properties":{"name":"Villars-Gryon","lat":46.299984,"lon":7.090662,"forecast_time_iso":"2026-08-27T00:00","forecast_time_str":"202608270000","temp_c":16.9,"wind_kmh":8.8,"gust_kmh":27.4,"precip_mm":0.0,"precip_prob_pct":1,"snowfall_cm":0.0,"weathercode":3,"zero_level_m":4480.0,"cloudcover_pct":95,"sunshine_min":0.0}},{"type":"Feature","geometry":{"type":"Point","coordinates":[7.913731,46.256939]},"properties":{"name":"Visperterminen","lat":46.256939,"lon":7.913731,"forecast_time_iso":"2026-08-27T00:00","forecast_time_str":"202608270000","temp_c":15.3,"wind_kmh":8.7,"gust_kmh":20.2,"precip_mm":0.0,"precip_prob_pct":0,"snowfall_cm":0.0,"weathercode":1,"zero_level_m":4380.0,"cloudcover_pct":49,"sunshine_min":0.0}},{"type":"Feature","geometry":{"type":"Point","coordinates":[7.745841,46.726089]},"properties":{"name":"Wilerallmi","lat":46.726089,"lon":7.745841,"forecast_time_iso":"2026-08-27T00:00","forecast_time_str":"202608270000","temp_c":17.2,"wind_kmh":5.4,"gust_kmh":15.5,"precip_mm":0.0,"precip_prob_pct":1,"snowfall_cm":0.0,"weathercode":3,"zero_level_m":4380.0,"cloudcover_pct":100,"sunshine_min":0.0}},{"type":"Feature","geometry":{"type":"Point","coordinates":[7.532542,46.612373]},"properties":{"name":"Wiriehorn","lat":46.612373,"lon":7.532542,"forecast_time_iso":"2026-08-27T00:00","forecast_time_str":"202608270000","temp_c":19.3,"wind_kmh":9.2,"gust_kmh":22.3,"precip_mm":0.0,"precip_prob_pct":6,"snowfall_cm":0.0,"weathercode":3,"zero_level_m":4430.0,"cloudcover_pct":100,"sunshine_min":0.0}}]}