{"type":"FeatureCollection","metadata":{"source":"Open-Meteo — ICON Seamless","forecast_time_iso":"2026-06-28T18:00","forecast_time_str":"202606281800","updated_utc":"2026-06-24T02:02:36.673236+00:00","total_stations":76},"features":[{"type":"Feature","geometry":{"type":"Point","coordinates":[7.732993,46.647366]},"properties":{"name":"Aeschiallmend","lat":46.647366,"lon":7.732993,"forecast_time_iso":"2026-06-28T18:00","forecast_time_str":"202606281800","temp_c":25.7,"wind_kmh":2.7,"gust_kmh":17.7,"precip_mm":0.65,"precip_prob_pct":33,"snowfall_cm":0.0,"weathercode":3,"zero_level_m":4412.5,"cloudcover_pct":100,"sunshine_min":1449.13}},{"type":"Feature","geometry":{"type":"Point","coordinates":[7.394955,46.295128]},"properties":{"name":"Anzère","lat":46.295128,"lon":7.394955,"forecast_time_iso":"2026-06-28T18:00","forecast_time_str":"202606281800","temp_c":22.0,"wind_kmh":5.7,"gust_kmh":19.1,"precip_mm":1.13,"precip_prob_pct":45,"snowfall_cm":0.0,"weathercode":80,"zero_level_m":4420.0,"cloudcover_pct":100,"sunshine_min":1516.21}},{"type":"Feature","geometry":{"type":"Point","coordinates":[8.059329,46.738341]},"properties":{"name":"Axalp","lat":46.738341,"lon":8.059329,"forecast_time_iso":"2026-06-28T18:00","forecast_time_str":"202606281800","temp_c":27.8,"wind_kmh":4.5,"gust_kmh":17.2,"precip_mm":1.18,"precip_prob_pct":57,"snowfall_cm":0.0,"weathercode":81,"zero_level_m":4430.0,"cloudcover_pct":100,"sunshine_min":633.02}},{"type":"Feature","geometry":{"type":"Point","coordinates":[7.543444,47.265914]},"properties":{"name":"Balmberg","lat":47.265914,"lon":7.543444,"forecast_time_iso":"2026-06-28T18:00","forecast_time_str":"202606281800","temp_c":26.3,"wind_kmh":4.6,"gust_kmh":28.4,"precip_mm":0.08,"precip_prob_pct":25,"snowfall_cm":0.0,"weathercode":3,"zero_level_m":4395.0,"cloudcover_pct":100,"sunshine_min":3600.0}},{"type":"Feature","geometry":{"type":"Point","coordinates":[7.975012,46.371792]},"properties":{"name":"Belalp","lat":46.371792,"lon":7.975012,"forecast_time_iso":"2026-06-28T18:00","forecast_time_str":"202606281800","temp_c":18.2,"wind_kmh":4.1,"gust_kmh":21.2,"precip_mm":0.78,"precip_prob_pct":62,"snowfall_cm":0.0,"weathercode":80,"zero_level_m":4470.0,"cloudcover_pct":100,"sunshine_min":0.0}},{"type":"Feature","geometry":{"type":"Point","coordinates":[7.01847,47.126057]},"properties":{"name":"Bugnenets-Savagnières","lat":47.126057,"lon":7.01847,"forecast_time_iso":"2026-06-28T18:00","forecast_time_str":"202606281800","temp_c":24.7,"wind_kmh":5.0,"gust_kmh":20.7,"precip_mm":0.6,"precip_prob_pct":18,"snowfall_cm":0.0,"weathercode":95,"zero_level_m":4345.0,"cloudcover_pct":100,"sunshine_min":3600.0}},{"type":"Feature","geometry":{"type":"Point","coordinates":[7.888115,46.807377]},"properties":{"name":"Bumbach","lat":46.807377,"lon":7.888115,"forecast_time_iso":"2026-06-28T18:00","forecast_time_str":"202606281800","temp_c":24.4,"wind_kmh":3.6,"gust_kmh":16.7,"precip_mm":1.55,"precip_prob_pct":49,"snowfall_cm":0.0,"weathercode":80,"zero_level_m":4405.0,"cloudcover_pct":100,"sunshine_min":1047.69}},{"type":"Feature","geometry":{"type":"Point","coordinates":[7.188038,46.622372]},"properties":{"name":"Charmey","lat":46.622372,"lon":7.188038,"forecast_time_iso":"2026-06-28T18:00","forecast_time_str":"202606281800","temp_c":25.1,"wind_kmh":5.1,"gust_kmh":19.4,"precip_mm":0.18,"precip_prob_pct":38,"snowfall_cm":0.0,"weathercode":80,"zero_level_m":4375.0,"cloudcover_pct":100,"sunshine_min":3600.0}},{"type":"Feature","geometry":{"type":"Point","coordinates":[6.993179,47.090527]},"properties":{"name":"Crêt-du-Puy","lat":47.090527,"lon":6.993179,"forecast_time_iso":"2026-06-28T18:00","forecast_time_str":"202606281800","temp_c":26.6,"wind_kmh":6.0,"gust_kmh":23.4,"precip_mm":0.68,"precip_prob_pct":17,"snowfall_cm":0.0,"weathercode":95,"zero_level_m":4352.5,"cloudcover_pct":100,"sunshine_min":3600.0}},{"type":"Feature","geometry":{"type":"Point","coordinates":[7.910718,46.803519]},"properties":{"name":"Eriz","lat":46.803519,"lon":7.910718,"forecast_time_iso":"2026-06-28T18:00","forecast_time_str":"202606281800","temp_c":24.3,"wind_kmh":3.6,"gust_kmh":16.7,"precip_mm":1.55,"precip_prob_pct":56,"snowfall_cm":0.0,"weathercode":80,"zero_level_m":4405.0,"cloudcover_pct":100,"sunshine_min":1047.69}},{"type":"Feature","geometry":{"type":"Point","coordinates":[7.473954,46.020262]},"properties":{"name":"Arolla","lat":46.020262,"lon":7.473954,"forecast_time_iso":"2026-06-28T18:00","forecast_time_str":"202606281800","temp_c":16.6,"wind_kmh":2.7,"gust_kmh":22.8,"precip_mm":1.15,"precip_prob_pct":72,"snowfall_cm":0.0,"weathercode":80,"zero_level_m":4445.0,"cloudcover_pct":100,"sunshine_min":78.62}},{"type":"Feature","geometry":{"type":"Point","coordinates":[7.477226,46.121571]},"properties":{"name":"Evolène","lat":46.121571,"lon":7.477226,"forecast_time_iso":"2026-06-28T18:00","forecast_time_str":"202606281800","temp_c":23.4,"wind_kmh":4.4,"gust_kmh":20.7,"precip_mm":1.53,"precip_prob_pct":42,"snowfall_cm":0.0,"weathercode":95,"zero_level_m":4435.0,"cloudcover_pct":100,"sunshine_min":423.86}},{"type":"Feature","geometry":{"type":"Point","coordinates":[7.523221,46.086246]},"properties":{"name":"La Forclaz","lat":46.086246,"lon":7.523221,"forecast_time_iso":"2026-06-28T18:00","forecast_time_str":"202606281800","temp_c":19.8,"wind_kmh":2.6,"gust_kmh":18.4,"precip_mm":1.08,"precip_prob_pct":72,"snowfall_cm":0.0,"weathercode":80,"zero_level_m":4422.5,"cloudcover_pct":100,"sunshine_min":240.71}},{"type":"Feature","geometry":{"type":"Point","coordinates":[7.72498,46.628002]},"properties":{"name":"Faltschen","lat":46.628002,"lon":7.72498,"forecast_time_iso":"2026-06-28T18:00","forecast_time_str":"202606281800","temp_c":24.9,"wind_kmh":2.2,"gust_kmh":19.4,"precip_mm":0.85,"precip_prob_pct":48,"snowfall_cm":0.0,"weathercode":3,"zero_level_m":4412.5,"cloudcover_pct":100,"sunshine_min":1201.82}},{"type":"Feature","geometry":{"type":"Point","coordinates":[7.454506,46.724655]},"properties":{"name":"Gantrisch Gurnigel","lat":46.724655,"lon":7.454506,"forecast_time_iso":"2026-06-28T18:00","forecast_time_str":"202606281800","temp_c":22.9,"wind_kmh":0.6,"gust_kmh":16.5,"precip_mm":0.78,"precip_prob_pct":46,"snowfall_cm":0.0,"weathercode":3,"zero_level_m":4420.0,"cloudcover_pct":100,"sunshine_min":2463.91}},{"type":"Feature","geometry":{"type":"Point","coordinates":[7.205612,46.353821]},"properties":{"name":"Glacier 3000","lat":46.353821,"lon":7.205612,"forecast_time_iso":"2026-06-28T18:00","forecast_time_str":"202606281800","temp_c":22.0,"wind_kmh":2.6,"gust_kmh":22.9,"precip_mm":1.03,"precip_prob_pct":46,"snowfall_cm":0.0,"weathercode":95,"zero_level_m":4345.0,"cloudcover_pct":100,"sunshine_min":1836.35}},{"type":"Feature","geometry":{"type":"Point","coordinates":[7.902122,46.225312]},"properties":{"name":"Gpson","lat":46.225312,"lon":7.902122,"forecast_time_iso":"2026-06-28T18:00","forecast_time_str":"202606281800","temp_c":19.0,"wind_kmh":1.8,"gust_kmh":17.4,"precip_mm":0.73,"precip_prob_pct":62,"snowfall_cm":0.0,"weathercode":80,"zero_level_m":4452.5,"cloudcover_pct":100,"sunshine_min":154.08}},{"type":"Feature","geometry":{"type":"Point","coordinates":[7.380616,47.221455]},"properties":{"name":"Grenchenberg","lat":47.221455,"lon":7.380616,"forecast_time_iso":"2026-06-28T18:00","forecast_time_str":"202606281800","temp_c":25.0,"wind_kmh":2.5,"gust_kmh":22.7,"precip_mm":0.15,"precip_prob_pct":18,"snowfall_cm":0.0,"weathercode":3,"zero_level_m":4355.0,"cloudcover_pct":95,"sunshine_min":3600.0}},{"type":"Feature","geometry":{"type":"Point","coordinates":[7.584548,46.163437]},"properties":{"name":"Grimentz-Zinal","lat":46.163437,"lon":7.584548,"forecast_time_iso":"2026-06-28T18:00","forecast_time_str":"202606281800","temp_c":15.6,"wind_kmh":2.5,"gust_kmh":21.7,"precip_mm":0.93,"precip_prob_pct":68,"snowfall_cm":0.0,"weathercode":80,"zero_level_m":4420.0,"cloudcover_pct":100,"sunshine_min":15.9}},{"type":"Feature","geometry":{"type":"Point","coordinates":[7.273952,46.465485]},"properties":{"name":"Gstaad","lat":46.465485,"lon":7.273952,"forecast_time_iso":"2026-06-28T18:00","forecast_time_str":"202606281800","temp_c":22.6,"wind_kmh":3.1,"gust_kmh":18.3,"precip_mm":0.65,"precip_prob_pct":48,"snowfall_cm":0.0,"weathercode":3,"zero_level_m":4360.0,"cloudcover_pct":100,"sunshine_min":2096.68}},{"type":"Feature","geometry":{"type":"Point","coordinates":[7.206613,46.472771]},"properties":{"name":"Rougemont","lat":46.472771,"lon":7.206613,"forecast_time_iso":"2026-06-28T18:00","forecast_time_str":"202606281800","temp_c":22.0,"wind_kmh":2.8,"gust_kmh":17.7,"precip_mm":0.8,"precip_prob_pct":48,"snowfall_cm":0.0,"weathercode":3,"zero_level_m":4345.0,"cloudcover_pct":100,"sunshine_min":3343.17}},{"type":"Feature","geometry":{"type":"Point","coordinates":[7.274805,46.507072]},"properties":{"name":"Schönried","lat":46.507072,"lon":7.274805,"forecast_time_iso":"2026-06-28T18:00","forecast_time_str":"202606281800","temp_c":21.7,"wind_kmh":3.6,"gust_kmh":17.5,"precip_mm":0.8,"precip_prob_pct":48,"snowfall_cm":0.0,"weathercode":3,"zero_level_m":4345.0,"cloudcover_pct":100,"sunshine_min":2611.74}},{"type":"Feature","geometry":{"type":"Point","coordinates":[7.382613,46.511063]},"properties":{"name":"St-Stephan","lat":46.511063,"lon":7.382613,"forecast_time_iso":"2026-06-28T18:00","forecast_time_str":"202606281800","temp_c":24.5,"wind_kmh":3.1,"gust_kmh":15.8,"precip_mm":0.85,"precip_prob_pct":46,"snowfall_cm":0.0,"weathercode":3,"zero_level_m":4390.0,"cloudcover_pct":100,"sunshine_min":1760.76}},{"type":"Feature","geometry":{"type":"Point","coordinates":[7.373709,46.550652]},"properties":{"name":"Zweisimmen","lat":46.550652,"lon":7.373709,"forecast_time_iso":"2026-06-28T18:00","forecast_time_str":"202606281800","temp_c":25.4,"wind_kmh":1.7,"gust_kmh":17.5,"precip_mm":0.7,"precip_prob_pct":45,"snowfall_cm":0.0,"weathercode":3,"zero_level_m":4390.0,"cloudcover_pct":100,"sunshine_min":2387.32}},{"type":"Feature","geometry":{"type":"Point","coordinates":[7.484264,46.568069]},"properties":{"name":"Grimmialp","lat":46.568069,"lon":7.484264,"forecast_time_iso":"2026-06-28T18:00","forecast_time_str":"202606281800","temp_c":23.7,"wind_kmh":1.4,"gust_kmh":22.2,"precip_mm":1.58,"precip_prob_pct":50,"snowfall_cm":0.0,"weathercode":3,"zero_level_m":4415.0,"cloudcover_pct":100,"sunshine_min":2051.56}},{"type":"Feature","geometry":{"type":"Point","coordinates":[7.44959,46.757008]},"properties":{"name":"Gurnigelbad","lat":46.757008,"lon":7.44959,"forecast_time_iso":"2026-06-28T18:00","forecast_time_str":"202606281800","temp_c":24.8,"wind_kmh":2.7,"gust_kmh":19.4,"precip_mm":0.4,"precip_prob_pct":46,"snowfall_cm":0.0,"weathercode":3,"zero_level_m":4412.5,"cloudcover_pct":100,"sunshine_min":3275.86}},{"type":"Feature","geometry":{"type":"Point","coordinates":[7.854006,46.731907]},"properties":{"name":"Habkern","lat":46.731907,"lon":7.854006,"forecast_time_iso":"2026-06-28T18:00","forecast_time_str":"202606281800","temp_c":23.0,"wind_kmh":3.9,"gust_kmh":19.2,"precip_mm":1.85,"precip_prob_pct":49,"snowfall_cm":0.0,"weathercode":81,"zero_level_m":4420.0,"cloudcover_pct":100,"sunshine_min":973.18}},{"type":"Feature","geometry":{"type":"Point","coordinates":[7.677143,46.827389]},"properties":{"name":"Heimenschwand","lat":46.827389,"lon":7.677143,"forecast_time_iso":"2026-06-28T18:00","forecast_time_str":"202606281800","temp_c":25.5,"wind_kmh":2.0,"gust_kmh":15.1,"precip_mm":1.05,"precip_prob_pct":33,"snowfall_cm":0.0,"weathercode":3,"zero_level_m":4400.0,"cloudcover_pct":100,"sunshine_min":3031.5}},{"type":"Feature","geometry":{"type":"Point","coordinates":[7.821546,46.70932]},"properties":{"name":"Hohwald","lat":46.70932,"lon":7.821546,"forecast_time_iso":"2026-06-28T18:00","forecast_time_str":"202606281800","temp_c":22.6,"wind_kmh":2.9,"gust_kmh":15.9,"precip_mm":1.93,"precip_prob_pct":49,"snowfall_cm":0.0,"weathercode":80,"zero_level_m":4412.5,"cloudcover_pct":100,"sunshine_min":1379.52}},{"type":"Feature","geometry":{"type":"Point","coordinates":[7.677712,46.767752]},"properties":{"name":"Homberg","lat":46.767752,"lon":7.677712,"forecast_time_iso":"2026-06-28T18:00","forecast_time_str":"202606281800","temp_c":25.5,"wind_kmh":1.9,"gust_kmh":17.3,"precip_mm":0.98,"precip_prob_pct":37,"snowfall_cm":0.0,"weathercode":80,"zero_level_m":4412.5,"cloudcover_pct":100,"sunshine_min":2704.39}},{"type":"Feature","geometry":{"type":"Point","coordinates":[7.33801,46.59558]},"properties":{"name":"Jaunpass","lat":46.59558,"lon":7.33801,"forecast_time_iso":"2026-06-28T18:00","forecast_time_str":"202606281800","temp_c":21.6,"wind_kmh":2.0,"gust_kmh":20.1,"precip_mm":0.6,"precip_prob_pct":49,"snowfall_cm":0.0,"weathercode":3,"zero_level_m":4400.0,"cloudcover_pct":100,"sunshine_min":3329.8}},{"type":"Feature","geometry":{"type":"Point","coordinates":[7.722714,46.331917]},"properties":{"name":"Jeizinen","lat":46.331917,"lon":7.722714,"forecast_time_iso":"2026-06-28T18:00","forecast_time_str":"202606281800","temp_c":20.2,"wind_kmh":3.2,"gust_kmh":15.5,"precip_mm":0.7,"precip_prob_pct":44,"snowfall_cm":0.0,"weathercode":80,"zero_level_m":4430.0,"cloudcover_pct":100,"sunshine_min":248.08}},{"type":"Feature","geometry":{"type":"Point","coordinates":[7.715937,46.582592]},"properties":{"name":"Kiental","lat":46.582592,"lon":7.715937,"forecast_time_iso":"2026-06-28T18:00","forecast_time_str":"202606281800","temp_c":23.9,"wind_kmh":2.6,"gust_kmh":18.3,"precip_mm":0.78,"precip_prob_pct":48,"snowfall_cm":0.0,"weathercode":3,"zero_level_m":4427.5,"cloudcover_pct":100,"sunshine_min":755.16}},{"type":"Feature","geometry":{"type":"Point","coordinates":[7.166771,46.682167]},"properties":{"name":"La Berra","lat":46.682167,"lon":7.166771,"forecast_time_iso":"2026-06-28T18:00","forecast_time_str":"202606281800","temp_c":24.6,"wind_kmh":5.7,"gust_kmh":21.1,"precip_mm":0.25,"precip_prob_pct":34,"snowfall_cm":0.0,"weathercode":95,"zero_level_m":4427.5,"cloudcover_pct":100,"sunshine_min":3600.0}},{"type":"Feature","geometry":{"type":"Point","coordinates":[7.119769,46.416975]},"properties":{"name":"La Lécherette","lat":46.416975,"lon":7.119769,"forecast_time_iso":"2026-06-28T18:00","forecast_time_str":"202606281800","temp_c":21.7,"wind_kmh":2.7,"gust_kmh":24.7,"precip_mm":0.83,"precip_prob_pct":36,"snowfall_cm":0.0,"weathercode":80,"zero_level_m":4312.5,"cloudcover_pct":100,"sunshine_min":3600.0}},{"type":"Feature","geometry":{"type":"Point","coordinates":[7.776004,46.406406]},"properties":{"name":"Lauchernalp","lat":46.406406,"lon":7.776004,"forecast_time_iso":"2026-06-28T18:00","forecast_time_str":"202606281800","temp_c":21.3,"wind_kmh":3.2,"gust_kmh":25.2,"precip_mm":0.58,"precip_prob_pct":63,"snowfall_cm":0.0,"weathercode":3,"zero_level_m":4462.5,"cloudcover_pct":100,"sunshine_min":205.75}},{"type":"Feature","geometry":{"type":"Point","coordinates":[6.213542,46.576439]},"properties":{"name":"Le Brassus","lat":46.576439,"lon":6.213542,"forecast_time_iso":"2026-06-28T18:00","forecast_time_str":"202606281800","temp_c":26.2,"wind_kmh":9.1,"gust_kmh":32.0,"precip_mm":0.48,"precip_prob_pct":37,"snowfall_cm":0.0,"weathercode":80,"zero_level_m":4317.5,"cloudcover_pct":99,"sunshine_min":3600.0}},{"type":"Feature","geometry":{"type":"Point","coordinates":[7.147033,46.341095]},"properties":{"name":"Les Diablerets","lat":46.341095,"lon":7.147033,"forecast_time_iso":"2026-06-28T18:00","forecast_time_str":"202606281800","temp_c":21.6,"wind_kmh":3.1,"gust_kmh":24.7,"precip_mm":1.65,"precip_prob_pct":34,"snowfall_cm":0.0,"weathercode":95,"zero_level_m":4335.0,"cloudcover_pct":100,"sunshine_min":2374.35}},{"type":"Feature","geometry":{"type":"Point","coordinates":[7.006306,46.111336]},"properties":{"name":"Les Marécottes","lat":46.111336,"lon":7.006306,"forecast_time_iso":"2026-06-28T18:00","forecast_time_str":"202606281800","temp_c":23.7,"wind_kmh":3.0,"gust_kmh":17.2,"precip_mm":0.58,"precip_prob_pct":45,"snowfall_cm":0.0,"weathercode":80,"zero_level_m":4377.5,"cloudcover_pct":100,"sunshine_min":2517.1}},{"type":"Feature","geometry":{"type":"Point","coordinates":[7.284725,46.256624]},"properties":{"name":"Les Mayens de Conthey","lat":46.256624,"lon":7.284725,"forecast_time_iso":"2026-06-28T18:00","forecast_time_str":"202606281800","temp_c":23.5,"wind_kmh":2.8,"gust_kmh":16.0,"precip_mm":1.03,"precip_prob_pct":42,"snowfall_cm":0.0,"weathercode":80,"zero_level_m":4402.5,"cloudcover_pct":100,"sunshine_min":1972.6}},{"type":"Feature","geometry":{"type":"Point","coordinates":[7.071578,46.391678]},"properties":{"name":"Les Mosses","lat":46.391678,"lon":7.071578,"forecast_time_iso":"2026-06-28T18:00","forecast_time_str":"202606281800","temp_c":19.8,"wind_kmh":2.3,"gust_kmh":25.2,"precip_mm":1.13,"precip_prob_pct":32,"snowfall_cm":0.0,"weathercode":95,"zero_level_m":4320.0,"cloudcover_pct":100,"sunshine_min":2851.6}},{"type":"Feature","geometry":{"type":"Point","coordinates":[6.936362,46.514724]},"properties":{"name":"Les Paccots","lat":46.514724,"lon":6.936362,"forecast_time_iso":"2026-06-28T18:00","forecast_time_str":"202606281800","temp_c":25.3,"wind_kmh":5.5,"gust_kmh":25.7,"precip_mm":0.48,"precip_prob_pct":25,"snowfall_cm":0.0,"weathercode":80,"zero_level_m":4290.0,"cloudcover_pct":100,"sunshine_min":3600.0}},{"type":"Feature","geometry":{"type":"Point","coordinates":[6.534253,46.834576]},"properties":{"name":"Les Rasses","lat":46.834576,"lon":6.534253,"forecast_time_iso":"2026-06-28T18:00","forecast_time_str":"202606281800","temp_c":22.8,"wind_kmh":8.3,"gust_kmh":30.2,"precip_mm":0.4,"precip_prob_pct":24,"snowfall_cm":0.0,"weathercode":80,"zero_level_m":4332.5,"cloudcover_pct":100,"sunshine_min":3600.0}},{"type":"Feature","geometry":{"type":"Point","coordinates":[6.979251,46.432796]},"properties":{"name":"Les Rochers de Naye","lat":46.432796,"lon":6.979251,"forecast_time_iso":"2026-06-28T18:00","forecast_time_str":"202606281800","temp_c":20.3,"wind_kmh":3.8,"gust_kmh":25.1,"precip_mm":0.48,"precip_prob_pct":25,"snowfall_cm":0.0,"weathercode":80,"zero_level_m":4267.5,"cloudcover_pct":100,"sunshine_min":3600.0}},{"type":"Feature","geometry":{"type":"Point","coordinates":[7.638759,46.371437]},"properties":{"name":"Leukerbad","lat":46.371437,"lon":7.638759,"forecast_time_iso":"2026-06-28T18:00","forecast_time_str":"202606281800","temp_c":20.8,"wind_kmh":5.3,"gust_kmh":27.7,"precip_mm":0.8,"precip_prob_pct":64,"snowfall_cm":0.0,"weathercode":3,"zero_level_m":4437.5,"cloudcover_pct":100,"sunshine_min":455.14}},{"type":"Feature","geometry":{"type":"Point","coordinates":[7.010152,46.353519]},"properties":{"name":"Leysin","lat":46.353519,"lon":7.010152,"forecast_time_iso":"2026-06-28T18:00","forecast_time_str":"202606281800","temp_c":22.5,"wind_kmh":3.3,"gust_kmh":24.3,"precip_mm":0.7,"precip_prob_pct":28,"snowfall_cm":0.0,"weathercode":95,"zero_level_m":4305.0,"cloudcover_pct":100,"sunshine_min":3600.0}},{"type":"Feature","geometry":{"type":"Point","coordinates":[7.678084,46.843925]},"properties":{"name":"Linden","lat":46.843925,"lon":7.678084,"forecast_time_iso":"2026-06-28T18:00","forecast_time_str":"202606281800","temp_c":27.1,"wind_kmh":2.9,"gust_kmh":12.1,"precip_mm":0.68,"precip_prob_pct":33,"snowfall_cm":0.0,"weathercode":3,"zero_level_m":4400.0,"cloudcover_pct":100,"sunshine_min":3217.16}},{"type":"Feature","geometry":{"type":"Point","coordinates":[7.911718,46.834702]},"properties":{"name":"Marbachegg","lat":46.834702,"lon":7.911718,"forecast_time_iso":"2026-06-28T18:00","forecast_time_str":"202606281800","temp_c":22.7,"wind_kmh":3.9,"gust_kmh":17.5,"precip_mm":1.55,"precip_prob_pct":45,"snowfall_cm":0.0,"weathercode":81,"zero_level_m":4405.0,"cloudcover_pct":100,"sunshine_min":851.39}},{"type":"Feature","geometry":{"type":"Point","coordinates":[8.200658,46.730618]},"properties":{"name":"Meiringen-Hasliberg","lat":46.730618,"lon":8.200658,"forecast_time_iso":"2026-06-28T18:00","forecast_time_str":"202606281800","temp_c":25.3,"wind_kmh":4.4,"gust_kmh":17.3,"precip_mm":2.02,"precip_prob_pct":53,"snowfall_cm":0.0,"weathercode":81,"zero_level_m":4445.0,"cloudcover_pct":100,"sunshine_min":278.4}},{"type":"Feature","geometry":{"type":"Point","coordinates":[8.270116,46.776344]},"properties":{"name":"Melchsee-Frutt","lat":46.776344,"lon":8.270116,"forecast_time_iso":"2026-06-28T18:00","forecast_time_str":"202606281800","temp_c":17.8,"wind_kmh":1.1,"gust_kmh":19.5,"precip_mm":1.4,"precip_prob_pct":73,"snowfall_cm":0.0,"weathercode":95,"zero_level_m":4420.0,"cloudcover_pct":100,"sunshine_min":23.22}},{"type":"Feature","geometry":{"type":"Point","coordinates":[7.034523,46.561966]},"properties":{"name":"Moléson","lat":46.561966,"lon":7.034523,"forecast_time_iso":"2026-06-28T18:00","forecast_time_str":"202606281800","temp_c":25.2,"wind_kmh":3.4,"gust_kmh":21.1,"precip_mm":0.4,"precip_prob_pct":25,"snowfall_cm":0.0,"weathercode":3,"zero_level_m":4320.0,"cloudcover_pct":100,"sunshine_min":3600.0}},{"type":"Feature","geometry":{"type":"Point","coordinates":[7.829611,46.248253]},"properties":{"name":"Moosalp","lat":46.248253,"lon":7.829611,"forecast_time_iso":"2026-06-28T18:00","forecast_time_str":"202606281800","temp_c":18.1,"wind_kmh":1.8,"gust_kmh":17.4,"precip_mm":0.73,"precip_prob_pct":60,"snowfall_cm":0.0,"weathercode":80,"zero_level_m":4452.5,"cloudcover_pct":100,"sunshine_min":154.08}},{"type":"Feature","geometry":{"type":"Point","coordinates":[8.108218,46.822742]},"properties":{"name":"Mörlialp","lat":46.822742,"lon":8.108218,"forecast_time_iso":"2026-06-28T18:00","forecast_time_str":"202606281800","temp_c":21.4,"wind_kmh":6.1,"gust_kmh":20.6,"precip_mm":2.0,"precip_prob_pct":56,"snowfall_cm":0.0,"weathercode":81,"zero_level_m":4442.5,"cloudcover_pct":100,"sunshine_min":810.43}},{"type":"Feature","geometry":{"type":"Point","coordinates":[7.462543,46.225464]},"properties":{"name":"Nax","lat":46.225464,"lon":7.462543,"forecast_time_iso":"2026-06-28T18:00","forecast_time_str":"202606281800","temp_c":22.7,"wind_kmh":4.4,"gust_kmh":20.7,"precip_mm":1.53,"precip_prob_pct":46,"snowfall_cm":0.0,"weathercode":95,"zero_level_m":4435.0,"cloudcover_pct":100,"sunshine_min":423.86}},{"type":"Feature","geometry":{"type":"Point","coordinates":[7.775802,46.710602]},"properties":{"name":"Niederhorn","lat":46.710602,"lon":7.775802,"forecast_time_iso":"2026-06-28T18:00","forecast_time_str":"202606281800","temp_c":19.7,"wind_kmh":2.5,"gust_kmh":21.8,"precip_mm":0.93,"precip_prob_pct":48,"snowfall_cm":0.0,"weathercode":3,"zero_level_m":4412.5,"cloudcover_pct":100,"sunshine_min":795.93}},{"type":"Feature","geometry":{"type":"Point","coordinates":[7.364665,46.735054]},"properties":{"name":"Ottenleue","lat":46.735054,"lon":7.364665,"forecast_time_iso":"2026-06-28T18:00","forecast_time_str":"202606281800","temp_c":21.9,"wind_kmh":1.4,"gust_kmh":13.3,"precip_mm":0.6,"precip_prob_pct":46,"snowfall_cm":0.0,"weathercode":3,"zero_level_m":4407.5,"cloudcover_pct":100,"sunshine_min":2892.03}},{"type":"Feature","geometry":{"type":"Point","coordinates":[7.151211,46.204193]},"properties":{"name":"Ovronnaz","lat":46.204193,"lon":7.151211,"forecast_time_iso":"2026-06-28T18:00","forecast_time_str":"202606281800","temp_c":22.5,"wind_kmh":4.4,"gust_kmh":29.8,"precip_mm":1.05,"precip_prob_pct":43,"snowfall_cm":0.0,"weathercode":95,"zero_level_m":4382.5,"cloudcover_pct":100,"sunshine_min":2630.34}},{"type":"Feature","geometry":{"type":"Point","coordinates":[6.55007,46.8811]},"properties":{"name":"Robella - Val de Travers","lat":46.8811,"lon":6.55007,"forecast_time_iso":"2026-06-28T18:00","forecast_time_str":"202606281800","temp_c":25.5,"wind_kmh":8.1,"gust_kmh":25.7,"precip_mm":0.55,"precip_prob_pct":25,"snowfall_cm":0.0,"weathercode":80,"zero_level_m":4340.0,"cloudcover_pct":99,"sunshine_min":3600.0}},{"type":"Feature","geometry":{"type":"Point","coordinates":[7.433806,46.627453]},"properties":{"name":"Rossberg","lat":46.627453,"lon":7.433806,"forecast_time_iso":"2026-06-28T18:00","forecast_time_str":"202606281800","temp_c":21.8,"wind_kmh":1.2,"gust_kmh":20.1,"precip_mm":0.9,"precip_prob_pct":44,"snowfall_cm":0.0,"weathercode":3,"zero_level_m":4422.5,"cloudcover_pct":100,"sunshine_min":2378.72}},{"type":"Feature","geometry":{"type":"Point","coordinates":[8.041525,46.304493]},"properties":{"name":"Rosswald","lat":46.304493,"lon":8.041525,"forecast_time_iso":"2026-06-28T18:00","forecast_time_str":"202606281800","temp_c":20.1,"wind_kmh":0.9,"gust_kmh":21.7,"precip_mm":0.48,"precip_prob_pct":75,"snowfall_cm":0.0,"weathercode":95,"zero_level_m":4440.0,"cloudcover_pct":100,"sunshine_min":0.0}},{"type":"Feature","geometry":{"type":"Point","coordinates":[7.425229,46.750965]},"properties":{"name":"Rüschegg","lat":46.750965,"lon":7.425229,"forecast_time_iso":"2026-06-28T18:00","forecast_time_str":"202606281800","temp_c":24.7,"wind_kmh":3.0,"gust_kmh":18.0,"precip_mm":0.38,"precip_prob_pct":35,"snowfall_cm":0.0,"weathercode":3,"zero_level_m":4410.0,"cloudcover_pct":100,"sunshine_min":3275.86}},{"type":"Feature","geometry":{"type":"Point","coordinates":[7.963252,46.089706]},"properties":{"name":"Saas-Almagell","lat":46.089706,"lon":7.963252,"forecast_time_iso":"2026-06-28T18:00","forecast_time_str":"202606281800","temp_c":18.4,"wind_kmh":2.9,"gust_kmh":21.8,"precip_mm":0.78,"precip_prob_pct":82,"snowfall_cm":0.0,"weathercode":80,"zero_level_m":4512.5,"cloudcover_pct":100,"sunshine_min":0.0}},{"type":"Feature","geometry":{"type":"Point","coordinates":[7.925277,46.099144]},"properties":{"name":"Saas Fee","lat":46.099144,"lon":7.925277,"forecast_time_iso":"2026-06-28T18:00","forecast_time_str":"202606281800","temp_c":18.7,"wind_kmh":1.8,"gust_kmh":17.4,"precip_mm":0.73,"precip_prob_pct":62,"snowfall_cm":0.0,"weathercode":80,"zero_level_m":4452.5,"cloudcover_pct":100,"sunshine_min":154.08}},{"type":"Feature","geometry":{"type":"Point","coordinates":[6.995653,47.25581]},"properties":{"name":"Saignelégier","lat":47.25581,"lon":6.995653,"forecast_time_iso":"2026-06-28T18:00","forecast_time_str":"202606281800","temp_c":26.1,"wind_kmh":7.7,"gust_kmh":24.1,"precip_mm":0.35,"precip_prob_pct":29,"snowfall_cm":0.0,"weathercode":80,"zero_level_m":4327.5,"cloudcover_pct":99,"sunshine_min":3600.0}},{"type":"Feature","geometry":{"type":"Point","coordinates":[7.729452,46.736632]},"properties":{"name":"Schwanden","lat":46.736632,"lon":7.729452,"forecast_time_iso":"2026-06-28T18:00","forecast_time_str":"202606281800","temp_c":25.4,"wind_kmh":2.1,"gust_kmh":16.7,"precip_mm":1.25,"precip_prob_pct":33,"snowfall_cm":0.0,"weathercode":80,"zero_level_m":4412.5,"cloudcover_pct":100,"sunshine_min":2079.84}},{"type":"Feature","geometry":{"type":"Point","coordinates":[7.392882,46.744904]},"properties":{"name":"Selital","lat":46.744904,"lon":7.392882,"forecast_time_iso":"2026-06-28T18:00","forecast_time_str":"202606281800","temp_c":22.5,"wind_kmh":1.4,"gust_kmh":13.3,"precip_mm":0.6,"precip_prob_pct":44,"snowfall_cm":0.0,"weathercode":3,"zero_level_m":4407.5,"cloudcover_pct":100,"sunshine_min":2892.03}},{"type":"Feature","geometry":{"type":"Point","coordinates":[8.030524,46.8148]},"properties":{"name":"Sörenberg","lat":46.8148,"lon":8.030524,"forecast_time_iso":"2026-06-28T18:00","forecast_time_str":"202606281800","temp_c":22.9,"wind_kmh":4.8,"gust_kmh":21.2,"precip_mm":1.63,"precip_prob_pct":54,"snowfall_cm":0.0,"weathercode":81,"zero_level_m":4425.0,"cloudcover_pct":100,"sunshine_min":830.17}},{"type":"Feature","geometry":{"type":"Point","coordinates":[7.576687,46.616902]},"properties":{"name":"Springenboden","lat":46.616902,"lon":7.576687,"forecast_time_iso":"2026-06-28T18:00","forecast_time_str":"202606281800","temp_c":22.5,"wind_kmh":1.5,"gust_kmh":25.3,"precip_mm":1.6,"precip_prob_pct":54,"snowfall_cm":0.0,"weathercode":3,"zero_level_m":4427.5,"cloudcover_pct":100,"sunshine_min":1304.69}},{"type":"Feature","geometry":{"type":"Point","coordinates":[6.08722,46.442966]},"properties":{"name":"St Cergue","lat":46.442966,"lon":6.08722,"forecast_time_iso":"2026-06-28T18:00","forecast_time_str":"202606281800","temp_c":25.3,"wind_kmh":12.4,"gust_kmh":33.7,"precip_mm":0.2,"precip_prob_pct":25,"snowfall_cm":0.0,"weathercode":80,"zero_level_m":4302.5,"cloudcover_pct":100,"sunshine_min":3600.0}},{"type":"Feature","geometry":{"type":"Point","coordinates":[7.604917,46.248325]},"properties":{"name":"St-Luc / Chandolin","lat":46.248325,"lon":7.604917,"forecast_time_iso":"2026-06-28T18:00","forecast_time_str":"202606281800","temp_c":19.8,"wind_kmh":2.8,"gust_kmh":19.5,"precip_mm":0.78,"precip_prob_pct":47,"snowfall_cm":0.0,"weathercode":80,"zero_level_m":4422.5,"cloudcover_pct":100,"sunshine_min":356.05}},{"type":"Feature","geometry":{"type":"Point","coordinates":[7.083587,47.214433]},"properties":{"name":"Tramelan","lat":47.214433,"lon":7.083587,"forecast_time_iso":"2026-06-28T18:00","forecast_time_str":"202606281800","temp_c":26.6,"wind_kmh":5.8,"gust_kmh":24.5,"precip_mm":0.2,"precip_prob_pct":22,"snowfall_cm":0.0,"weathercode":80,"zero_level_m":4327.5,"cloudcover_pct":100,"sunshine_min":3600.0}},{"type":"Feature","geometry":{"type":"Point","coordinates":[7.799555,46.27927]},"properties":{"name":"Unterbäch","lat":46.27927,"lon":7.799555,"forecast_time_iso":"2026-06-28T18:00","forecast_time_str":"202606281800","temp_c":22.7,"wind_kmh":2.1,"gust_kmh":17.6,"precip_mm":0.7,"precip_prob_pct":68,"snowfall_cm":0.0,"weathercode":95,"zero_level_m":4460.0,"cloudcover_pct":100,"sunshine_min":68.46}},{"type":"Feature","geometry":{"type":"Point","coordinates":[7.532484,46.246895]},"properties":{"name":"Vercorin","lat":46.246895,"lon":7.532484,"forecast_time_iso":"2026-06-28T18:00","forecast_time_str":"202606281800","temp_c":21.4,"wind_kmh":3.1,"gust_kmh":13.1,"precip_mm":0.78,"precip_prob_pct":46,"snowfall_cm":0.0,"weathercode":3,"zero_level_m":4435.0,"cloudcover_pct":100,"sunshine_min":205.66}},{"type":"Feature","geometry":{"type":"Point","coordinates":[7.913731,46.256939]},"properties":{"name":"Visperterminen","lat":46.256939,"lon":7.913731,"forecast_time_iso":"2026-06-28T18:00","forecast_time_str":"202606281800","temp_c":21.3,"wind_kmh":0.5,"gust_kmh":15.5,"precip_mm":0.58,"precip_prob_pct":62,"snowfall_cm":0.0,"weathercode":80,"zero_level_m":4467.5,"cloudcover_pct":100,"sunshine_min":229.99}},{"type":"Feature","geometry":{"type":"Point","coordinates":[7.745841,46.726089]},"properties":{"name":"Wilerallmi","lat":46.726089,"lon":7.745841,"forecast_time_iso":"2026-06-28T18:00","forecast_time_str":"202606281800","temp_c":23.6,"wind_kmh":2.1,"gust_kmh":16.7,"precip_mm":1.25,"precip_prob_pct":33,"snowfall_cm":0.0,"weathercode":80,"zero_level_m":4412.5,"cloudcover_pct":100,"sunshine_min":2079.84}},{"type":"Feature","geometry":{"type":"Point","coordinates":[7.532542,46.612373]},"properties":{"name":"Wiriehorn","lat":46.612373,"lon":7.532542,"forecast_time_iso":"2026-06-28T18:00","forecast_time_str":"202606281800","temp_c":25.3,"wind_kmh":2.1,"gust_kmh":21.2,"precip_mm":1.28,"precip_prob_pct":44,"snowfall_cm":0.0,"weathercode":3,"zero_level_m":4422.5,"cloudcover_pct":100,"sunshine_min":1943.72}}]}