{"type":"FeatureCollection","metadata":{"source":"Open-Meteo — ICON Seamless","forecast_time_iso":"2026-10-08T18:00","forecast_time_str":"202610081800","updated_utc":"2026-10-06T21:59:07.359590+00:00","total_stations":79},"features":[{"type":"Feature","geometry":{"type":"Point","coordinates":[7.732993,46.647366]},"properties":{"name":"Aeschiallmend","lat":46.647366,"lon":7.732993,"forecast_time_iso":"2026-10-08T18:00","forecast_time_str":"202610081800","temp_c":6.8,"wind_kmh":9.0,"gust_kmh":28.5,"precip_mm":1.3,"precip_prob_pct":93,"snowfall_cm":0.0,"weathercode":61,"zero_level_m":1845.0,"cloudcover_pct":100,"sunshine_min":0.0}},{"type":"Feature","geometry":{"type":"Point","coordinates":[7.394955,46.295128]},"properties":{"name":"Anzère","lat":46.295128,"lon":7.394955,"forecast_time_iso":"2026-10-08T18:00","forecast_time_str":"202610081800","temp_c":5.0,"wind_kmh":7.7,"gust_kmh":31.2,"precip_mm":0.35,"precip_prob_pct":73,"snowfall_cm":0.0,"weathercode":2,"zero_level_m":2122.5,"cloudcover_pct":32,"sunshine_min":2700.0}},{"type":"Feature","geometry":{"type":"Point","coordinates":[8.059329,46.738341]},"properties":{"name":"Axalp","lat":46.738341,"lon":8.059329,"forecast_time_iso":"2026-10-08T18:00","forecast_time_str":"202610081800","temp_c":10.8,"wind_kmh":11.7,"gust_kmh":26.3,"precip_mm":0.9,"precip_prob_pct":95,"snowfall_cm":0.0,"weathercode":80,"zero_level_m":1867.5,"cloudcover_pct":97,"sunshine_min":0.0}},{"type":"Feature","geometry":{"type":"Point","coordinates":[7.543444,47.265914]},"properties":{"name":"Balmberg","lat":47.265914,"lon":7.543444,"forecast_time_iso":"2026-10-08T18:00","forecast_time_str":"202610081800","temp_c":6.3,"wind_kmh":25.8,"gust_kmh":68.6,"precip_mm":0.0,"precip_prob_pct":23,"snowfall_cm":0.0,"weathercode":1,"zero_level_m":1932.5,"cloudcover_pct":34,"sunshine_min":2700.0}},{"type":"Feature","geometry":{"type":"Point","coordinates":[7.975012,46.371792]},"properties":{"name":"Belalp","lat":46.371792,"lon":7.975012,"forecast_time_iso":"2026-10-08T18:00","forecast_time_str":"202610081800","temp_c":2.3,"wind_kmh":6.4,"gust_kmh":15.8,"precip_mm":0.31,"precip_prob_pct":45,"snowfall_cm":0.0,"weathercode":80,"zero_level_m":2285.0,"cloudcover_pct":36,"sunshine_min":2700.0}},{"type":"Feature","geometry":{"type":"Point","coordinates":[7.01847,47.126057]},"properties":{"name":"Bugnenets-Savagnières","lat":47.126057,"lon":7.01847,"forecast_time_iso":"2026-10-08T18:00","forecast_time_str":"202610081800","temp_c":3.9,"wind_kmh":19.8,"gust_kmh":57.7,"precip_mm":0.41,"precip_prob_pct":13,"snowfall_cm":0.0,"weathercode":61,"zero_level_m":1717.5,"cloudcover_pct":96,"sunshine_min":2330.94}},{"type":"Feature","geometry":{"type":"Point","coordinates":[7.888115,46.807377]},"properties":{"name":"Bumbach","lat":46.807377,"lon":7.888115,"forecast_time_iso":"2026-10-08T18:00","forecast_time_str":"202610081800","temp_c":6.1,"wind_kmh":15.9,"gust_kmh":25.8,"precip_mm":2.22,"precip_prob_pct":85,"snowfall_cm":0.0,"weathercode":80,"zero_level_m":1810.0,"cloudcover_pct":97,"sunshine_min":0.0}},{"type":"Feature","geometry":{"type":"Point","coordinates":[7.188038,46.622372]},"properties":{"name":"Charmey","lat":46.622372,"lon":7.188038,"forecast_time_iso":"2026-10-08T18:00","forecast_time_str":"202610081800","temp_c":5.1,"wind_kmh":8.8,"gust_kmh":27.5,"precip_mm":1.2,"precip_prob_pct":85,"snowfall_cm":0.0,"weathercode":80,"zero_level_m":1790.0,"cloudcover_pct":92,"sunshine_min":79.68}},{"type":"Feature","geometry":{"type":"Point","coordinates":[6.993179,47.090527]},"properties":{"name":"Crêt-du-Puy","lat":47.090527,"lon":6.993179,"forecast_time_iso":"2026-10-08T18:00","forecast_time_str":"202610081800","temp_c":6.2,"wind_kmh":29.0,"gust_kmh":75.3,"precip_mm":0.0,"precip_prob_pct":13,"snowfall_cm":0.0,"weathercode":61,"zero_level_m":1947.5,"cloudcover_pct":28,"sunshine_min":3600.0}},{"type":"Feature","geometry":{"type":"Point","coordinates":[7.776881,46.289505]},"properties":{"name":"Eischoll","lat":46.289505,"lon":7.776881,"forecast_time_iso":"2026-10-08T18:00","forecast_time_str":"202610081800","temp_c":6.0,"wind_kmh":19.3,"gust_kmh":45.2,"precip_mm":0.13,"precip_prob_pct":65,"snowfall_cm":0.0,"weathercode":3,"zero_level_m":2152.5,"cloudcover_pct":79,"sunshine_min":2770.54}},{"type":"Feature","geometry":{"type":"Point","coordinates":[7.910718,46.803519]},"properties":{"name":"Eriz","lat":46.803519,"lon":7.910718,"forecast_time_iso":"2026-10-08T18:00","forecast_time_str":"202610081800","temp_c":6.0,"wind_kmh":15.9,"gust_kmh":25.8,"precip_mm":2.22,"precip_prob_pct":85,"snowfall_cm":0.0,"weathercode":80,"zero_level_m":1810.0,"cloudcover_pct":97,"sunshine_min":0.0}},{"type":"Feature","geometry":{"type":"Point","coordinates":[7.473954,46.020262]},"properties":{"name":"Arolla","lat":46.020262,"lon":7.473954,"forecast_time_iso":"2026-10-08T18:00","forecast_time_str":"202610081800","temp_c":-0.8,"wind_kmh":15.5,"gust_kmh":33.9,"precip_mm":0.35,"precip_prob_pct":90,"snowfall_cm":0.11,"weathercode":85,"zero_level_m":2148.75,"cloudcover_pct":100,"sunshine_min":2700.0}},{"type":"Feature","geometry":{"type":"Point","coordinates":[7.477226,46.121571]},"properties":{"name":"Evolène","lat":46.121571,"lon":7.477226,"forecast_time_iso":"2026-10-08T18:00","forecast_time_str":"202610081800","temp_c":5.2,"wind_kmh":10.9,"gust_kmh":30.2,"precip_mm":0.25,"precip_prob_pct":85,"snowfall_cm":0.0,"weathercode":80,"zero_level_m":2047.5,"cloudcover_pct":83,"sunshine_min":308.18}},{"type":"Feature","geometry":{"type":"Point","coordinates":[7.523221,46.086246]},"properties":{"name":"La Forclaz","lat":46.086246,"lon":7.523221,"forecast_time_iso":"2026-10-08T18:00","forecast_time_str":"202610081800","temp_c":1.5,"wind_kmh":7.1,"gust_kmh":18.0,"precip_mm":0.33,"precip_prob_pct":90,"snowfall_cm":0.0,"weathercode":80,"zero_level_m":1982.5,"cloudcover_pct":99,"sunshine_min":867.94}},{"type":"Feature","geometry":{"type":"Point","coordinates":[7.72498,46.628002]},"properties":{"name":"Faltschen","lat":46.628002,"lon":7.72498,"forecast_time_iso":"2026-10-08T18:00","forecast_time_str":"202610081800","temp_c":5.6,"wind_kmh":11.9,"gust_kmh":32.3,"precip_mm":1.3,"precip_prob_pct":93,"snowfall_cm":0.0,"weathercode":61,"zero_level_m":1837.5,"cloudcover_pct":100,"sunshine_min":0.0}},{"type":"Feature","geometry":{"type":"Point","coordinates":[7.454506,46.724655]},"properties":{"name":"Gantrisch Gurnigel","lat":46.724655,"lon":7.454506,"forecast_time_iso":"2026-10-08T18:00","forecast_time_str":"202610081800","temp_c":3.2,"wind_kmh":15.0,"gust_kmh":51.3,"precip_mm":0.83,"precip_prob_pct":83,"snowfall_cm":0.0,"weathercode":80,"zero_level_m":1772.5,"cloudcover_pct":100,"sunshine_min":0.0}},{"type":"Feature","geometry":{"type":"Point","coordinates":[7.205612,46.353821]},"properties":{"name":"Glacier 3000","lat":46.353821,"lon":7.205612,"forecast_time_iso":"2026-10-08T18:00","forecast_time_str":"202610081800","temp_c":2.8,"wind_kmh":5.1,"gust_kmh":19.4,"precip_mm":0.5,"precip_prob_pct":83,"snowfall_cm":0.0,"weathercode":80,"zero_level_m":1850.0,"cloudcover_pct":100,"sunshine_min":0.0}},{"type":"Feature","geometry":{"type":"Point","coordinates":[7.902122,46.225312]},"properties":{"name":"Gpson","lat":46.225312,"lon":7.902122,"forecast_time_iso":"2026-10-08T18:00","forecast_time_str":"202610081800","temp_c":3.2,"wind_kmh":14.8,"gust_kmh":36.9,"precip_mm":0.1,"precip_prob_pct":43,"snowfall_cm":0.0,"weathercode":2,"zero_level_m":2235.0,"cloudcover_pct":82,"sunshine_min":2804.23}},{"type":"Feature","geometry":{"type":"Point","coordinates":[7.584548,46.163437]},"properties":{"name":"Grimentz-Zinal","lat":46.163437,"lon":7.584548,"forecast_time_iso":"2026-10-08T18:00","forecast_time_str":"202610081800","temp_c":-1.4,"wind_kmh":13.6,"gust_kmh":36.3,"precip_mm":0.58,"precip_prob_pct":90,"snowfall_cm":0.12,"weathercode":85,"zero_level_m":2381.25,"cloudcover_pct":98,"sunshine_min":0.0}},{"type":"Feature","geometry":{"type":"Point","coordinates":[7.273952,46.465485]},"properties":{"name":"Gstaad","lat":46.465485,"lon":7.273952,"forecast_time_iso":"2026-10-08T18:00","forecast_time_str":"202610081800","temp_c":4.9,"wind_kmh":5.2,"gust_kmh":15.0,"precip_mm":0.3,"precip_prob_pct":83,"snowfall_cm":0.0,"weathercode":3,"zero_level_m":1885.0,"cloudcover_pct":97,"sunshine_min":2667.65}},{"type":"Feature","geometry":{"type":"Point","coordinates":[7.206613,46.472771]},"properties":{"name":"Rougemont","lat":46.472771,"lon":7.206613,"forecast_time_iso":"2026-10-08T18:00","forecast_time_str":"202610081800","temp_c":3.2,"wind_kmh":8.7,"gust_kmh":27.5,"precip_mm":0.6,"precip_prob_pct":83,"snowfall_cm":0.0,"weathercode":80,"zero_level_m":1840.0,"cloudcover_pct":99,"sunshine_min":2700.0}},{"type":"Feature","geometry":{"type":"Point","coordinates":[7.323383,46.506207]},"properties":{"name":"Saanenmöser","lat":46.506207,"lon":7.323383,"forecast_time_iso":"2026-10-08T18:00","forecast_time_str":"202610081800","temp_c":3.7,"wind_kmh":9.2,"gust_kmh":21.2,"precip_mm":0.43,"precip_prob_pct":88,"snowfall_cm":0.0,"weathercode":3,"zero_level_m":1862.5,"cloudcover_pct":100,"sunshine_min":213.78}},{"type":"Feature","geometry":{"type":"Point","coordinates":[7.274805,46.507072]},"properties":{"name":"Schönried","lat":46.507072,"lon":7.274805,"forecast_time_iso":"2026-10-08T18:00","forecast_time_str":"202610081800","temp_c":3.2,"wind_kmh":9.4,"gust_kmh":26.2,"precip_mm":0.58,"precip_prob_pct":83,"snowfall_cm":0.0,"weathercode":80,"zero_level_m":1840.0,"cloudcover_pct":100,"sunshine_min":2700.0}},{"type":"Feature","geometry":{"type":"Point","coordinates":[7.382613,46.511063]},"properties":{"name":"St-Stephan","lat":46.511063,"lon":7.382613,"forecast_time_iso":"2026-10-08T18:00","forecast_time_str":"202610081800","temp_c":5.5,"wind_kmh":6.7,"gust_kmh":23.3,"precip_mm":0.4,"precip_prob_pct":88,"snowfall_cm":0.0,"weathercode":80,"zero_level_m":1822.5,"cloudcover_pct":99,"sunshine_min":0.87}},{"type":"Feature","geometry":{"type":"Point","coordinates":[7.373709,46.550652]},"properties":{"name":"Zweisimmen","lat":46.550652,"lon":7.373709,"forecast_time_iso":"2026-10-08T18:00","forecast_time_str":"202610081800","temp_c":7.0,"wind_kmh":8.3,"gust_kmh":18.5,"precip_mm":0.61,"precip_prob_pct":88,"snowfall_cm":0.0,"weathercode":80,"zero_level_m":1852.5,"cloudcover_pct":100,"sunshine_min":970.05}},{"type":"Feature","geometry":{"type":"Point","coordinates":[7.484264,46.568069]},"properties":{"name":"Grimmialp","lat":46.568069,"lon":7.484264,"forecast_time_iso":"2026-10-08T18:00","forecast_time_str":"202610081800","temp_c":5.0,"wind_kmh":5.1,"gust_kmh":21.3,"precip_mm":0.69,"precip_prob_pct":88,"snowfall_cm":0.0,"weathercode":80,"zero_level_m":1867.5,"cloudcover_pct":100,"sunshine_min":0.0}},{"type":"Feature","geometry":{"type":"Point","coordinates":[7.44959,46.757008]},"properties":{"name":"Gurnigelbad","lat":46.757008,"lon":7.44959,"forecast_time_iso":"2026-10-08T18:00","forecast_time_str":"202610081800","temp_c":4.8,"wind_kmh":15.4,"gust_kmh":45.7,"precip_mm":0.26,"precip_prob_pct":83,"snowfall_cm":0.0,"weathercode":80,"zero_level_m":1772.5,"cloudcover_pct":94,"sunshine_min":0.0}},{"type":"Feature","geometry":{"type":"Point","coordinates":[7.854006,46.731907]},"properties":{"name":"Habkern","lat":46.731907,"lon":7.854006,"forecast_time_iso":"2026-10-08T18:00","forecast_time_str":"202610081800","temp_c":4.4,"wind_kmh":8.6,"gust_kmh":20.1,"precip_mm":2.16,"precip_prob_pct":88,"snowfall_cm":0.0,"weathercode":80,"zero_level_m":1872.5,"cloudcover_pct":81,"sunshine_min":0.0}},{"type":"Feature","geometry":{"type":"Point","coordinates":[7.677143,46.827389]},"properties":{"name":"Heimenschwand","lat":46.827389,"lon":7.677143,"forecast_time_iso":"2026-10-08T18:00","forecast_time_str":"202610081800","temp_c":6.1,"wind_kmh":13.0,"gust_kmh":29.5,"precip_mm":0.86,"precip_prob_pct":80,"snowfall_cm":0.0,"weathercode":80,"zero_level_m":1832.5,"cloudcover_pct":93,"sunshine_min":0.0}},{"type":"Feature","geometry":{"type":"Point","coordinates":[7.821546,46.70932]},"properties":{"name":"Hohwald","lat":46.70932,"lon":7.821546,"forecast_time_iso":"2026-10-08T18:00","forecast_time_str":"202610081800","temp_c":3.6,"wind_kmh":9.2,"gust_kmh":40.5,"precip_mm":2.7,"precip_prob_pct":90,"snowfall_cm":0.0,"weathercode":80,"zero_level_m":1895.0,"cloudcover_pct":100,"sunshine_min":0.0}},{"type":"Feature","geometry":{"type":"Point","coordinates":[7.677712,46.767752]},"properties":{"name":"Homberg","lat":46.767752,"lon":7.677712,"forecast_time_iso":"2026-10-08T18:00","forecast_time_str":"202610081800","temp_c":6.7,"wind_kmh":12.3,"gust_kmh":33.8,"precip_mm":0.78,"precip_prob_pct":90,"snowfall_cm":0.0,"weathercode":80,"zero_level_m":1815.0,"cloudcover_pct":94,"sunshine_min":0.0}},{"type":"Feature","geometry":{"type":"Point","coordinates":[7.290691,46.608944]},"properties":{"name":"Jaun","lat":46.608944,"lon":7.290691,"forecast_time_iso":"2026-10-08T18:00","forecast_time_str":"202610081800","temp_c":6.1,"wind_kmh":7.6,"gust_kmh":26.8,"precip_mm":1.6,"precip_prob_pct":85,"snowfall_cm":0.0,"weathercode":80,"zero_level_m":1800.0,"cloudcover_pct":98,"sunshine_min":853.91}},{"type":"Feature","geometry":{"type":"Point","coordinates":[7.722714,46.331917]},"properties":{"name":"Jeizinen","lat":46.331917,"lon":7.722714,"forecast_time_iso":"2026-10-08T18:00","forecast_time_str":"202610081800","temp_c":3.4,"wind_kmh":18.4,"gust_kmh":50.0,"precip_mm":0.35,"precip_prob_pct":65,"snowfall_cm":0.0,"weathercode":80,"zero_level_m":2100.0,"cloudcover_pct":92,"sunshine_min":1756.67}},{"type":"Feature","geometry":{"type":"Point","coordinates":[7.715937,46.582592]},"properties":{"name":"Kiental","lat":46.582592,"lon":7.715937,"forecast_time_iso":"2026-10-08T18:00","forecast_time_str":"202610081800","temp_c":4.8,"wind_kmh":9.7,"gust_kmh":25.0,"precip_mm":1.39,"precip_prob_pct":93,"snowfall_cm":0.0,"weathercode":61,"zero_level_m":1790.0,"cloudcover_pct":100,"sunshine_min":0.0}},{"type":"Feature","geometry":{"type":"Point","coordinates":[7.166771,46.682167]},"properties":{"name":"La Berra","lat":46.682167,"lon":7.166771,"forecast_time_iso":"2026-10-08T18:00","forecast_time_str":"202610081800","temp_c":4.5,"wind_kmh":12.0,"gust_kmh":41.2,"precip_mm":0.95,"precip_prob_pct":85,"snowfall_cm":0.0,"weathercode":80,"zero_level_m":1757.5,"cloudcover_pct":95,"sunshine_min":0.0}},{"type":"Feature","geometry":{"type":"Point","coordinates":[7.119769,46.416975]},"properties":{"name":"La Lécherette","lat":46.416975,"lon":7.119769,"forecast_time_iso":"2026-10-08T18:00","forecast_time_str":"202610081800","temp_c":1.6,"wind_kmh":12.6,"gust_kmh":33.8,"precip_mm":0.51,"precip_prob_pct":88,"snowfall_cm":0.0,"weathercode":80,"zero_level_m":1830.0,"cloudcover_pct":99,"sunshine_min":0.0}},{"type":"Feature","geometry":{"type":"Point","coordinates":[7.776004,46.406406]},"properties":{"name":"Lauchernalp","lat":46.406406,"lon":7.776004,"forecast_time_iso":"2026-10-08T18:00","forecast_time_str":"202610081800","temp_c":2.7,"wind_kmh":11.1,"gust_kmh":28.4,"precip_mm":0.34,"precip_prob_pct":38,"snowfall_cm":0.0,"weathercode":80,"zero_level_m":2057.5,"cloudcover_pct":95,"sunshine_min":2092.03}},{"type":"Feature","geometry":{"type":"Point","coordinates":[6.213542,46.576439]},"properties":{"name":"Le Brassus","lat":46.576439,"lon":6.213542,"forecast_time_iso":"2026-10-08T18:00","forecast_time_str":"202610081800","temp_c":5.6,"wind_kmh":15.9,"gust_kmh":38.9,"precip_mm":0.0,"precip_prob_pct":30,"snowfall_cm":0.0,"weathercode":2,"zero_level_m":1712.5,"cloudcover_pct":64,"sunshine_min":3600.0}},{"type":"Feature","geometry":{"type":"Point","coordinates":[7.147033,46.341095]},"properties":{"name":"Les Diablerets","lat":46.341095,"lon":7.147033,"forecast_time_iso":"2026-10-08T18:00","forecast_time_str":"202610081800","temp_c":3.8,"wind_kmh":3.5,"gust_kmh":17.7,"precip_mm":0.3,"precip_prob_pct":83,"snowfall_cm":0.0,"weathercode":3,"zero_level_m":1877.5,"cloudcover_pct":100,"sunshine_min":0.0}},{"type":"Feature","geometry":{"type":"Point","coordinates":[7.006306,46.111336]},"properties":{"name":"Les Marécottes","lat":46.111336,"lon":7.006306,"forecast_time_iso":"2026-10-08T18:00","forecast_time_str":"202610081800","temp_c":4.9,"wind_kmh":12.0,"gust_kmh":36.7,"precip_mm":0.8,"precip_prob_pct":78,"snowfall_cm":0.0,"weathercode":80,"zero_level_m":1905.0,"cloudcover_pct":100,"sunshine_min":127.82}},{"type":"Feature","geometry":{"type":"Point","coordinates":[7.284725,46.256624]},"properties":{"name":"Les Mayens de Conthey","lat":46.256624,"lon":7.284725,"forecast_time_iso":"2026-10-08T18:00","forecast_time_str":"202610081800","temp_c":5.5,"wind_kmh":10.5,"gust_kmh":32.8,"precip_mm":0.24,"precip_prob_pct":75,"snowfall_cm":0.0,"weathercode":80,"zero_level_m":2035.0,"cloudcover_pct":84,"sunshine_min":2700.0}},{"type":"Feature","geometry":{"type":"Point","coordinates":[7.071578,46.391678]},"properties":{"name":"Les Mosses","lat":46.391678,"lon":7.071578,"forecast_time_iso":"2026-10-08T18:00","forecast_time_str":"202610081800","temp_c":0.2,"wind_kmh":12.7,"gust_kmh":38.4,"precip_mm":0.63,"precip_prob_pct":83,"snowfall_cm":0.0,"weathercode":80,"zero_level_m":1852.5,"cloudcover_pct":100,"sunshine_min":0.0}},{"type":"Feature","geometry":{"type":"Point","coordinates":[6.936362,46.514724]},"properties":{"name":"Les Paccots","lat":46.514724,"lon":6.936362,"forecast_time_iso":"2026-10-08T18:00","forecast_time_str":"202610081800","temp_c":4.6,"wind_kmh":9.8,"gust_kmh":32.8,"precip_mm":0.13,"precip_prob_pct":93,"snowfall_cm":0.0,"weathercode":3,"zero_level_m":1822.5,"cloudcover_pct":98,"sunshine_min":0.0}},{"type":"Feature","geometry":{"type":"Point","coordinates":[6.916388,46.488899]},"properties":{"name":"Les Pléiades","lat":46.488899,"lon":6.916388,"forecast_time_iso":"2026-10-08T18:00","forecast_time_str":"202610081800","temp_c":4.7,"wind_kmh":10.8,"gust_kmh":34.4,"precip_mm":0.13,"precip_prob_pct":93,"snowfall_cm":0.0,"weathercode":3,"zero_level_m":1792.5,"cloudcover_pct":98,"sunshine_min":0.0}},{"type":"Feature","geometry":{"type":"Point","coordinates":[6.534253,46.834576]},"properties":{"name":"Les Rasses","lat":46.834576,"lon":6.534253,"forecast_time_iso":"2026-10-08T18:00","forecast_time_str":"202610081800","temp_c":3.7,"wind_kmh":19.1,"gust_kmh":53.2,"precip_mm":0.0,"precip_prob_pct":15,"snowfall_cm":0.0,"weathercode":1,"zero_level_m":1742.5,"cloudcover_pct":68,"sunshine_min":3600.0}},{"type":"Feature","geometry":{"type":"Point","coordinates":[6.979251,46.432796]},"properties":{"name":"Les Rochers de Naye","lat":46.432796,"lon":6.979251,"forecast_time_iso":"2026-10-08T18:00","forecast_time_str":"202610081800","temp_c":0.3,"wind_kmh":11.4,"gust_kmh":33.6,"precip_mm":0.24,"precip_prob_pct":85,"snowfall_cm":0.0,"weathercode":80,"zero_level_m":1815.0,"cloudcover_pct":98,"sunshine_min":0.0}},{"type":"Feature","geometry":{"type":"Point","coordinates":[7.638759,46.371437]},"properties":{"name":"Leukerbad","lat":46.371437,"lon":7.638759,"forecast_time_iso":"2026-10-08T18:00","forecast_time_str":"202610081800","temp_c":1.4,"wind_kmh":5.0,"gust_kmh":23.0,"precip_mm":1.03,"precip_prob_pct":63,"snowfall_cm":0.0,"weathercode":85,"zero_level_m":2127.5,"cloudcover_pct":100,"sunshine_min":0.0}},{"type":"Feature","geometry":{"type":"Point","coordinates":[7.010152,46.353519]},"properties":{"name":"Leysin","lat":46.353519,"lon":7.010152,"forecast_time_iso":"2026-10-08T18:00","forecast_time_str":"202610081800","temp_c":2.1,"wind_kmh":14.5,"gust_kmh":37.9,"precip_mm":0.31,"precip_prob_pct":83,"snowfall_cm":0.0,"weathercode":80,"zero_level_m":1847.5,"cloudcover_pct":89,"sunshine_min":1779.15}},{"type":"Feature","geometry":{"type":"Point","coordinates":[7.911718,46.834702]},"properties":{"name":"Marbachegg","lat":46.834702,"lon":7.911718,"forecast_time_iso":"2026-10-08T18:00","forecast_time_str":"202610081800","temp_c":3.8,"wind_kmh":19.0,"gust_kmh":49.2,"precip_mm":2.3,"precip_prob_pct":90,"snowfall_cm":0.0,"weathercode":80,"zero_level_m":1797.5,"cloudcover_pct":100,"sunshine_min":0.0}},{"type":"Feature","geometry":{"type":"Point","coordinates":[8.200658,46.730618]},"properties":{"name":"Meiringen-Hasliberg","lat":46.730618,"lon":8.200658,"forecast_time_iso":"2026-10-08T18:00","forecast_time_str":"202610081800","temp_c":7.3,"wind_kmh":6.8,"gust_kmh":19.5,"precip_mm":1.81,"precip_prob_pct":88,"snowfall_cm":0.0,"weathercode":61,"zero_level_m":1872.5,"cloudcover_pct":100,"sunshine_min":0.0}},{"type":"Feature","geometry":{"type":"Point","coordinates":[8.270116,46.776344]},"properties":{"name":"Melchsee-Frutt","lat":46.776344,"lon":8.270116,"forecast_time_iso":"2026-10-08T18:00","forecast_time_str":"202610081800","temp_c":-0.0,"wind_kmh":15.5,"gust_kmh":38.7,"precip_mm":2.54,"precip_prob_pct":93,"snowfall_cm":0.59,"weathercode":86,"zero_level_m":1923.75,"cloudcover_pct":100,"sunshine_min":0.0}},{"type":"Feature","geometry":{"type":"Point","coordinates":[7.034523,46.561966]},"properties":{"name":"Moléson","lat":46.561966,"lon":7.034523,"forecast_time_iso":"2026-10-08T18:00","forecast_time_str":"202610081800","temp_c":5.9,"wind_kmh":8.6,"gust_kmh":30.4,"precip_mm":0.25,"precip_prob_pct":80,"snowfall_cm":0.0,"weathercode":3,"zero_level_m":1777.5,"cloudcover_pct":89,"sunshine_min":0.0}},{"type":"Feature","geometry":{"type":"Point","coordinates":[7.829611,46.248253]},"properties":{"name":"Moosalp","lat":46.248253,"lon":7.829611,"forecast_time_iso":"2026-10-08T18:00","forecast_time_str":"202610081800","temp_c":2.0,"wind_kmh":21.7,"gust_kmh":58.5,"precip_mm":0.1,"precip_prob_pct":68,"snowfall_cm":0.0,"weathercode":3,"zero_level_m":2197.5,"cloudcover_pct":86,"sunshine_min":2804.23}},{"type":"Feature","geometry":{"type":"Point","coordinates":[8.108218,46.822742]},"properties":{"name":"Mörlialp","lat":46.822742,"lon":8.108218,"forecast_time_iso":"2026-10-08T18:00","forecast_time_str":"202610081800","temp_c":3.8,"wind_kmh":11.7,"gust_kmh":49.8,"precip_mm":1.13,"precip_prob_pct":93,"snowfall_cm":0.0,"weathercode":80,"zero_level_m":1847.5,"cloudcover_pct":88,"sunshine_min":0.0}},{"type":"Feature","geometry":{"type":"Point","coordinates":[7.462543,46.225464]},"properties":{"name":"Nax","lat":46.225464,"lon":7.462543,"forecast_time_iso":"2026-10-08T18:00","forecast_time_str":"202610081800","temp_c":4.8,"wind_kmh":4.6,"gust_kmh":29.3,"precip_mm":0.25,"precip_prob_pct":58,"snowfall_cm":0.0,"weathercode":3,"zero_level_m":2070.0,"cloudcover_pct":96,"sunshine_min":214.59}},{"type":"Feature","geometry":{"type":"Point","coordinates":[7.775802,46.710602]},"properties":{"name":"Niederhorn","lat":46.710602,"lon":7.775802,"forecast_time_iso":"2026-10-08T18:00","forecast_time_str":"202610081800","temp_c":0.3,"wind_kmh":13.5,"gust_kmh":47.7,"precip_mm":2.34,"precip_prob_pct":93,"snowfall_cm":0.0,"weathercode":80,"zero_level_m":1897.5,"cloudcover_pct":100,"sunshine_min":0.0}},{"type":"Feature","geometry":{"type":"Point","coordinates":[7.364665,46.735054]},"properties":{"name":"Ottenleue","lat":46.735054,"lon":7.364665,"forecast_time_iso":"2026-10-08T18:00","forecast_time_str":"202610081800","temp_c":2.4,"wind_kmh":11.7,"gust_kmh":46.5,"precip_mm":0.64,"precip_prob_pct":88,"snowfall_cm":0.0,"weathercode":80,"zero_level_m":1812.5,"cloudcover_pct":99,"sunshine_min":0.0}},{"type":"Feature","geometry":{"type":"Point","coordinates":[7.151211,46.204193]},"properties":{"name":"Ovronnaz","lat":46.204193,"lon":7.151211,"forecast_time_iso":"2026-10-08T18:00","forecast_time_str":"202610081800","temp_c":3.3,"wind_kmh":5.7,"gust_kmh":25.2,"precip_mm":0.98,"precip_prob_pct":78,"snowfall_cm":0.0,"weathercode":80,"zero_level_m":2035.0,"cloudcover_pct":99,"sunshine_min":259.82}},{"type":"Feature","geometry":{"type":"Point","coordinates":[6.975307,46.544109]},"properties":{"name":"Rathvel","lat":46.544109,"lon":6.975307,"forecast_time_iso":"2026-10-08T18:00","forecast_time_str":"202610081800","temp_c":4.3,"wind_kmh":7.9,"gust_kmh":29.4,"precip_mm":0.23,"precip_prob_pct":93,"snowfall_cm":0.0,"weathercode":80,"zero_level_m":1770.0,"cloudcover_pct":94,"sunshine_min":0.0}},{"type":"Feature","geometry":{"type":"Point","coordinates":[6.55007,46.8811]},"properties":{"name":"Robella - Val de Travers","lat":46.8811,"lon":6.55007,"forecast_time_iso":"2026-10-08T18:00","forecast_time_str":"202610081800","temp_c":6.7,"wind_kmh":13.0,"gust_kmh":39.1,"precip_mm":0.0,"precip_prob_pct":15,"snowfall_cm":0.0,"weathercode":1,"zero_level_m":1737.5,"cloudcover_pct":54,"sunshine_min":3600.0}},{"type":"Feature","geometry":{"type":"Point","coordinates":[7.433806,46.627453]},"properties":{"name":"Rossberg","lat":46.627453,"lon":7.433806,"forecast_time_iso":"2026-10-08T18:00","forecast_time_str":"202610081800","temp_c":2.5,"wind_kmh":9.4,"gust_kmh":40.1,"precip_mm":0.98,"precip_prob_pct":90,"snowfall_cm":0.0,"weathercode":61,"zero_level_m":1735.0,"cloudcover_pct":100,"sunshine_min":0.0}},{"type":"Feature","geometry":{"type":"Point","coordinates":[8.041525,46.304493]},"properties":{"name":"Rosswald","lat":46.304493,"lon":8.041525,"forecast_time_iso":"2026-10-08T18:00","forecast_time_str":"202610081800","temp_c":3.5,"wind_kmh":12.9,"gust_kmh":36.2,"precip_mm":0.15,"precip_prob_pct":33,"snowfall_cm":0.0,"weathercode":1,"zero_level_m":2222.5,"cloudcover_pct":57,"sunshine_min":2700.0}},{"type":"Feature","geometry":{"type":"Point","coordinates":[7.425229,46.750965]},"properties":{"name":"Rüschegg","lat":46.750965,"lon":7.425229,"forecast_time_iso":"2026-10-08T18:00","forecast_time_str":"202610081800","temp_c":4.4,"wind_kmh":13.8,"gust_kmh":46.8,"precip_mm":0.26,"precip_prob_pct":83,"snowfall_cm":0.0,"weathercode":80,"zero_level_m":1772.5,"cloudcover_pct":97,"sunshine_min":0.0}},{"type":"Feature","geometry":{"type":"Point","coordinates":[7.925277,46.099144]},"properties":{"name":"Saas Fee","lat":46.099144,"lon":7.925277,"forecast_time_iso":"2026-10-08T18:00","forecast_time_str":"202610081800","temp_c":3.3,"wind_kmh":16.6,"gust_kmh":38.0,"precip_mm":0.1,"precip_prob_pct":43,"snowfall_cm":0.0,"weathercode":1,"zero_level_m":2302.5,"cloudcover_pct":26,"sunshine_min":2804.23}},{"type":"Feature","geometry":{"type":"Point","coordinates":[6.995653,47.25581]},"properties":{"name":"Saignelégier","lat":47.25581,"lon":6.995653,"forecast_time_iso":"2026-10-08T18:00","forecast_time_str":"202610081800","temp_c":6.1,"wind_kmh":10.3,"gust_kmh":46.2,"precip_mm":0.03,"precip_prob_pct":23,"snowfall_cm":0.0,"weathercode":61,"zero_level_m":1717.5,"cloudcover_pct":99,"sunshine_min":265.91}},{"type":"Feature","geometry":{"type":"Point","coordinates":[7.729452,46.736632]},"properties":{"name":"Schwanden","lat":46.736632,"lon":7.729452,"forecast_time_iso":"2026-10-08T18:00","forecast_time_str":"202610081800","temp_c":6.5,"wind_kmh":10.7,"gust_kmh":31.5,"precip_mm":1.25,"precip_prob_pct":90,"snowfall_cm":0.0,"weathercode":80,"zero_level_m":1822.5,"cloudcover_pct":92,"sunshine_min":0.0}},{"type":"Feature","geometry":{"type":"Point","coordinates":[7.290966,46.664074]},"properties":{"name":"Schwarzsee","lat":46.664074,"lon":7.290966,"forecast_time_iso":"2026-10-08T18:00","forecast_time_str":"202610081800","temp_c":4.3,"wind_kmh":11.3,"gust_kmh":31.2,"precip_mm":1.44,"precip_prob_pct":93,"snowfall_cm":0.0,"weathercode":80,"zero_level_m":1727.5,"cloudcover_pct":98,"sunshine_min":0.0}},{"type":"Feature","geometry":{"type":"Point","coordinates":[7.392882,46.744904]},"properties":{"name":"Selital","lat":46.744904,"lon":7.392882,"forecast_time_iso":"2026-10-08T18:00","forecast_time_str":"202610081800","temp_c":2.8,"wind_kmh":10.7,"gust_kmh":39.5,"precip_mm":0.79,"precip_prob_pct":83,"snowfall_cm":0.0,"weathercode":80,"zero_level_m":1782.5,"cloudcover_pct":99,"sunshine_min":0.0}},{"type":"Feature","geometry":{"type":"Point","coordinates":[8.030524,46.8148]},"properties":{"name":"Sörenberg","lat":46.8148,"lon":8.030524,"forecast_time_iso":"2026-10-08T18:00","forecast_time_str":"202610081800","temp_c":4.5,"wind_kmh":8.4,"gust_kmh":24.9,"precip_mm":1.25,"precip_prob_pct":90,"snowfall_cm":0.0,"weathercode":80,"zero_level_m":1855.0,"cloudcover_pct":100,"sunshine_min":0.0}},{"type":"Feature","geometry":{"type":"Point","coordinates":[7.576687,46.616902]},"properties":{"name":"Springenboden","lat":46.616902,"lon":7.576687,"forecast_time_iso":"2026-10-08T18:00","forecast_time_str":"202610081800","temp_c":3.9,"wind_kmh":7.7,"gust_kmh":20.4,"precip_mm":0.84,"precip_prob_pct":88,"snowfall_cm":0.0,"weathercode":80,"zero_level_m":1870.0,"cloudcover_pct":100,"sunshine_min":0.0}},{"type":"Feature","geometry":{"type":"Point","coordinates":[6.08722,46.442966]},"properties":{"name":"St Cergue","lat":46.442966,"lon":6.08722,"forecast_time_iso":"2026-10-08T18:00","forecast_time_str":"202610081800","temp_c":4.7,"wind_kmh":20.7,"gust_kmh":44.4,"precip_mm":0.0,"precip_prob_pct":30,"snowfall_cm":0.0,"weathercode":2,"zero_level_m":1742.5,"cloudcover_pct":58,"sunshine_min":3600.0}},{"type":"Feature","geometry":{"type":"Point","coordinates":[7.604917,46.248325]},"properties":{"name":"St-Luc / Chandolin","lat":46.248325,"lon":7.604917,"forecast_time_iso":"2026-10-08T18:00","forecast_time_str":"202610081800","temp_c":1.6,"wind_kmh":11.7,"gust_kmh":40.0,"precip_mm":0.28,"precip_prob_pct":75,"snowfall_cm":0.0,"weathercode":3,"zero_level_m":2097.5,"cloudcover_pct":99,"sunshine_min":36.33}},{"type":"Feature","geometry":{"type":"Point","coordinates":[7.083587,47.214433]},"properties":{"name":"Tramelan","lat":47.214433,"lon":7.083587,"forecast_time_iso":"2026-10-08T18:00","forecast_time_str":"202610081800","temp_c":6.2,"wind_kmh":15.3,"gust_kmh":43.3,"precip_mm":0.15,"precip_prob_pct":18,"snowfall_cm":0.0,"weathercode":61,"zero_level_m":1710.0,"cloudcover_pct":87,"sunshine_min":2845.59}},{"type":"Feature","geometry":{"type":"Point","coordinates":[7.799555,46.27927]},"properties":{"name":"Unterbäch","lat":46.27927,"lon":7.799555,"forecast_time_iso":"2026-10-08T18:00","forecast_time_str":"202610081800","temp_c":6.4,"wind_kmh":19.2,"gust_kmh":45.6,"precip_mm":0.15,"precip_prob_pct":43,"snowfall_cm":0.0,"weathercode":3,"zero_level_m":2165.0,"cloudcover_pct":82,"sunshine_min":2868.79}},{"type":"Feature","geometry":{"type":"Point","coordinates":[7.532484,46.246895]},"properties":{"name":"Vercorin","lat":46.246895,"lon":7.532484,"forecast_time_iso":"2026-10-08T18:00","forecast_time_str":"202610081800","temp_c":4.3,"wind_kmh":13.4,"gust_kmh":37.4,"precip_mm":0.2,"precip_prob_pct":75,"snowfall_cm":0.0,"weathercode":3,"zero_level_m":2100.0,"cloudcover_pct":98,"sunshine_min":875.22}},{"type":"Feature","geometry":{"type":"Point","coordinates":[7.090662,46.299984]},"properties":{"name":"Villars-Gryon","lat":46.299984,"lon":7.090662,"forecast_time_iso":"2026-10-08T18:00","forecast_time_str":"202610081800","temp_c":3.8,"wind_kmh":7.0,"gust_kmh":22.9,"precip_mm":0.29,"precip_prob_pct":83,"snowfall_cm":0.0,"weathercode":80,"zero_level_m":1845.0,"cloudcover_pct":100,"sunshine_min":0.0}},{"type":"Feature","geometry":{"type":"Point","coordinates":[7.913731,46.256939]},"properties":{"name":"Visperterminen","lat":46.256939,"lon":7.913731,"forecast_time_iso":"2026-10-08T18:00","forecast_time_str":"202610081800","temp_c":4.8,"wind_kmh":13.0,"gust_kmh":46.3,"precip_mm":0.05,"precip_prob_pct":43,"snowfall_cm":0.0,"weathercode":3,"zero_level_m":2195.0,"cloudcover_pct":91,"sunshine_min":2741.37}},{"type":"Feature","geometry":{"type":"Point","coordinates":[7.745841,46.726089]},"properties":{"name":"Wilerallmi","lat":46.726089,"lon":7.745841,"forecast_time_iso":"2026-10-08T18:00","forecast_time_str":"202610081800","temp_c":4.4,"wind_kmh":13.2,"gust_kmh":48.0,"precip_mm":1.44,"precip_prob_pct":90,"snowfall_cm":0.0,"weathercode":80,"zero_level_m":1837.5,"cloudcover_pct":100,"sunshine_min":0.0}},{"type":"Feature","geometry":{"type":"Point","coordinates":[7.532542,46.612373]},"properties":{"name":"Wiriehorn","lat":46.612373,"lon":7.532542,"forecast_time_iso":"2026-10-08T18:00","forecast_time_str":"202610081800","temp_c":6.5,"wind_kmh":8.4,"gust_kmh":22.1,"precip_mm":0.51,"precip_prob_pct":93,"snowfall_cm":0.0,"weathercode":80,"zero_level_m":1862.5,"cloudcover_pct":100,"sunshine_min":0.0}}]}