{"type":"FeatureCollection","metadata":{"source":"Open-Meteo — ICON Seamless","forecast_time_iso":"2026-08-25T06:00","forecast_time_str":"202608250600","updated_utc":"2026-08-22T00:32:40.049949+00:00","total_stations":78},"features":[{"type":"Feature","geometry":{"type":"Point","coordinates":[7.732993,46.647366]},"properties":{"name":"Aeschiallmend","lat":46.647366,"lon":7.732993,"forecast_time_iso":"2026-08-25T06:00","forecast_time_str":"202608250600","temp_c":15.7,"wind_kmh":0.0,"gust_kmh":7.6,"precip_mm":0.2,"precip_prob_pct":37,"snowfall_cm":0.0,"weathercode":51,"zero_level_m":3820.0,"cloudcover_pct":99,"sunshine_min":0.0}},{"type":"Feature","geometry":{"type":"Point","coordinates":[7.394955,46.295128]},"properties":{"name":"Anzère","lat":46.295128,"lon":7.394955,"forecast_time_iso":"2026-08-25T06:00","forecast_time_str":"202608250600","temp_c":12.7,"wind_kmh":3.3,"gust_kmh":11.9,"precip_mm":0.1,"precip_prob_pct":43,"snowfall_cm":0.0,"weathercode":2,"zero_level_m":3790.0,"cloudcover_pct":93,"sunshine_min":0.0}},{"type":"Feature","geometry":{"type":"Point","coordinates":[8.059329,46.738341]},"properties":{"name":"Axalp","lat":46.738341,"lon":8.059329,"forecast_time_iso":"2026-08-25T06:00","forecast_time_str":"202608250600","temp_c":18.4,"wind_kmh":4.6,"gust_kmh":10.4,"precip_mm":0.5,"precip_prob_pct":30,"snowfall_cm":0.0,"weathercode":61,"zero_level_m":3830.0,"cloudcover_pct":100,"sunshine_min":0.0}},{"type":"Feature","geometry":{"type":"Point","coordinates":[7.543444,47.265914]},"properties":{"name":"Balmberg","lat":47.265914,"lon":7.543444,"forecast_time_iso":"2026-08-25T06:00","forecast_time_str":"202608250600","temp_c":13.9,"wind_kmh":1.1,"gust_kmh":16.2,"precip_mm":2.2,"precip_prob_pct":64,"snowfall_cm":0.0,"weathercode":63,"zero_level_m":3820.0,"cloudcover_pct":100,"sunshine_min":0.0}},{"type":"Feature","geometry":{"type":"Point","coordinates":[7.975012,46.371792]},"properties":{"name":"Belalp","lat":46.371792,"lon":7.975012,"forecast_time_iso":"2026-08-25T06:00","forecast_time_str":"202608250600","temp_c":10.3,"wind_kmh":5.1,"gust_kmh":12.2,"precip_mm":1.4,"precip_prob_pct":48,"snowfall_cm":0.0,"weathercode":61,"zero_level_m":3810.0,"cloudcover_pct":98,"sunshine_min":0.0}},{"type":"Feature","geometry":{"type":"Point","coordinates":[7.01847,47.126057]},"properties":{"name":"Bugnenets-Savagnières","lat":47.126057,"lon":7.01847,"forecast_time_iso":"2026-08-25T06:00","forecast_time_str":"202608250600","temp_c":13.3,"wind_kmh":2.2,"gust_kmh":17.3,"precip_mm":2.2,"precip_prob_pct":74,"snowfall_cm":0.0,"weathercode":80,"zero_level_m":3650.0,"cloudcover_pct":100,"sunshine_min":0.0}},{"type":"Feature","geometry":{"type":"Point","coordinates":[7.888115,46.807377]},"properties":{"name":"Bumbach","lat":46.807377,"lon":7.888115,"forecast_time_iso":"2026-08-25T06:00","forecast_time_str":"202608250600","temp_c":13.8,"wind_kmh":1.3,"gust_kmh":4.7,"precip_mm":0.3,"precip_prob_pct":40,"snowfall_cm":0.0,"weathercode":61,"zero_level_m":3820.0,"cloudcover_pct":100,"sunshine_min":0.0}},{"type":"Feature","geometry":{"type":"Point","coordinates":[7.188038,46.622372]},"properties":{"name":"Charmey","lat":46.622372,"lon":7.188038,"forecast_time_iso":"2026-08-25T06:00","forecast_time_str":"202608250600","temp_c":14.5,"wind_kmh":3.1,"gust_kmh":10.4,"precip_mm":0.5,"precip_prob_pct":68,"snowfall_cm":0.0,"weathercode":80,"zero_level_m":3780.0,"cloudcover_pct":97,"sunshine_min":0.0}},{"type":"Feature","geometry":{"type":"Point","coordinates":[6.993179,47.090527]},"properties":{"name":"Crêt-du-Puy","lat":47.090527,"lon":6.993179,"forecast_time_iso":"2026-08-25T06:00","forecast_time_str":"202608250600","temp_c":14.7,"wind_kmh":1.8,"gust_kmh":16.6,"precip_mm":2.0,"precip_prob_pct":74,"snowfall_cm":0.0,"weathercode":45,"zero_level_m":3710.0,"cloudcover_pct":100,"sunshine_min":0.0}},{"type":"Feature","geometry":{"type":"Point","coordinates":[7.776881,46.289505]},"properties":{"name":"Eischoll","lat":46.289505,"lon":7.776881,"forecast_time_iso":"2026-08-25T06:00","forecast_time_str":"202608250600","temp_c":13.4,"wind_kmh":7.2,"gust_kmh":17.3,"precip_mm":0.3,"precip_prob_pct":38,"snowfall_cm":0.0,"weathercode":2,"zero_level_m":3780.0,"cloudcover_pct":95,"sunshine_min":0.0}},{"type":"Feature","geometry":{"type":"Point","coordinates":[7.910718,46.803519]},"properties":{"name":"Eriz","lat":46.803519,"lon":7.910718,"forecast_time_iso":"2026-08-25T06:00","forecast_time_str":"202608250600","temp_c":13.7,"wind_kmh":1.3,"gust_kmh":4.7,"precip_mm":0.3,"precip_prob_pct":40,"snowfall_cm":0.0,"weathercode":61,"zero_level_m":3820.0,"cloudcover_pct":100,"sunshine_min":0.0}},{"type":"Feature","geometry":{"type":"Point","coordinates":[7.473954,46.020262]},"properties":{"name":"Arolla","lat":46.020262,"lon":7.473954,"forecast_time_iso":"2026-08-25T06:00","forecast_time_str":"202608250600","temp_c":9.9,"wind_kmh":7.9,"gust_kmh":26.3,"precip_mm":0.0,"precip_prob_pct":46,"snowfall_cm":0.0,"weathercode":2,"zero_level_m":3840.0,"cloudcover_pct":84,"sunshine_min":0.0}},{"type":"Feature","geometry":{"type":"Point","coordinates":[7.477226,46.121571]},"properties":{"name":"Evolène","lat":46.121571,"lon":7.477226,"forecast_time_iso":"2026-08-25T06:00","forecast_time_str":"202608250600","temp_c":14.4,"wind_kmh":3.0,"gust_kmh":10.1,"precip_mm":0.0,"precip_prob_pct":37,"snowfall_cm":0.0,"weathercode":2,"zero_level_m":3810.0,"cloudcover_pct":86,"sunshine_min":0.0}},{"type":"Feature","geometry":{"type":"Point","coordinates":[7.523221,46.086246]},"properties":{"name":"La Forclaz","lat":46.086246,"lon":7.523221,"forecast_time_iso":"2026-08-25T06:00","forecast_time_str":"202608250600","temp_c":13.1,"wind_kmh":6.0,"gust_kmh":14.0,"precip_mm":0.0,"precip_prob_pct":46,"snowfall_cm":0.0,"weathercode":2,"zero_level_m":3810.0,"cloudcover_pct":85,"sunshine_min":0.0}},{"type":"Feature","geometry":{"type":"Point","coordinates":[7.454506,46.724655]},"properties":{"name":"Gantrisch Gurnigel","lat":46.724655,"lon":7.454506,"forecast_time_iso":"2026-08-25T06:00","forecast_time_str":"202608250600","temp_c":13.1,"wind_kmh":2.5,"gust_kmh":14.8,"precip_mm":1.3,"precip_prob_pct":58,"snowfall_cm":0.0,"weathercode":80,"zero_level_m":3780.0,"cloudcover_pct":100,"sunshine_min":0.0}},{"type":"Feature","geometry":{"type":"Point","coordinates":[7.205612,46.353821]},"properties":{"name":"Glacier 3000","lat":46.353821,"lon":7.205612,"forecast_time_iso":"2026-08-25T06:00","forecast_time_str":"202608250600","temp_c":13.7,"wind_kmh":3.8,"gust_kmh":18.0,"precip_mm":0.1,"precip_prob_pct":53,"snowfall_cm":0.0,"weathercode":2,"zero_level_m":3780.0,"cloudcover_pct":93,"sunshine_min":0.0}},{"type":"Feature","geometry":{"type":"Point","coordinates":[7.902122,46.225312]},"properties":{"name":"Gpson","lat":46.225312,"lon":7.902122,"forecast_time_iso":"2026-08-25T06:00","forecast_time_str":"202608250600","temp_c":10.4,"wind_kmh":8.7,"gust_kmh":18.7,"precip_mm":1.2,"precip_prob_pct":47,"snowfall_cm":0.0,"weathercode":3,"zero_level_m":3790.0,"cloudcover_pct":97,"sunshine_min":0.0}},{"type":"Feature","geometry":{"type":"Point","coordinates":[7.380616,47.221455]},"properties":{"name":"Grenchenberg","lat":47.221455,"lon":7.380616,"forecast_time_iso":"2026-08-25T06:00","forecast_time_str":"202608250600","temp_c":12.2,"wind_kmh":2.8,"gust_kmh":16.9,"precip_mm":3.4,"precip_prob_pct":65,"snowfall_cm":0.0,"weathercode":63,"zero_level_m":3790.0,"cloudcover_pct":100,"sunshine_min":0.0}},{"type":"Feature","geometry":{"type":"Point","coordinates":[7.584548,46.163437]},"properties":{"name":"Grimentz-Zinal","lat":46.163437,"lon":7.584548,"forecast_time_iso":"2026-08-25T06:00","forecast_time_str":"202608250600","temp_c":8.6,"wind_kmh":9.4,"gust_kmh":20.5,"precip_mm":0.0,"precip_prob_pct":57,"snowfall_cm":0.0,"weathercode":2,"zero_level_m":3820.0,"cloudcover_pct":91,"sunshine_min":0.0}},{"type":"Feature","geometry":{"type":"Point","coordinates":[7.273952,46.465485]},"properties":{"name":"Gstaad","lat":46.465485,"lon":7.273952,"forecast_time_iso":"2026-08-25T06:00","forecast_time_str":"202608250600","temp_c":12.1,"wind_kmh":1.0,"gust_kmh":5.8,"precip_mm":0.0,"precip_prob_pct":53,"snowfall_cm":0.0,"weathercode":45,"zero_level_m":3780.0,"cloudcover_pct":97,"sunshine_min":0.0}},{"type":"Feature","geometry":{"type":"Point","coordinates":[7.206613,46.472771]},"properties":{"name":"Rougemont","lat":46.472771,"lon":7.206613,"forecast_time_iso":"2026-08-25T06:00","forecast_time_str":"202608250600","temp_c":12.2,"wind_kmh":2.9,"gust_kmh":13.0,"precip_mm":0.3,"precip_prob_pct":53,"snowfall_cm":0.0,"weathercode":45,"zero_level_m":3760.0,"cloudcover_pct":96,"sunshine_min":0.0}},{"type":"Feature","geometry":{"type":"Point","coordinates":[7.323383,46.506207]},"properties":{"name":"Saanenmöser","lat":46.506207,"lon":7.323383,"forecast_time_iso":"2026-08-25T06:00","forecast_time_str":"202608250600","temp_c":12.7,"wind_kmh":0.7,"gust_kmh":13.7,"precip_mm":0.1,"precip_prob_pct":61,"snowfall_cm":0.0,"weathercode":80,"zero_level_m":3790.0,"cloudcover_pct":98,"sunshine_min":0.0}},{"type":"Feature","geometry":{"type":"Point","coordinates":[7.274805,46.507072]},"properties":{"name":"Schönried","lat":46.507072,"lon":7.274805,"forecast_time_iso":"2026-08-25T06:00","forecast_time_str":"202608250600","temp_c":11.5,"wind_kmh":1.8,"gust_kmh":10.4,"precip_mm":0.2,"precip_prob_pct":53,"snowfall_cm":0.0,"weathercode":45,"zero_level_m":3760.0,"cloudcover_pct":97,"sunshine_min":0.0}},{"type":"Feature","geometry":{"type":"Point","coordinates":[7.382613,46.511063]},"properties":{"name":"St-Stephan","lat":46.511063,"lon":7.382613,"forecast_time_iso":"2026-08-25T06:00","forecast_time_str":"202608250600","temp_c":14.4,"wind_kmh":0.0,"gust_kmh":5.8,"precip_mm":0.2,"precip_prob_pct":61,"snowfall_cm":0.0,"weathercode":45,"zero_level_m":3770.0,"cloudcover_pct":97,"sunshine_min":0.0}},{"type":"Feature","geometry":{"type":"Point","coordinates":[7.373709,46.550652]},"properties":{"name":"Zweisimmen","lat":46.550652,"lon":7.373709,"forecast_time_iso":"2026-08-25T06:00","forecast_time_str":"202608250600","temp_c":14.9,"wind_kmh":3.6,"gust_kmh":7.9,"precip_mm":0.3,"precip_prob_pct":61,"snowfall_cm":0.0,"weathercode":45,"zero_level_m":3770.0,"cloudcover_pct":98,"sunshine_min":0.0}},{"type":"Feature","geometry":{"type":"Point","coordinates":[7.484264,46.568069]},"properties":{"name":"Grimmialp","lat":46.568069,"lon":7.484264,"forecast_time_iso":"2026-08-25T06:00","forecast_time_str":"202608250600","temp_c":13.5,"wind_kmh":3.2,"gust_kmh":8.3,"precip_mm":0.3,"precip_prob_pct":57,"snowfall_cm":0.0,"weathercode":45,"zero_level_m":3800.0,"cloudcover_pct":99,"sunshine_min":0.0}},{"type":"Feature","geometry":{"type":"Point","coordinates":[7.854006,46.731907]},"properties":{"name":"Habkern","lat":46.731907,"lon":7.854006,"forecast_time_iso":"2026-08-25T06:00","forecast_time_str":"202608250600","temp_c":13.1,"wind_kmh":2.2,"gust_kmh":8.6,"precip_mm":0.4,"precip_prob_pct":40,"snowfall_cm":0.0,"weathercode":53,"zero_level_m":3830.0,"cloudcover_pct":100,"sunshine_min":0.0}},{"type":"Feature","geometry":{"type":"Point","coordinates":[7.677143,46.827389]},"properties":{"name":"Heimenschwand","lat":46.827389,"lon":7.677143,"forecast_time_iso":"2026-08-25T06:00","forecast_time_str":"202608250600","temp_c":13.6,"wind_kmh":2.9,"gust_kmh":5.0,"precip_mm":0.9,"precip_prob_pct":54,"snowfall_cm":0.0,"weathercode":95,"zero_level_m":3800.0,"cloudcover_pct":100,"sunshine_min":0.0}},{"type":"Feature","geometry":{"type":"Point","coordinates":[7.821546,46.70932]},"properties":{"name":"Hohwald","lat":46.70932,"lon":7.821546,"forecast_time_iso":"2026-08-25T06:00","forecast_time_str":"202608250600","temp_c":12.5,"wind_kmh":1.1,"gust_kmh":5.4,"precip_mm":0.8,"precip_prob_pct":40,"snowfall_cm":0.0,"weathercode":80,"zero_level_m":3830.0,"cloudcover_pct":100,"sunshine_min":0.0}},{"type":"Feature","geometry":{"type":"Point","coordinates":[7.677712,46.767752]},"properties":{"name":"Homberg","lat":46.767752,"lon":7.677712,"forecast_time_iso":"2026-08-25T06:00","forecast_time_str":"202608250600","temp_c":14.0,"wind_kmh":2.9,"gust_kmh":4.3,"precip_mm":1.3,"precip_prob_pct":42,"snowfall_cm":0.0,"weathercode":95,"zero_level_m":3820.0,"cloudcover_pct":99,"sunshine_min":0.0}},{"type":"Feature","geometry":{"type":"Point","coordinates":[7.290691,46.608944]},"properties":{"name":"Jaun","lat":46.608944,"lon":7.290691,"forecast_time_iso":"2026-08-25T06:00","forecast_time_str":"202608250600","temp_c":15.1,"wind_kmh":3.1,"gust_kmh":14.0,"precip_mm":0.4,"precip_prob_pct":68,"snowfall_cm":0.0,"weathercode":80,"zero_level_m":3760.0,"cloudcover_pct":100,"sunshine_min":0.0}},{"type":"Feature","geometry":{"type":"Point","coordinates":[7.33801,46.59558]},"properties":{"name":"Jaunpass","lat":46.59558,"lon":7.33801,"forecast_time_iso":"2026-08-25T06:00","forecast_time_str":"202608250600","temp_c":11.6,"wind_kmh":3.1,"gust_kmh":14.0,"precip_mm":0.4,"precip_prob_pct":57,"snowfall_cm":0.0,"weathercode":80,"zero_level_m":3760.0,"cloudcover_pct":100,"sunshine_min":0.0}},{"type":"Feature","geometry":{"type":"Point","coordinates":[7.722714,46.331917]},"properties":{"name":"Jeizinen","lat":46.331917,"lon":7.722714,"forecast_time_iso":"2026-08-25T06:00","forecast_time_str":"202608250600","temp_c":11.4,"wind_kmh":7.2,"gust_kmh":17.3,"precip_mm":0.3,"precip_prob_pct":38,"snowfall_cm":0.0,"weathercode":2,"zero_level_m":3780.0,"cloudcover_pct":95,"sunshine_min":0.0}},{"type":"Feature","geometry":{"type":"Point","coordinates":[7.715937,46.582592]},"properties":{"name":"Kiental","lat":46.582592,"lon":7.715937,"forecast_time_iso":"2026-08-25T06:00","forecast_time_str":"202608250600","temp_c":13.6,"wind_kmh":2.1,"gust_kmh":2.9,"precip_mm":0.2,"precip_prob_pct":41,"snowfall_cm":0.0,"weathercode":45,"zero_level_m":3800.0,"cloudcover_pct":97,"sunshine_min":0.0}},{"type":"Feature","geometry":{"type":"Point","coordinates":[7.166771,46.682167]},"properties":{"name":"La Berra","lat":46.682167,"lon":7.166771,"forecast_time_iso":"2026-08-25T06:00","forecast_time_str":"202608250600","temp_c":13.7,"wind_kmh":3.4,"gust_kmh":11.9,"precip_mm":1.6,"precip_prob_pct":68,"snowfall_cm":0.0,"weathercode":95,"zero_level_m":3750.0,"cloudcover_pct":100,"sunshine_min":0.0}},{"type":"Feature","geometry":{"type":"Point","coordinates":[7.119769,46.416975]},"properties":{"name":"La Lécherette","lat":46.416975,"lon":7.119769,"forecast_time_iso":"2026-08-25T06:00","forecast_time_str":"202608250600","temp_c":11.9,"wind_kmh":2.5,"gust_kmh":21.6,"precip_mm":0.3,"precip_prob_pct":73,"snowfall_cm":0.0,"weathercode":80,"zero_level_m":3780.0,"cloudcover_pct":94,"sunshine_min":0.0}},{"type":"Feature","geometry":{"type":"Point","coordinates":[7.776004,46.406406]},"properties":{"name":"Lauchernalp","lat":46.406406,"lon":7.776004,"forecast_time_iso":"2026-08-25T06:00","forecast_time_str":"202608250600","temp_c":13.2,"wind_kmh":4.7,"gust_kmh":18.0,"precip_mm":0.2,"precip_prob_pct":42,"snowfall_cm":0.0,"weathercode":3,"zero_level_m":3790.0,"cloudcover_pct":95,"sunshine_min":0.0}},{"type":"Feature","geometry":{"type":"Point","coordinates":[6.213542,46.576439]},"properties":{"name":"Le Brassus","lat":46.576439,"lon":6.213542,"forecast_time_iso":"2026-08-25T06:00","forecast_time_str":"202608250600","temp_c":14.8,"wind_kmh":6.4,"gust_kmh":31.7,"precip_mm":0.0,"precip_prob_pct":79,"snowfall_cm":0.0,"weathercode":2,"zero_level_m":3760.0,"cloudcover_pct":82,"sunshine_min":0.0}},{"type":"Feature","geometry":{"type":"Point","coordinates":[7.147033,46.341095]},"properties":{"name":"Les Diablerets","lat":46.341095,"lon":7.147033,"forecast_time_iso":"2026-08-25T06:00","forecast_time_str":"202608250600","temp_c":13.4,"wind_kmh":2.5,"gust_kmh":19.8,"precip_mm":0.1,"precip_prob_pct":73,"snowfall_cm":0.0,"weathercode":2,"zero_level_m":3780.0,"cloudcover_pct":89,"sunshine_min":0.0}},{"type":"Feature","geometry":{"type":"Point","coordinates":[7.284725,46.256624]},"properties":{"name":"Les Mayens de Conthey","lat":46.256624,"lon":7.284725,"forecast_time_iso":"2026-08-25T06:00","forecast_time_str":"202608250600","temp_c":14.5,"wind_kmh":3.2,"gust_kmh":14.4,"precip_mm":0.0,"precip_prob_pct":49,"snowfall_cm":0.0,"weathercode":2,"zero_level_m":3800.0,"cloudcover_pct":92,"sunshine_min":0.0}},{"type":"Feature","geometry":{"type":"Point","coordinates":[7.071578,46.391678]},"properties":{"name":"Les Mosses","lat":46.391678,"lon":7.071578,"forecast_time_iso":"2026-08-25T06:00","forecast_time_str":"202608250600","temp_c":10.7,"wind_kmh":3.0,"gust_kmh":25.6,"precip_mm":0.2,"precip_prob_pct":73,"snowfall_cm":0.0,"weathercode":80,"zero_level_m":3780.0,"cloudcover_pct":93,"sunshine_min":0.0}},{"type":"Feature","geometry":{"type":"Point","coordinates":[6.936362,46.514724]},"properties":{"name":"Les Paccots","lat":46.514724,"lon":6.936362,"forecast_time_iso":"2026-08-25T06:00","forecast_time_str":"202608250600","temp_c":14.9,"wind_kmh":2.3,"gust_kmh":16.9,"precip_mm":1.4,"precip_prob_pct":72,"snowfall_cm":0.0,"weathercode":95,"zero_level_m":3730.0,"cloudcover_pct":95,"sunshine_min":0.0}},{"type":"Feature","geometry":{"type":"Point","coordinates":[6.916388,46.488899]},"properties":{"name":"Les Pléiades","lat":46.488899,"lon":6.916388,"forecast_time_iso":"2026-08-25T06:00","forecast_time_str":"202608250600","temp_c":15.1,"wind_kmh":2.3,"gust_kmh":16.9,"precip_mm":1.4,"precip_prob_pct":72,"snowfall_cm":0.0,"weathercode":95,"zero_level_m":3730.0,"cloudcover_pct":95,"sunshine_min":0.0}},{"type":"Feature","geometry":{"type":"Point","coordinates":[6.534253,46.834576]},"properties":{"name":"Les Rasses","lat":46.834576,"lon":6.534253,"forecast_time_iso":"2026-08-25T06:00","forecast_time_str":"202608250600","temp_c":12.9,"wind_kmh":4.9,"gust_kmh":23.4,"precip_mm":1.0,"precip_prob_pct":85,"snowfall_cm":0.0,"weathercode":3,"zero_level_m":3680.0,"cloudcover_pct":94,"sunshine_min":0.0}},{"type":"Feature","geometry":{"type":"Point","coordinates":[6.979251,46.432796]},"properties":{"name":"Les Rochers de Naye","lat":46.432796,"lon":6.979251,"forecast_time_iso":"2026-08-25T06:00","forecast_time_str":"202608250600","temp_c":10.6,"wind_kmh":2.3,"gust_kmh":21.2,"precip_mm":0.5,"precip_prob_pct":72,"snowfall_cm":0.0,"weathercode":80,"zero_level_m":3740.0,"cloudcover_pct":90,"sunshine_min":0.0}},{"type":"Feature","geometry":{"type":"Point","coordinates":[7.638759,46.371437]},"properties":{"name":"Leukerbad","lat":46.371437,"lon":7.638759,"forecast_time_iso":"2026-08-25T06:00","forecast_time_str":"202608250600","temp_c":12.7,"wind_kmh":5.2,"gust_kmh":18.4,"precip_mm":0.2,"precip_prob_pct":39,"snowfall_cm":0.0,"weathercode":45,"zero_level_m":3780.0,"cloudcover_pct":94,"sunshine_min":0.0}},{"type":"Feature","geometry":{"type":"Point","coordinates":[7.010152,46.353519]},"properties":{"name":"Leysin","lat":46.353519,"lon":7.010152,"forecast_time_iso":"2026-08-25T06:00","forecast_time_str":"202608250600","temp_c":13.1,"wind_kmh":0.8,"gust_kmh":15.5,"precip_mm":0.5,"precip_prob_pct":72,"snowfall_cm":0.0,"weathercode":95,"zero_level_m":3750.0,"cloudcover_pct":93,"sunshine_min":0.0}},{"type":"Feature","geometry":{"type":"Point","coordinates":[7.678084,46.843925]},"properties":{"name":"Linden","lat":46.843925,"lon":7.678084,"forecast_time_iso":"2026-08-25T06:00","forecast_time_str":"202608250600","temp_c":14.8,"wind_kmh":2.4,"gust_kmh":5.4,"precip_mm":0.9,"precip_prob_pct":54,"snowfall_cm":0.0,"weathercode":95,"zero_level_m":3800.0,"cloudcover_pct":100,"sunshine_min":0.0}},{"type":"Feature","geometry":{"type":"Point","coordinates":[7.911718,46.834702]},"properties":{"name":"Marbachegg","lat":46.834702,"lon":7.911718,"forecast_time_iso":"2026-08-25T06:00","forecast_time_str":"202608250600","temp_c":12.6,"wind_kmh":2.2,"gust_kmh":7.6,"precip_mm":0.4,"precip_prob_pct":38,"snowfall_cm":0.0,"weathercode":53,"zero_level_m":3830.0,"cloudcover_pct":100,"sunshine_min":0.0}},{"type":"Feature","geometry":{"type":"Point","coordinates":[8.200658,46.730618]},"properties":{"name":"Meiringen-Hasliberg","lat":46.730618,"lon":8.200658,"forecast_time_iso":"2026-08-25T06:00","forecast_time_str":"202608250600","temp_c":15.4,"wind_kmh":3.5,"gust_kmh":9.7,"precip_mm":0.3,"precip_prob_pct":40,"snowfall_cm":0.0,"weathercode":61,"zero_level_m":3890.0,"cloudcover_pct":100,"sunshine_min":0.0}},{"type":"Feature","geometry":{"type":"Point","coordinates":[8.270116,46.776344]},"properties":{"name":"Melchsee-Frutt","lat":46.776344,"lon":8.270116,"forecast_time_iso":"2026-08-25T06:00","forecast_time_str":"202608250600","temp_c":11.4,"wind_kmh":2.5,"gust_kmh":8.3,"precip_mm":0.7,"precip_prob_pct":37,"snowfall_cm":0.0,"weathercode":61,"zero_level_m":3870.0,"cloudcover_pct":100,"sunshine_min":0.0}},{"type":"Feature","geometry":{"type":"Point","coordinates":[7.034523,46.561966]},"properties":{"name":"Moléson","lat":46.561966,"lon":7.034523,"forecast_time_iso":"2026-08-25T06:00","forecast_time_str":"202608250600","temp_c":14.3,"wind_kmh":3.9,"gust_kmh":15.8,"precip_mm":0.7,"precip_prob_pct":72,"snowfall_cm":0.0,"weathercode":80,"zero_level_m":3740.0,"cloudcover_pct":88,"sunshine_min":0.0}},{"type":"Feature","geometry":{"type":"Point","coordinates":[7.829611,46.248253]},"properties":{"name":"Moosalp","lat":46.248253,"lon":7.829611,"forecast_time_iso":"2026-08-25T06:00","forecast_time_str":"202608250600","temp_c":9.6,"wind_kmh":8.7,"gust_kmh":18.7,"precip_mm":1.2,"precip_prob_pct":47,"snowfall_cm":0.0,"weathercode":3,"zero_level_m":3790.0,"cloudcover_pct":97,"sunshine_min":0.0}},{"type":"Feature","geometry":{"type":"Point","coordinates":[7.462543,46.225464]},"properties":{"name":"Nax","lat":46.225464,"lon":7.462543,"forecast_time_iso":"2026-08-25T06:00","forecast_time_str":"202608250600","temp_c":13.8,"wind_kmh":3.0,"gust_kmh":10.1,"precip_mm":0.0,"precip_prob_pct":37,"snowfall_cm":0.0,"weathercode":2,"zero_level_m":3810.0,"cloudcover_pct":86,"sunshine_min":0.0}},{"type":"Feature","geometry":{"type":"Point","coordinates":[7.775802,46.710602]},"properties":{"name":"Niederhorn","lat":46.710602,"lon":7.775802,"forecast_time_iso":"2026-08-25T06:00","forecast_time_str":"202608250600","temp_c":11.6,"wind_kmh":1.3,"gust_kmh":8.6,"precip_mm":0.3,"precip_prob_pct":41,"snowfall_cm":0.0,"weathercode":51,"zero_level_m":3820.0,"cloudcover_pct":97,"sunshine_min":0.0}},{"type":"Feature","geometry":{"type":"Point","coordinates":[7.364665,46.735054]},"properties":{"name":"Ottenleue","lat":46.735054,"lon":7.364665,"forecast_time_iso":"2026-08-25T06:00","forecast_time_str":"202608250600","temp_c":11.8,"wind_kmh":2.5,"gust_kmh":12.6,"precip_mm":1.6,"precip_prob_pct":57,"snowfall_cm":0.0,"weathercode":95,"zero_level_m":3770.0,"cloudcover_pct":100,"sunshine_min":0.0}},{"type":"Feature","geometry":{"type":"Point","coordinates":[7.151211,46.204193]},"properties":{"name":"Ovronnaz","lat":46.204193,"lon":7.151211,"forecast_time_iso":"2026-08-25T06:00","forecast_time_str":"202608250600","temp_c":13.4,"wind_kmh":4.0,"gust_kmh":25.6,"precip_mm":0.0,"precip_prob_pct":69,"snowfall_cm":0.0,"weathercode":2,"zero_level_m":3800.0,"cloudcover_pct":82,"sunshine_min":0.0}},{"type":"Feature","geometry":{"type":"Point","coordinates":[6.975307,46.544109]},"properties":{"name":"Rathvel","lat":46.544109,"lon":6.975307,"forecast_time_iso":"2026-08-25T06:00","forecast_time_str":"202608250600","temp_c":13.6,"wind_kmh":3.2,"gust_kmh":16.9,"precip_mm":1.3,"precip_prob_pct":72,"snowfall_cm":0.0,"weathercode":95,"zero_level_m":3730.0,"cloudcover_pct":94,"sunshine_min":0.0}},{"type":"Feature","geometry":{"type":"Point","coordinates":[6.55007,46.8811]},"properties":{"name":"Robella - Val de Travers","lat":46.8811,"lon":6.55007,"forecast_time_iso":"2026-08-25T06:00","forecast_time_str":"202608250600","temp_c":14.7,"wind_kmh":5.2,"gust_kmh":14.4,"precip_mm":1.8,"precip_prob_pct":85,"snowfall_cm":0.0,"weathercode":2,"zero_level_m":3660.0,"cloudcover_pct":96,"sunshine_min":0.0}},{"type":"Feature","geometry":{"type":"Point","coordinates":[7.433806,46.627453]},"properties":{"name":"Rossberg","lat":46.627453,"lon":7.433806,"forecast_time_iso":"2026-08-25T06:00","forecast_time_str":"202608250600","temp_c":11.8,"wind_kmh":3.2,"gust_kmh":7.2,"precip_mm":0.7,"precip_prob_pct":57,"snowfall_cm":0.0,"weathercode":80,"zero_level_m":3800.0,"cloudcover_pct":99,"sunshine_min":0.0}},{"type":"Feature","geometry":{"type":"Point","coordinates":[8.041525,46.304493]},"properties":{"name":"Rosswald","lat":46.304493,"lon":8.041525,"forecast_time_iso":"2026-08-25T06:00","forecast_time_str":"202608250600","temp_c":11.8,"wind_kmh":4.5,"gust_kmh":13.7,"precip_mm":3.6,"precip_prob_pct":64,"snowfall_cm":0.0,"weathercode":61,"zero_level_m":3750.0,"cloudcover_pct":99,"sunshine_min":0.0}},{"type":"Feature","geometry":{"type":"Point","coordinates":[7.425229,46.750965]},"properties":{"name":"Rüschegg","lat":46.750965,"lon":7.425229,"forecast_time_iso":"2026-08-25T06:00","forecast_time_str":"202608250600","temp_c":13.6,"wind_kmh":1.5,"gust_kmh":13.3,"precip_mm":1.0,"precip_prob_pct":68,"snowfall_cm":0.0,"weathercode":80,"zero_level_m":3780.0,"cloudcover_pct":100,"sunshine_min":0.0}},{"type":"Feature","geometry":{"type":"Point","coordinates":[7.963252,46.089706]},"properties":{"name":"Saas-Almagell","lat":46.089706,"lon":7.963252,"forecast_time_iso":"2026-08-25T06:00","forecast_time_str":"202608250600","temp_c":10.9,"wind_kmh":6.5,"gust_kmh":27.7,"precip_mm":2.2,"precip_prob_pct":88,"snowfall_cm":0.0,"weathercode":3,"zero_level_m":3730.0,"cloudcover_pct":99,"sunshine_min":0.0}},{"type":"Feature","geometry":{"type":"Point","coordinates":[7.925277,46.099144]},"properties":{"name":"Saas Fee","lat":46.099144,"lon":7.925277,"forecast_time_iso":"2026-08-25T06:00","forecast_time_str":"202608250600","temp_c":10.2,"wind_kmh":8.7,"gust_kmh":18.7,"precip_mm":1.2,"precip_prob_pct":47,"snowfall_cm":0.0,"weathercode":3,"zero_level_m":3790.0,"cloudcover_pct":97,"sunshine_min":0.0}},{"type":"Feature","geometry":{"type":"Point","coordinates":[6.995653,47.25581]},"properties":{"name":"Saignelégier","lat":47.25581,"lon":6.995653,"forecast_time_iso":"2026-08-25T06:00","forecast_time_str":"202608250600","temp_c":15.0,"wind_kmh":2.7,"gust_kmh":18.0,"precip_mm":1.9,"precip_prob_pct":82,"snowfall_cm":0.0,"weathercode":80,"zero_level_m":3730.0,"cloudcover_pct":100,"sunshine_min":0.0}},{"type":"Feature","geometry":{"type":"Point","coordinates":[7.729452,46.736632]},"properties":{"name":"Schwanden","lat":46.736632,"lon":7.729452,"forecast_time_iso":"2026-08-25T06:00","forecast_time_str":"202608250600","temp_c":14.8,"wind_kmh":1.8,"gust_kmh":3.6,"precip_mm":1.5,"precip_prob_pct":37,"snowfall_cm":0.0,"weathercode":95,"zero_level_m":3820.0,"cloudcover_pct":99,"sunshine_min":0.0}},{"type":"Feature","geometry":{"type":"Point","coordinates":[7.290966,46.664074]},"properties":{"name":"Schwarzsee","lat":46.664074,"lon":7.290966,"forecast_time_iso":"2026-08-25T06:00","forecast_time_str":"202608250600","temp_c":13.6,"wind_kmh":2.9,"gust_kmh":11.9,"precip_mm":1.4,"precip_prob_pct":68,"snowfall_cm":0.0,"weathercode":80,"zero_level_m":3740.0,"cloudcover_pct":100,"sunshine_min":0.0}},{"type":"Feature","geometry":{"type":"Point","coordinates":[7.392882,46.744904]},"properties":{"name":"Selital","lat":46.744904,"lon":7.392882,"forecast_time_iso":"2026-08-25T06:00","forecast_time_str":"202608250600","temp_c":12.4,"wind_kmh":2.5,"gust_kmh":12.6,"precip_mm":1.6,"precip_prob_pct":57,"snowfall_cm":0.0,"weathercode":95,"zero_level_m":3770.0,"cloudcover_pct":100,"sunshine_min":0.0}},{"type":"Feature","geometry":{"type":"Point","coordinates":[8.030524,46.8148]},"properties":{"name":"Sörenberg","lat":46.8148,"lon":8.030524,"forecast_time_iso":"2026-08-25T06:00","forecast_time_str":"202608250600","temp_c":13.3,"wind_kmh":3.8,"gust_kmh":11.2,"precip_mm":0.4,"precip_prob_pct":37,"snowfall_cm":0.0,"weathercode":61,"zero_level_m":3850.0,"cloudcover_pct":100,"sunshine_min":0.0}},{"type":"Feature","geometry":{"type":"Point","coordinates":[6.08722,46.442966]},"properties":{"name":"St Cergue","lat":46.442966,"lon":6.08722,"forecast_time_iso":"2026-08-25T06:00","forecast_time_str":"202608250600","temp_c":13.9,"wind_kmh":6.4,"gust_kmh":22.7,"precip_mm":0.0,"precip_prob_pct":73,"snowfall_cm":0.0,"weathercode":2,"zero_level_m":3810.0,"cloudcover_pct":85,"sunshine_min":0.0}},{"type":"Feature","geometry":{"type":"Point","coordinates":[7.604917,46.248325]},"properties":{"name":"St-Luc / Chandolin","lat":46.248325,"lon":7.604917,"forecast_time_iso":"2026-08-25T06:00","forecast_time_str":"202608250600","temp_c":11.4,"wind_kmh":4.9,"gust_kmh":13.0,"precip_mm":0.1,"precip_prob_pct":38,"snowfall_cm":0.0,"weathercode":2,"zero_level_m":3790.0,"cloudcover_pct":89,"sunshine_min":0.0}},{"type":"Feature","geometry":{"type":"Point","coordinates":[7.083587,47.214433]},"properties":{"name":"Tramelan","lat":47.214433,"lon":7.083587,"forecast_time_iso":"2026-08-25T06:00","forecast_time_str":"202608250600","temp_c":15.0,"wind_kmh":1.1,"gust_kmh":18.7,"precip_mm":2.3,"precip_prob_pct":84,"snowfall_cm":0.0,"weathercode":3,"zero_level_m":3740.0,"cloudcover_pct":100,"sunshine_min":0.0}},{"type":"Feature","geometry":{"type":"Point","coordinates":[7.799555,46.27927]},"properties":{"name":"Unterbäch","lat":46.27927,"lon":7.799555,"forecast_time_iso":"2026-08-25T06:00","forecast_time_str":"202608250600","temp_c":14.4,"wind_kmh":6.1,"gust_kmh":10.8,"precip_mm":0.7,"precip_prob_pct":38,"snowfall_cm":0.0,"weathercode":3,"zero_level_m":3820.0,"cloudcover_pct":96,"sunshine_min":0.0}},{"type":"Feature","geometry":{"type":"Point","coordinates":[7.532484,46.246895]},"properties":{"name":"Vercorin","lat":46.246895,"lon":7.532484,"forecast_time_iso":"2026-08-25T06:00","forecast_time_str":"202608250600","temp_c":11.3,"wind_kmh":0.5,"gust_kmh":13.3,"precip_mm":0.1,"precip_prob_pct":37,"snowfall_cm":0.0,"weathercode":2,"zero_level_m":3800.0,"cloudcover_pct":87,"sunshine_min":0.0}},{"type":"Feature","geometry":{"type":"Point","coordinates":[7.090662,46.299984]},"properties":{"name":"Villars-Gryon","lat":46.299984,"lon":7.090662,"forecast_time_iso":"2026-08-25T06:00","forecast_time_str":"202608250600","temp_c":13.6,"wind_kmh":2.6,"gust_kmh":14.8,"precip_mm":0.2,"precip_prob_pct":69,"snowfall_cm":0.0,"weathercode":80,"zero_level_m":3760.0,"cloudcover_pct":88,"sunshine_min":0.0}},{"type":"Feature","geometry":{"type":"Point","coordinates":[7.913731,46.256939]},"properties":{"name":"Visperterminen","lat":46.256939,"lon":7.913731,"forecast_time_iso":"2026-08-25T06:00","forecast_time_str":"202608250600","temp_c":12.5,"wind_kmh":1.6,"gust_kmh":10.4,"precip_mm":2.0,"precip_prob_pct":47,"snowfall_cm":0.0,"weathercode":45,"zero_level_m":3790.0,"cloudcover_pct":98,"sunshine_min":0.0}},{"type":"Feature","geometry":{"type":"Point","coordinates":[7.745841,46.726089]},"properties":{"name":"Wilerallmi","lat":46.726089,"lon":7.745841,"forecast_time_iso":"2026-08-25T06:00","forecast_time_str":"202608250600","temp_c":13.0,"wind_kmh":1.8,"gust_kmh":3.6,"precip_mm":1.5,"precip_prob_pct":37,"snowfall_cm":0.0,"weathercode":95,"zero_level_m":3820.0,"cloudcover_pct":99,"sunshine_min":0.0}},{"type":"Feature","geometry":{"type":"Point","coordinates":[7.532542,46.612373]},"properties":{"name":"Wiriehorn","lat":46.612373,"lon":7.532542,"forecast_time_iso":"2026-08-25T06:00","forecast_time_str":"202608250600","temp_c":14.9,"wind_kmh":1.3,"gust_kmh":7.2,"precip_mm":0.6,"precip_prob_pct":57,"snowfall_cm":0.0,"weathercode":45,"zero_level_m":3780.0,"cloudcover_pct":100,"sunshine_min":0.0}}]}