{"type":"FeatureCollection","metadata":{"source":"Open-Meteo — ICON Seamless","forecast_time_iso":"2026-10-10T06:00","forecast_time_str":"202610100600","updated_utc":"2026-10-08T22:40:15.764608+00:00","total_stations":31},"features":[{"type":"Feature","geometry":{"type":"Point","coordinates":[7.477226,46.121571]},"properties":{"name":"Evolène","lat":46.121571,"lon":7.477226,"forecast_time_iso":"2026-10-10T06:00","forecast_time_str":"202610100600","temp_c":7.2,"wind_kmh":5.4,"gust_kmh":10.4,"precip_mm":0.6,"precip_prob_pct":19,"snowfall_cm":0.0,"weathercode":80,"zero_level_m":2790.0,"cloudcover_pct":100,"sunshine_min":0.0}},{"type":"Feature","geometry":{"type":"Point","coordinates":[7.523221,46.086246]},"properties":{"name":"La Forclaz","lat":46.086246,"lon":7.523221,"forecast_time_iso":"2026-10-10T06:00","forecast_time_str":"202610100600","temp_c":5.2,"wind_kmh":4.2,"gust_kmh":7.2,"precip_mm":0.6,"precip_prob_pct":19,"snowfall_cm":0.0,"weathercode":80,"zero_level_m":2680.0,"cloudcover_pct":100,"sunshine_min":0.0}},{"type":"Feature","geometry":{"type":"Point","coordinates":[7.206613,46.472771]},"properties":{"name":"Rougemont","lat":46.472771,"lon":7.206613,"forecast_time_iso":"2026-10-10T06:00","forecast_time_str":"202610100600","temp_c":6.6,"wind_kmh":1.3,"gust_kmh":14.8,"precip_mm":0.2,"precip_prob_pct":26,"snowfall_cm":0.0,"weathercode":61,"zero_level_m":2860.0,"cloudcover_pct":100,"sunshine_min":0.0}},{"type":"Feature","geometry":{"type":"Point","coordinates":[7.44959,46.757008]},"properties":{"name":"Gurnigelbad","lat":46.757008,"lon":7.44959,"forecast_time_iso":"2026-10-10T06:00","forecast_time_str":"202610100600","temp_c":8.8,"wind_kmh":6.2,"gust_kmh":28.4,"precip_mm":0.0,"precip_prob_pct":28,"snowfall_cm":0.0,"weathercode":3,"zero_level_m":2820.0,"cloudcover_pct":100,"sunshine_min":0.0}},{"type":"Feature","geometry":{"type":"Point","coordinates":[7.006306,46.111336]},"properties":{"name":"Les Marécottes","lat":46.111336,"lon":7.006306,"forecast_time_iso":"2026-10-10T06:00","forecast_time_str":"202610100600","temp_c":8.0,"wind_kmh":2.0,"gust_kmh":7.2,"precip_mm":0.3,"precip_prob_pct":23,"snowfall_cm":0.0,"weathercode":80,"zero_level_m":2840.0,"cloudcover_pct":100,"sunshine_min":0.0}},{"type":"Feature","geometry":{"type":"Point","coordinates":[7.284725,46.256624]},"properties":{"name":"Les Mayens de Conthey","lat":46.256624,"lon":7.284725,"forecast_time_iso":"2026-10-10T06:00","forecast_time_str":"202610100600","temp_c":7.0,"wind_kmh":0.7,"gust_kmh":2.2,"precip_mm":0.5,"precip_prob_pct":27,"snowfall_cm":0.0,"weathercode":61,"zero_level_m":2830.0,"cloudcover_pct":100,"sunshine_min":0.0}},{"type":"Feature","geometry":{"type":"Point","coordinates":[7.462543,46.225464]},"properties":{"name":"Nax","lat":46.225464,"lon":7.462543,"forecast_time_iso":"2026-10-10T06:00","forecast_time_str":"202610100600","temp_c":5.9,"wind_kmh":1.0,"gust_kmh":4.7,"precip_mm":0.2,"precip_prob_pct":19,"snowfall_cm":0.0,"weathercode":80,"zero_level_m":2760.0,"cloudcover_pct":100,"sunshine_min":0.0}},{"type":"Feature","geometry":{"type":"Point","coordinates":[7.775802,46.710602]},"properties":{"name":"Niederhorn","lat":46.710602,"lon":7.775802,"forecast_time_iso":"2026-10-10T06:00","forecast_time_str":"202610100600","temp_c":3.6,"wind_kmh":8.4,"gust_kmh":33.8,"precip_mm":1.4,"precip_prob_pct":27,"snowfall_cm":0.0,"weathercode":80,"zero_level_m":2830.0,"cloudcover_pct":100,"sunshine_min":0.0}},{"type":"Feature","geometry":{"type":"Point","coordinates":[7.364665,46.735054]},"properties":{"name":"Ottenleue","lat":46.735054,"lon":7.364665,"forecast_time_iso":"2026-10-10T06:00","forecast_time_str":"202610100600","temp_c":6.6,"wind_kmh":8.1,"gust_kmh":38.2,"precip_mm":0.1,"precip_prob_pct":30,"snowfall_cm":0.0,"weathercode":61,"zero_level_m":2810.0,"cloudcover_pct":100,"sunshine_min":0.0}},{"type":"Feature","geometry":{"type":"Point","coordinates":[7.151211,46.204193]},"properties":{"name":"Ovronnaz","lat":46.204193,"lon":7.151211,"forecast_time_iso":"2026-10-10T06:00","forecast_time_str":"202610100600","temp_c":4.7,"wind_kmh":1.6,"gust_kmh":4.0,"precip_mm":0.8,"precip_prob_pct":26,"snowfall_cm":0.0,"weathercode":61,"zero_level_m":2840.0,"cloudcover_pct":99,"sunshine_min":0.0}},{"type":"Feature","geometry":{"type":"Point","coordinates":[6.55007,46.8811]},"properties":{"name":"Robella - Val de Travers","lat":46.8811,"lon":6.55007,"forecast_time_iso":"2026-10-10T06:00","forecast_time_str":"202610100600","temp_c":8.7,"wind_kmh":11.5,"gust_kmh":29.5,"precip_mm":0.4,"precip_prob_pct":32,"snowfall_cm":0.0,"weathercode":53,"zero_level_m":2820.0,"cloudcover_pct":100,"sunshine_min":0.0}},{"type":"Feature","geometry":{"type":"Point","coordinates":[7.433806,46.627453]},"properties":{"name":"Rossberg","lat":46.627453,"lon":7.433806,"forecast_time_iso":"2026-10-10T06:00","forecast_time_str":"202610100600","temp_c":7.0,"wind_kmh":7.7,"gust_kmh":31.7,"precip_mm":0.1,"precip_prob_pct":30,"snowfall_cm":0.0,"weathercode":61,"zero_level_m":2840.0,"cloudcover_pct":100,"sunshine_min":0.0}},{"type":"Feature","geometry":{"type":"Point","coordinates":[8.041525,46.304493]},"properties":{"name":"Rosswald","lat":46.304493,"lon":8.041525,"forecast_time_iso":"2026-10-10T06:00","forecast_time_str":"202610100600","temp_c":4.0,"wind_kmh":3.4,"gust_kmh":10.1,"precip_mm":0.0,"precip_prob_pct":10,"snowfall_cm":0.0,"weathercode":3,"zero_level_m":2650.0,"cloudcover_pct":100,"sunshine_min":0.0}},{"type":"Feature","geometry":{"type":"Point","coordinates":[7.425229,46.750965]},"properties":{"name":"Rüschegg","lat":46.750965,"lon":7.425229,"forecast_time_iso":"2026-10-10T06:00","forecast_time_str":"202610100600","temp_c":8.6,"wind_kmh":9.2,"gust_kmh":40.7,"precip_mm":0.0,"precip_prob_pct":28,"snowfall_cm":0.0,"weathercode":3,"zero_level_m":2820.0,"cloudcover_pct":100,"sunshine_min":0.0}},{"type":"Feature","geometry":{"type":"Point","coordinates":[7.963252,46.089706]},"properties":{"name":"Saas-Almagell","lat":46.089706,"lon":7.963252,"forecast_time_iso":"2026-10-10T06:00","forecast_time_str":"202610100600","temp_c":4.0,"wind_kmh":5.8,"gust_kmh":12.2,"precip_mm":0.0,"precip_prob_pct":5,"snowfall_cm":0.0,"weathercode":61,"zero_level_m":2590.0,"cloudcover_pct":100,"sunshine_min":0.0}},{"type":"Feature","geometry":{"type":"Point","coordinates":[7.925277,46.099144]},"properties":{"name":"Saas Fee","lat":46.099144,"lon":7.925277,"forecast_time_iso":"2026-10-10T06:00","forecast_time_str":"202610100600","temp_c":3.7,"wind_kmh":5.8,"gust_kmh":12.2,"precip_mm":0.0,"precip_prob_pct":14,"snowfall_cm":0.0,"weathercode":61,"zero_level_m":2590.0,"cloudcover_pct":100,"sunshine_min":0.0}},{"type":"Feature","geometry":{"type":"Point","coordinates":[6.995653,47.25581]},"properties":{"name":"Saignelégier","lat":47.25581,"lon":6.995653,"forecast_time_iso":"2026-10-10T06:00","forecast_time_str":"202610100600","temp_c":8.6,"wind_kmh":16.2,"gust_kmh":34.9,"precip_mm":1.1,"precip_prob_pct":31,"snowfall_cm":0.0,"weathercode":61,"zero_level_m":2800.0,"cloudcover_pct":100,"sunshine_min":0.0}},{"type":"Feature","geometry":{"type":"Point","coordinates":[7.729452,46.736632]},"properties":{"name":"Schwanden","lat":46.736632,"lon":7.729452,"forecast_time_iso":"2026-10-10T06:00","forecast_time_str":"202610100600","temp_c":8.6,"wind_kmh":7.2,"gust_kmh":22.0,"precip_mm":0.5,"precip_prob_pct":22,"snowfall_cm":0.0,"weathercode":61,"zero_level_m":2840.0,"cloudcover_pct":100,"sunshine_min":0.0}},{"type":"Feature","geometry":{"type":"Point","coordinates":[7.290966,46.664074]},"properties":{"name":"Schwarzsee","lat":46.664074,"lon":7.290966,"forecast_time_iso":"2026-10-10T06:00","forecast_time_str":"202610100600","temp_c":8.5,"wind_kmh":6.5,"gust_kmh":15.5,"precip_mm":0.2,"precip_prob_pct":26,"snowfall_cm":0.0,"weathercode":61,"zero_level_m":2830.0,"cloudcover_pct":100,"sunshine_min":0.0}},{"type":"Feature","geometry":{"type":"Point","coordinates":[7.392882,46.744904]},"properties":{"name":"Selital","lat":46.744904,"lon":7.392882,"forecast_time_iso":"2026-10-10T06:00","forecast_time_str":"202610100600","temp_c":7.2,"wind_kmh":8.2,"gust_kmh":21.6,"precip_mm":0.1,"precip_prob_pct":30,"snowfall_cm":0.0,"weathercode":61,"zero_level_m":2800.0,"cloudcover_pct":100,"sunshine_min":0.0}},{"type":"Feature","geometry":{"type":"Point","coordinates":[8.030524,46.8148]},"properties":{"name":"Sörenberg","lat":46.8148,"lon":8.030524,"forecast_time_iso":"2026-10-10T06:00","forecast_time_str":"202610100600","temp_c":7.7,"wind_kmh":3.6,"gust_kmh":5.8,"precip_mm":0.6,"precip_prob_pct":32,"snowfall_cm":0.0,"weathercode":80,"zero_level_m":2820.0,"cloudcover_pct":100,"sunshine_min":0.0}},{"type":"Feature","geometry":{"type":"Point","coordinates":[7.576687,46.616902]},"properties":{"name":"Springenboden","lat":46.616902,"lon":7.576687,"forecast_time_iso":"2026-10-10T06:00","forecast_time_str":"202610100600","temp_c":7.0,"wind_kmh":6.3,"gust_kmh":13.0,"precip_mm":0.5,"precip_prob_pct":27,"snowfall_cm":0.0,"weathercode":61,"zero_level_m":2820.0,"cloudcover_pct":100,"sunshine_min":0.0}},{"type":"Feature","geometry":{"type":"Point","coordinates":[6.08722,46.442966]},"properties":{"name":"St Cergue","lat":46.442966,"lon":6.08722,"forecast_time_iso":"2026-10-10T06:00","forecast_time_str":"202610100600","temp_c":7.6,"wind_kmh":9.7,"gust_kmh":28.8,"precip_mm":1.0,"precip_prob_pct":22,"snowfall_cm":0.0,"weathercode":80,"zero_level_m":2900.0,"cloudcover_pct":100,"sunshine_min":0.0}},{"type":"Feature","geometry":{"type":"Point","coordinates":[7.604917,46.248325]},"properties":{"name":"St-Luc / Chandolin","lat":46.248325,"lon":7.604917,"forecast_time_iso":"2026-10-10T06:00","forecast_time_str":"202610100600","temp_c":4.4,"wind_kmh":2.5,"gust_kmh":20.9,"precip_mm":0.2,"precip_prob_pct":24,"snowfall_cm":0.0,"weathercode":80,"zero_level_m":2660.0,"cloudcover_pct":100,"sunshine_min":0.0}},{"type":"Feature","geometry":{"type":"Point","coordinates":[7.083587,47.214433]},"properties":{"name":"Tramelan","lat":47.214433,"lon":7.083587,"forecast_time_iso":"2026-10-10T06:00","forecast_time_str":"202610100600","temp_c":9.3,"wind_kmh":15.0,"gust_kmh":28.4,"precip_mm":0.9,"precip_prob_pct":35,"snowfall_cm":0.0,"weathercode":61,"zero_level_m":2790.0,"cloudcover_pct":100,"sunshine_min":0.0}},{"type":"Feature","geometry":{"type":"Point","coordinates":[7.799555,46.27927]},"properties":{"name":"Unterbäch","lat":46.27927,"lon":7.799555,"forecast_time_iso":"2026-10-10T06:00","forecast_time_str":"202610100600","temp_c":6.3,"wind_kmh":3.3,"gust_kmh":6.8,"precip_mm":0.1,"precip_prob_pct":18,"snowfall_cm":0.0,"weathercode":61,"zero_level_m":2810.0,"cloudcover_pct":100,"sunshine_min":0.0}},{"type":"Feature","geometry":{"type":"Point","coordinates":[7.532484,46.246895]},"properties":{"name":"Vercorin","lat":46.246895,"lon":7.532484,"forecast_time_iso":"2026-10-10T06:00","forecast_time_str":"202610100600","temp_c":6.0,"wind_kmh":0.4,"gust_kmh":11.2,"precip_mm":0.0,"precip_prob_pct":19,"snowfall_cm":0.0,"weathercode":80,"zero_level_m":2720.0,"cloudcover_pct":100,"sunshine_min":0.0}},{"type":"Feature","geometry":{"type":"Point","coordinates":[7.090662,46.299984]},"properties":{"name":"Villars-Gryon","lat":46.299984,"lon":7.090662,"forecast_time_iso":"2026-10-10T06:00","forecast_time_str":"202610100600","temp_c":6.7,"wind_kmh":1.3,"gust_kmh":4.3,"precip_mm":0.3,"precip_prob_pct":26,"snowfall_cm":0.0,"weathercode":80,"zero_level_m":2860.0,"cloudcover_pct":100,"sunshine_min":0.0}},{"type":"Feature","geometry":{"type":"Point","coordinates":[7.913731,46.256939]},"properties":{"name":"Visperterminen","lat":46.256939,"lon":7.913731,"forecast_time_iso":"2026-10-10T06:00","forecast_time_str":"202610100600","temp_c":5.0,"wind_kmh":1.8,"gust_kmh":9.0,"precip_mm":0.0,"precip_prob_pct":14,"snowfall_cm":0.0,"weathercode":61,"zero_level_m":2710.0,"cloudcover_pct":100,"sunshine_min":0.0}},{"type":"Feature","geometry":{"type":"Point","coordinates":[7.745841,46.726089]},"properties":{"name":"Wilerallmi","lat":46.726089,"lon":7.745841,"forecast_time_iso":"2026-10-10T06:00","forecast_time_str":"202610100600","temp_c":7.4,"wind_kmh":3.7,"gust_kmh":24.5,"precip_mm":1.0,"precip_prob_pct":22,"snowfall_cm":0.0,"weathercode":80,"zero_level_m":2820.0,"cloudcover_pct":100,"sunshine_min":0.0}},{"type":"Feature","geometry":{"type":"Point","coordinates":[7.532542,46.612373]},"properties":{"name":"Wiriehorn","lat":46.612373,"lon":7.532542,"forecast_time_iso":"2026-10-10T06:00","forecast_time_str":"202610100600","temp_c":8.5,"wind_kmh":3.3,"gust_kmh":8.6,"precip_mm":0.4,"precip_prob_pct":30,"snowfall_cm":0.0,"weathercode":61,"zero_level_m":2820.0,"cloudcover_pct":100,"sunshine_min":0.0}}]}