{"type":"FeatureCollection","metadata":{"source":"Open-Meteo — ICON Seamless","forecast_time_iso":"2026-10-08T12:00","forecast_time_str":"202610081200","updated_utc":"2026-10-04T16:05:38.781126+00:00","total_stations":78},"features":[{"type":"Feature","geometry":{"type":"Point","coordinates":[7.732993,46.647366]},"properties":{"name":"Aeschiallmend","lat":46.647366,"lon":7.732993,"forecast_time_iso":"2026-10-08T12:00","forecast_time_str":"202610081200","temp_c":10.3,"wind_kmh":2.9,"gust_kmh":24.8,"precip_mm":0.9,"precip_prob_pct":96,"snowfall_cm":0.0,"weathercode":61,"zero_level_m":2440.0,"cloudcover_pct":100,"sunshine_min":0.0}},{"type":"Feature","geometry":{"type":"Point","coordinates":[7.394955,46.295128]},"properties":{"name":"Anzère","lat":46.295128,"lon":7.394955,"forecast_time_iso":"2026-10-08T12:00","forecast_time_str":"202610081200","temp_c":8.0,"wind_kmh":9.7,"gust_kmh":27.4,"precip_mm":0.3,"precip_prob_pct":99,"snowfall_cm":0.0,"weathercode":3,"zero_level_m":2570.0,"cloudcover_pct":100,"sunshine_min":273.06}},{"type":"Feature","geometry":{"type":"Point","coordinates":[8.059329,46.738341]},"properties":{"name":"Axalp","lat":46.738341,"lon":8.059329,"forecast_time_iso":"2026-10-08T12:00","forecast_time_str":"202610081200","temp_c":13.2,"wind_kmh":6.4,"gust_kmh":28.8,"precip_mm":1.1,"precip_prob_pct":95,"snowfall_cm":0.0,"weathercode":61,"zero_level_m":2350.0,"cloudcover_pct":100,"sunshine_min":0.0}},{"type":"Feature","geometry":{"type":"Point","coordinates":[7.543444,47.265914]},"properties":{"name":"Balmberg","lat":47.265914,"lon":7.543444,"forecast_time_iso":"2026-10-08T12:00","forecast_time_str":"202610081200","temp_c":8.5,"wind_kmh":18.4,"gust_kmh":75.2,"precip_mm":0.1,"precip_prob_pct":93,"snowfall_cm":0.0,"weathercode":2,"zero_level_m":2030.0,"cloudcover_pct":90,"sunshine_min":2840.85}},{"type":"Feature","geometry":{"type":"Point","coordinates":[7.975012,46.371792]},"properties":{"name":"Belalp","lat":46.371792,"lon":7.975012,"forecast_time_iso":"2026-10-08T12:00","forecast_time_str":"202610081200","temp_c":5.9,"wind_kmh":9.7,"gust_kmh":27.0,"precip_mm":0.1,"precip_prob_pct":92,"snowfall_cm":0.0,"weathercode":3,"zero_level_m":2750.0,"cloudcover_pct":91,"sunshine_min":2722.23}},{"type":"Feature","geometry":{"type":"Point","coordinates":[7.01847,47.126057]},"properties":{"name":"Bugnenets-Savagnières","lat":47.126057,"lon":7.01847,"forecast_time_iso":"2026-10-08T12:00","forecast_time_str":"202610081200","temp_c":6.5,"wind_kmh":22.9,"gust_kmh":67.0,"precip_mm":0.2,"precip_prob_pct":87,"snowfall_cm":0.0,"weathercode":2,"zero_level_m":2000.0,"cloudcover_pct":90,"sunshine_min":2502.52}},{"type":"Feature","geometry":{"type":"Point","coordinates":[7.888115,46.807377]},"properties":{"name":"Bumbach","lat":46.807377,"lon":7.888115,"forecast_time_iso":"2026-10-08T12:00","forecast_time_str":"202610081200","temp_c":8.5,"wind_kmh":9.5,"gust_kmh":34.9,"precip_mm":2.5,"precip_prob_pct":95,"snowfall_cm":0.0,"weathercode":61,"zero_level_m":2320.0,"cloudcover_pct":100,"sunshine_min":0.0}},{"type":"Feature","geometry":{"type":"Point","coordinates":[7.188038,46.622372]},"properties":{"name":"Charmey","lat":46.622372,"lon":7.188038,"forecast_time_iso":"2026-10-08T12:00","forecast_time_str":"202610081200","temp_c":7.8,"wind_kmh":10.2,"gust_kmh":34.2,"precip_mm":1.8,"precip_prob_pct":99,"snowfall_cm":0.0,"weathercode":61,"zero_level_m":2240.0,"cloudcover_pct":100,"sunshine_min":0.0}},{"type":"Feature","geometry":{"type":"Point","coordinates":[6.993179,47.090527]},"properties":{"name":"Crêt-du-Puy","lat":47.090527,"lon":6.993179,"forecast_time_iso":"2026-10-08T12:00","forecast_time_str":"202610081200","temp_c":9.0,"wind_kmh":21.4,"gust_kmh":52.2,"precip_mm":0.1,"precip_prob_pct":87,"snowfall_cm":0.0,"weathercode":1,"zero_level_m":2230.0,"cloudcover_pct":81,"sunshine_min":3469.89}},{"type":"Feature","geometry":{"type":"Point","coordinates":[7.776881,46.289505]},"properties":{"name":"Eischoll","lat":46.289505,"lon":7.776881,"forecast_time_iso":"2026-10-08T12:00","forecast_time_str":"202610081200","temp_c":8.9,"wind_kmh":14.9,"gust_kmh":36.0,"precip_mm":0.1,"precip_prob_pct":90,"snowfall_cm":0.0,"weathercode":3,"zero_level_m":2630.0,"cloudcover_pct":95,"sunshine_min":1998.01}},{"type":"Feature","geometry":{"type":"Point","coordinates":[7.910718,46.803519]},"properties":{"name":"Eriz","lat":46.803519,"lon":7.910718,"forecast_time_iso":"2026-10-08T12:00","forecast_time_str":"202610081200","temp_c":8.4,"wind_kmh":9.5,"gust_kmh":34.9,"precip_mm":2.5,"precip_prob_pct":95,"snowfall_cm":0.0,"weathercode":61,"zero_level_m":2320.0,"cloudcover_pct":100,"sunshine_min":0.0}},{"type":"Feature","geometry":{"type":"Point","coordinates":[7.473954,46.020262]},"properties":{"name":"Arolla","lat":46.020262,"lon":7.473954,"forecast_time_iso":"2026-10-08T12:00","forecast_time_str":"202610081200","temp_c":3.8,"wind_kmh":10.5,"gust_kmh":33.5,"precip_mm":0.3,"precip_prob_pct":98,"snowfall_cm":0.0,"weathercode":80,"zero_level_m":2660.0,"cloudcover_pct":96,"sunshine_min":1317.6}},{"type":"Feature","geometry":{"type":"Point","coordinates":[7.477226,46.121571]},"properties":{"name":"Evolène","lat":46.121571,"lon":7.477226,"forecast_time_iso":"2026-10-08T12:00","forecast_time_str":"202610081200","temp_c":9.6,"wind_kmh":8.7,"gust_kmh":27.0,"precip_mm":0.5,"precip_prob_pct":96,"snowfall_cm":0.0,"weathercode":80,"zero_level_m":2580.0,"cloudcover_pct":92,"sunshine_min":2781.1}},{"type":"Feature","geometry":{"type":"Point","coordinates":[7.523221,46.086246]},"properties":{"name":"La Forclaz","lat":46.086246,"lon":7.523221,"forecast_time_iso":"2026-10-08T12:00","forecast_time_str":"202610081200","temp_c":6.9,"wind_kmh":9.2,"gust_kmh":24.1,"precip_mm":0.1,"precip_prob_pct":98,"snowfall_cm":0.0,"weathercode":3,"zero_level_m":2620.0,"cloudcover_pct":98,"sunshine_min":1879.6}},{"type":"Feature","geometry":{"type":"Point","coordinates":[7.72498,46.628002]},"properties":{"name":"Faltschen","lat":46.628002,"lon":7.72498,"forecast_time_iso":"2026-10-08T12:00","forecast_time_str":"202610081200","temp_c":9.6,"wind_kmh":2.9,"gust_kmh":24.8,"precip_mm":0.9,"precip_prob_pct":97,"snowfall_cm":0.0,"weathercode":61,"zero_level_m":2440.0,"cloudcover_pct":100,"sunshine_min":0.0}},{"type":"Feature","geometry":{"type":"Point","coordinates":[7.454506,46.724655]},"properties":{"name":"Gantrisch Gurnigel","lat":46.724655,"lon":7.454506,"forecast_time_iso":"2026-10-08T12:00","forecast_time_str":"202610081200","temp_c":7.5,"wind_kmh":7.9,"gust_kmh":42.5,"precip_mm":2.0,"precip_prob_pct":99,"snowfall_cm":0.0,"weathercode":61,"zero_level_m":2370.0,"cloudcover_pct":100,"sunshine_min":0.0}},{"type":"Feature","geometry":{"type":"Point","coordinates":[7.205612,46.353821]},"properties":{"name":"Glacier 3000","lat":46.353821,"lon":7.205612,"forecast_time_iso":"2026-10-08T12:00","forecast_time_str":"202610081200","temp_c":7.1,"wind_kmh":6.8,"gust_kmh":30.2,"precip_mm":1.2,"precip_prob_pct":99,"snowfall_cm":0.0,"weathercode":61,"zero_level_m":2420.0,"cloudcover_pct":100,"sunshine_min":0.0}},{"type":"Feature","geometry":{"type":"Point","coordinates":[7.380616,47.221455]},"properties":{"name":"Grenchenberg","lat":47.221455,"lon":7.380616,"forecast_time_iso":"2026-10-08T12:00","forecast_time_str":"202610081200","temp_c":6.0,"wind_kmh":14.3,"gust_kmh":67.0,"precip_mm":0.3,"precip_prob_pct":91,"snowfall_cm":0.0,"weathercode":3,"zero_level_m":2060.0,"cloudcover_pct":95,"sunshine_min":1696.37}},{"type":"Feature","geometry":{"type":"Point","coordinates":[7.584548,46.163437]},"properties":{"name":"Grimentz-Zinal","lat":46.163437,"lon":7.584548,"forecast_time_iso":"2026-10-08T12:00","forecast_time_str":"202610081200","temp_c":2.9,"wind_kmh":11.0,"gust_kmh":32.0,"precip_mm":0.4,"precip_prob_pct":97,"snowfall_cm":0.0,"weathercode":85,"zero_level_m":2600.0,"cloudcover_pct":100,"sunshine_min":2211.58}},{"type":"Feature","geometry":{"type":"Point","coordinates":[7.273952,46.465485]},"properties":{"name":"Gstaad","lat":46.465485,"lon":7.273952,"forecast_time_iso":"2026-10-08T12:00","forecast_time_str":"202610081200","temp_c":7.1,"wind_kmh":4.3,"gust_kmh":18.7,"precip_mm":1.0,"precip_prob_pct":99,"snowfall_cm":0.0,"weathercode":61,"zero_level_m":2390.0,"cloudcover_pct":100,"sunshine_min":0.0}},{"type":"Feature","geometry":{"type":"Point","coordinates":[7.206613,46.472771]},"properties":{"name":"Rougemont","lat":46.472771,"lon":7.206613,"forecast_time_iso":"2026-10-08T12:00","forecast_time_str":"202610081200","temp_c":6.3,"wind_kmh":6.6,"gust_kmh":25.2,"precip_mm":1.6,"precip_prob_pct":99,"snowfall_cm":0.0,"weathercode":61,"zero_level_m":2360.0,"cloudcover_pct":100,"sunshine_min":0.0}},{"type":"Feature","geometry":{"type":"Point","coordinates":[7.323383,46.506207]},"properties":{"name":"Saanenmöser","lat":46.506207,"lon":7.323383,"forecast_time_iso":"2026-10-08T12:00","forecast_time_str":"202610081200","temp_c":8.0,"wind_kmh":7.3,"gust_kmh":31.0,"precip_mm":1.0,"precip_prob_pct":99,"snowfall_cm":0.0,"weathercode":61,"zero_level_m":2400.0,"cloudcover_pct":100,"sunshine_min":0.0}},{"type":"Feature","geometry":{"type":"Point","coordinates":[7.274805,46.507072]},"properties":{"name":"Schönried","lat":46.507072,"lon":7.274805,"forecast_time_iso":"2026-10-08T12:00","forecast_time_str":"202610081200","temp_c":6.1,"wind_kmh":5.4,"gust_kmh":27.4,"precip_mm":1.2,"precip_prob_pct":99,"snowfall_cm":0.0,"weathercode":61,"zero_level_m":2360.0,"cloudcover_pct":100,"sunshine_min":0.0}},{"type":"Feature","geometry":{"type":"Point","coordinates":[7.382613,46.511063]},"properties":{"name":"St-Stephan","lat":46.511063,"lon":7.382613,"forecast_time_iso":"2026-10-08T12:00","forecast_time_str":"202610081200","temp_c":9.4,"wind_kmh":5.5,"gust_kmh":28.1,"precip_mm":0.7,"precip_prob_pct":99,"snowfall_cm":0.0,"weathercode":80,"zero_level_m":2370.0,"cloudcover_pct":100,"sunshine_min":0.0}},{"type":"Feature","geometry":{"type":"Point","coordinates":[7.373709,46.550652]},"properties":{"name":"Zweisimmen","lat":46.550652,"lon":7.373709,"forecast_time_iso":"2026-10-08T12:00","forecast_time_str":"202610081200","temp_c":10.1,"wind_kmh":4.4,"gust_kmh":28.4,"precip_mm":1.0,"precip_prob_pct":99,"snowfall_cm":0.0,"weathercode":80,"zero_level_m":2370.0,"cloudcover_pct":100,"sunshine_min":0.0}},{"type":"Feature","geometry":{"type":"Point","coordinates":[7.484264,46.568069]},"properties":{"name":"Grimmialp","lat":46.568069,"lon":7.484264,"forecast_time_iso":"2026-10-08T12:00","forecast_time_str":"202610081200","temp_c":8.6,"wind_kmh":5.1,"gust_kmh":21.2,"precip_mm":1.0,"precip_prob_pct":99,"snowfall_cm":0.0,"weathercode":80,"zero_level_m":2360.0,"cloudcover_pct":100,"sunshine_min":0.0}},{"type":"Feature","geometry":{"type":"Point","coordinates":[7.44959,46.757008]},"properties":{"name":"Gurnigelbad","lat":46.757008,"lon":7.44959,"forecast_time_iso":"2026-10-08T12:00","forecast_time_str":"202610081200","temp_c":8.6,"wind_kmh":13.1,"gust_kmh":55.8,"precip_mm":2.2,"precip_prob_pct":99,"snowfall_cm":0.0,"weathercode":63,"zero_level_m":2280.0,"cloudcover_pct":99,"sunshine_min":0.0}},{"type":"Feature","geometry":{"type":"Point","coordinates":[7.854006,46.731907]},"properties":{"name":"Habkern","lat":46.731907,"lon":7.854006,"forecast_time_iso":"2026-10-08T12:00","forecast_time_str":"202610081200","temp_c":7.4,"wind_kmh":8.2,"gust_kmh":41.4,"precip_mm":2.6,"precip_prob_pct":95,"snowfall_cm":0.0,"weathercode":63,"zero_level_m":2360.0,"cloudcover_pct":100,"sunshine_min":0.0}},{"type":"Feature","geometry":{"type":"Point","coordinates":[7.677143,46.827389]},"properties":{"name":"Heimenschwand","lat":46.827389,"lon":7.677143,"forecast_time_iso":"2026-10-08T12:00","forecast_time_str":"202610081200","temp_c":8.6,"wind_kmh":10.0,"gust_kmh":27.7,"precip_mm":1.0,"precip_prob_pct":99,"snowfall_cm":0.0,"weathercode":61,"zero_level_m":2290.0,"cloudcover_pct":98,"sunshine_min":0.0}},{"type":"Feature","geometry":{"type":"Point","coordinates":[7.821546,46.70932]},"properties":{"name":"Hohwald","lat":46.70932,"lon":7.821546,"forecast_time_iso":"2026-10-08T12:00","forecast_time_str":"202610081200","temp_c":7.0,"wind_kmh":7.2,"gust_kmh":51.1,"precip_mm":2.3,"precip_prob_pct":95,"snowfall_cm":0.0,"weathercode":63,"zero_level_m":2330.0,"cloudcover_pct":100,"sunshine_min":0.0}},{"type":"Feature","geometry":{"type":"Point","coordinates":[7.677712,46.767752]},"properties":{"name":"Homberg","lat":46.767752,"lon":7.677712,"forecast_time_iso":"2026-10-08T12:00","forecast_time_str":"202610081200","temp_c":8.8,"wind_kmh":5.6,"gust_kmh":20.9,"precip_mm":1.2,"precip_prob_pct":97,"snowfall_cm":0.0,"weathercode":61,"zero_level_m":2320.0,"cloudcover_pct":99,"sunshine_min":0.0}},{"type":"Feature","geometry":{"type":"Point","coordinates":[7.290691,46.608944]},"properties":{"name":"Jaun","lat":46.608944,"lon":7.290691,"forecast_time_iso":"2026-10-08T12:00","forecast_time_str":"202610081200","temp_c":9.4,"wind_kmh":8.6,"gust_kmh":36.7,"precip_mm":2.0,"precip_prob_pct":99,"snowfall_cm":0.0,"weathercode":61,"zero_level_m":2330.0,"cloudcover_pct":100,"sunshine_min":0.0}},{"type":"Feature","geometry":{"type":"Point","coordinates":[7.33801,46.59558]},"properties":{"name":"Jaunpass","lat":46.59558,"lon":7.33801,"forecast_time_iso":"2026-10-08T12:00","forecast_time_str":"202610081200","temp_c":5.9,"wind_kmh":8.6,"gust_kmh":36.7,"precip_mm":2.0,"precip_prob_pct":99,"snowfall_cm":0.0,"weathercode":61,"zero_level_m":2330.0,"cloudcover_pct":100,"sunshine_min":0.0}},{"type":"Feature","geometry":{"type":"Point","coordinates":[7.715937,46.582592]},"properties":{"name":"Kiental","lat":46.582592,"lon":7.715937,"forecast_time_iso":"2026-10-08T12:00","forecast_time_str":"202610081200","temp_c":8.3,"wind_kmh":2.6,"gust_kmh":17.3,"precip_mm":0.8,"precip_prob_pct":97,"snowfall_cm":0.0,"weathercode":80,"zero_level_m":2450.0,"cloudcover_pct":99,"sunshine_min":0.0}},{"type":"Feature","geometry":{"type":"Point","coordinates":[7.166771,46.682167]},"properties":{"name":"La Berra","lat":46.682167,"lon":7.166771,"forecast_time_iso":"2026-10-08T12:00","forecast_time_str":"202610081200","temp_c":7.8,"wind_kmh":11.5,"gust_kmh":55.4,"precip_mm":1.3,"precip_prob_pct":99,"snowfall_cm":0.0,"weathercode":61,"zero_level_m":2240.0,"cloudcover_pct":99,"sunshine_min":0.0}},{"type":"Feature","geometry":{"type":"Point","coordinates":[7.119769,46.416975]},"properties":{"name":"La Lécherette","lat":46.416975,"lon":7.119769,"forecast_time_iso":"2026-10-08T12:00","forecast_time_str":"202610081200","temp_c":6.1,"wind_kmh":9.2,"gust_kmh":24.1,"precip_mm":1.4,"precip_prob_pct":99,"snowfall_cm":0.0,"weathercode":61,"zero_level_m":2380.0,"cloudcover_pct":100,"sunshine_min":0.0}},{"type":"Feature","geometry":{"type":"Point","coordinates":[7.776004,46.406406]},"properties":{"name":"Lauchernalp","lat":46.406406,"lon":7.776004,"forecast_time_iso":"2026-10-08T12:00","forecast_time_str":"202610081200","temp_c":8.4,"wind_kmh":9.9,"gust_kmh":34.2,"precip_mm":0.1,"precip_prob_pct":87,"snowfall_cm":0.0,"weathercode":3,"zero_level_m":2680.0,"cloudcover_pct":99,"sunshine_min":437.37}},{"type":"Feature","geometry":{"type":"Point","coordinates":[6.213542,46.576439]},"properties":{"name":"Le Brassus","lat":46.576439,"lon":6.213542,"forecast_time_iso":"2026-10-08T12:00","forecast_time_str":"202610081200","temp_c":7.1,"wind_kmh":18.7,"gust_kmh":52.2,"precip_mm":0.1,"precip_prob_pct":91,"snowfall_cm":0.0,"weathercode":3,"zero_level_m":2050.0,"cloudcover_pct":95,"sunshine_min":826.35}},{"type":"Feature","geometry":{"type":"Point","coordinates":[7.147033,46.341095]},"properties":{"name":"Les Diablerets","lat":46.341095,"lon":7.147033,"forecast_time_iso":"2026-10-08T12:00","forecast_time_str":"202610081200","temp_c":6.6,"wind_kmh":9.1,"gust_kmh":40.0,"precip_mm":1.0,"precip_prob_pct":99,"snowfall_cm":0.0,"weathercode":53,"zero_level_m":2480.0,"cloudcover_pct":100,"sunshine_min":0.0}},{"type":"Feature","geometry":{"type":"Point","coordinates":[7.006306,46.111336]},"properties":{"name":"Les Marécottes","lat":46.111336,"lon":7.006306,"forecast_time_iso":"2026-10-08T12:00","forecast_time_str":"202610081200","temp_c":8.8,"wind_kmh":8.3,"gust_kmh":11.9,"precip_mm":0.2,"precip_prob_pct":98,"snowfall_cm":0.0,"weathercode":3,"zero_level_m":2550.0,"cloudcover_pct":100,"sunshine_min":1168.02}},{"type":"Feature","geometry":{"type":"Point","coordinates":[7.284725,46.256624]},"properties":{"name":"Les Mayens de Conthey","lat":46.256624,"lon":7.284725,"forecast_time_iso":"2026-10-08T12:00","forecast_time_str":"202610081200","temp_c":9.1,"wind_kmh":9.7,"gust_kmh":29.2,"precip_mm":0.3,"precip_prob_pct":98,"snowfall_cm":0.0,"weathercode":3,"zero_level_m":2560.0,"cloudcover_pct":100,"sunshine_min":1451.16}},{"type":"Feature","geometry":{"type":"Point","coordinates":[7.071578,46.391678]},"properties":{"name":"Les Mosses","lat":46.391678,"lon":7.071578,"forecast_time_iso":"2026-10-08T12:00","forecast_time_str":"202610081200","temp_c":4.4,"wind_kmh":7.6,"gust_kmh":36.4,"precip_mm":1.4,"precip_prob_pct":99,"snowfall_cm":0.0,"weathercode":61,"zero_level_m":2420.0,"cloudcover_pct":100,"sunshine_min":0.0}},{"type":"Feature","geometry":{"type":"Point","coordinates":[6.936362,46.514724]},"properties":{"name":"Les Paccots","lat":46.514724,"lon":6.936362,"forecast_time_iso":"2026-10-08T12:00","forecast_time_str":"202610081200","temp_c":8.4,"wind_kmh":10.0,"gust_kmh":38.5,"precip_mm":0.8,"precip_prob_pct":99,"snowfall_cm":0.0,"weathercode":61,"zero_level_m":2280.0,"cloudcover_pct":98,"sunshine_min":0.0}},{"type":"Feature","geometry":{"type":"Point","coordinates":[6.916388,46.488899]},"properties":{"name":"Les Pléiades","lat":46.488899,"lon":6.916388,"forecast_time_iso":"2026-10-08T12:00","forecast_time_str":"202610081200","temp_c":8.6,"wind_kmh":10.0,"gust_kmh":38.5,"precip_mm":0.8,"precip_prob_pct":99,"snowfall_cm":0.0,"weathercode":61,"zero_level_m":2280.0,"cloudcover_pct":98,"sunshine_min":0.0}},{"type":"Feature","geometry":{"type":"Point","coordinates":[6.534253,46.834576]},"properties":{"name":"Les Rasses","lat":46.834576,"lon":6.534253,"forecast_time_iso":"2026-10-08T12:00","forecast_time_str":"202610081200","temp_c":5.4,"wind_kmh":20.8,"gust_kmh":52.9,"precip_mm":0.1,"precip_prob_pct":86,"snowfall_cm":0.0,"weathercode":2,"zero_level_m":1950.0,"cloudcover_pct":88,"sunshine_min":0.0}},{"type":"Feature","geometry":{"type":"Point","coordinates":[6.979251,46.432796]},"properties":{"name":"Les Rochers de Naye","lat":46.432796,"lon":6.979251,"forecast_time_iso":"2026-10-08T12:00","forecast_time_str":"202610081200","temp_c":4.2,"wind_kmh":10.1,"gust_kmh":43.9,"precip_mm":1.5,"precip_prob_pct":99,"snowfall_cm":0.0,"weathercode":61,"zero_level_m":2310.0,"cloudcover_pct":100,"sunshine_min":0.0}},{"type":"Feature","geometry":{"type":"Point","coordinates":[7.638759,46.371437]},"properties":{"name":"Leukerbad","lat":46.371437,"lon":7.638759,"forecast_time_iso":"2026-10-08T12:00","forecast_time_str":"202610081200","temp_c":7.1,"wind_kmh":8.6,"gust_kmh":27.7,"precip_mm":0.3,"precip_prob_pct":97,"snowfall_cm":0.0,"weathercode":61,"zero_level_m":2640.0,"cloudcover_pct":100,"sunshine_min":0.0}},{"type":"Feature","geometry":{"type":"Point","coordinates":[7.010152,46.353519]},"properties":{"name":"Leysin","lat":46.353519,"lon":7.010152,"forecast_time_iso":"2026-10-08T12:00","forecast_time_str":"202610081200","temp_c":6.6,"wind_kmh":10.9,"gust_kmh":33.5,"precip_mm":1.7,"precip_prob_pct":99,"snowfall_cm":0.0,"weathercode":63,"zero_level_m":2430.0,"cloudcover_pct":99,"sunshine_min":0.0}},{"type":"Feature","geometry":{"type":"Point","coordinates":[7.678084,46.843925]},"properties":{"name":"Linden","lat":46.843925,"lon":7.678084,"forecast_time_iso":"2026-10-08T12:00","forecast_time_str":"202610081200","temp_c":10.1,"wind_kmh":13.8,"gust_kmh":36.0,"precip_mm":0.8,"precip_prob_pct":99,"snowfall_cm":0.0,"weathercode":61,"zero_level_m":2290.0,"cloudcover_pct":95,"sunshine_min":0.0}},{"type":"Feature","geometry":{"type":"Point","coordinates":[8.200658,46.730618]},"properties":{"name":"Meiringen-Hasliberg","lat":46.730618,"lon":8.200658,"forecast_time_iso":"2026-10-08T12:00","forecast_time_str":"202610081200","temp_c":11.1,"wind_kmh":4.1,"gust_kmh":17.3,"precip_mm":1.4,"precip_prob_pct":94,"snowfall_cm":0.0,"weathercode":61,"zero_level_m":2370.0,"cloudcover_pct":98,"sunshine_min":0.0}},{"type":"Feature","geometry":{"type":"Point","coordinates":[8.270116,46.776344]},"properties":{"name":"Melchsee-Frutt","lat":46.776344,"lon":8.270116,"forecast_time_iso":"2026-10-08T12:00","forecast_time_str":"202610081200","temp_c":3.9,"wind_kmh":8.6,"gust_kmh":31.3,"precip_mm":1.8,"precip_prob_pct":93,"snowfall_cm":0.0,"weathercode":63,"zero_level_m":2400.0,"cloudcover_pct":100,"sunshine_min":0.0}},{"type":"Feature","geometry":{"type":"Point","coordinates":[7.034523,46.561966]},"properties":{"name":"Moléson","lat":46.561966,"lon":7.034523,"forecast_time_iso":"2026-10-08T12:00","forecast_time_str":"202610081200","temp_c":8.3,"wind_kmh":7.0,"gust_kmh":21.2,"precip_mm":1.6,"precip_prob_pct":99,"snowfall_cm":0.0,"weathercode":61,"zero_level_m":2240.0,"cloudcover_pct":100,"sunshine_min":0.0}},{"type":"Feature","geometry":{"type":"Point","coordinates":[7.829611,46.248253]},"properties":{"name":"Moosalp","lat":46.248253,"lon":7.829611,"forecast_time_iso":"2026-10-08T12:00","forecast_time_str":"202610081200","temp_c":5.9,"wind_kmh":11.0,"gust_kmh":30.6,"precip_mm":0.1,"precip_prob_pct":87,"snowfall_cm":0.0,"weathercode":3,"zero_level_m":2760.0,"cloudcover_pct":88,"sunshine_min":3600.0}},{"type":"Feature","geometry":{"type":"Point","coordinates":[8.108218,46.822742]},"properties":{"name":"Mörlialp","lat":46.822742,"lon":8.108218,"forecast_time_iso":"2026-10-08T12:00","forecast_time_str":"202610081200","temp_c":7.0,"wind_kmh":6.1,"gust_kmh":23.8,"precip_mm":2.2,"precip_prob_pct":95,"snowfall_cm":0.0,"weathercode":61,"zero_level_m":2340.0,"cloudcover_pct":99,"sunshine_min":0.0}},{"type":"Feature","geometry":{"type":"Point","coordinates":[7.462543,46.225464]},"properties":{"name":"Nax","lat":46.225464,"lon":7.462543,"forecast_time_iso":"2026-10-08T12:00","forecast_time_str":"202610081200","temp_c":9.0,"wind_kmh":8.7,"gust_kmh":27.0,"precip_mm":0.5,"precip_prob_pct":96,"snowfall_cm":0.0,"weathercode":80,"zero_level_m":2580.0,"cloudcover_pct":92,"sunshine_min":2781.1}},{"type":"Feature","geometry":{"type":"Point","coordinates":[7.775802,46.710602]},"properties":{"name":"Niederhorn","lat":46.710602,"lon":7.775802,"forecast_time_iso":"2026-10-08T12:00","forecast_time_str":"202610081200","temp_c":5.0,"wind_kmh":5.1,"gust_kmh":32.4,"precip_mm":0.8,"precip_prob_pct":97,"snowfall_cm":0.0,"weathercode":61,"zero_level_m":2440.0,"cloudcover_pct":100,"sunshine_min":0.0}},{"type":"Feature","geometry":{"type":"Point","coordinates":[7.364665,46.735054]},"properties":{"name":"Ottenleue","lat":46.735054,"lon":7.364665,"forecast_time_iso":"2026-10-08T12:00","forecast_time_str":"202610081200","temp_c":6.0,"wind_kmh":9.0,"gust_kmh":46.8,"precip_mm":2.3,"precip_prob_pct":99,"snowfall_cm":0.0,"weathercode":63,"zero_level_m":2350.0,"cloudcover_pct":100,"sunshine_min":0.0}},{"type":"Feature","geometry":{"type":"Point","coordinates":[7.151211,46.204193]},"properties":{"name":"Ovronnaz","lat":46.204193,"lon":7.151211,"forecast_time_iso":"2026-10-08T12:00","forecast_time_str":"202610081200","temp_c":7.3,"wind_kmh":9.4,"gust_kmh":45.0,"precip_mm":0.4,"precip_prob_pct":98,"snowfall_cm":0.0,"weathercode":3,"zero_level_m":2580.0,"cloudcover_pct":100,"sunshine_min":1226.44}},{"type":"Feature","geometry":{"type":"Point","coordinates":[6.975307,46.544109]},"properties":{"name":"Rathvel","lat":46.544109,"lon":6.975307,"forecast_time_iso":"2026-10-08T12:00","forecast_time_str":"202610081200","temp_c":7.3,"wind_kmh":8.1,"gust_kmh":34.9,"precip_mm":0.6,"precip_prob_pct":99,"snowfall_cm":0.0,"weathercode":61,"zero_level_m":2270.0,"cloudcover_pct":100,"sunshine_min":0.0}},{"type":"Feature","geometry":{"type":"Point","coordinates":[6.55007,46.8811]},"properties":{"name":"Robella - Val de Travers","lat":46.8811,"lon":6.55007,"forecast_time_iso":"2026-10-08T12:00","forecast_time_str":"202610081200","temp_c":7.8,"wind_kmh":20.1,"gust_kmh":54.4,"precip_mm":0.1,"precip_prob_pct":86,"snowfall_cm":0.0,"weathercode":2,"zero_level_m":1920.0,"cloudcover_pct":85,"sunshine_min":0.0}},{"type":"Feature","geometry":{"type":"Point","coordinates":[7.433806,46.627453]},"properties":{"name":"Rossberg","lat":46.627453,"lon":7.433806,"forecast_time_iso":"2026-10-08T12:00","forecast_time_str":"202610081200","temp_c":6.5,"wind_kmh":6.2,"gust_kmh":29.5,"precip_mm":1.0,"precip_prob_pct":99,"snowfall_cm":0.0,"weathercode":61,"zero_level_m":2370.0,"cloudcover_pct":100,"sunshine_min":0.0}},{"type":"Feature","geometry":{"type":"Point","coordinates":[8.041525,46.304493]},"properties":{"name":"Rosswald","lat":46.304493,"lon":8.041525,"forecast_time_iso":"2026-10-08T12:00","forecast_time_str":"202610081200","temp_c":8.4,"wind_kmh":12.2,"gust_kmh":39.2,"precip_mm":0.2,"precip_prob_pct":87,"snowfall_cm":0.0,"weathercode":3,"zero_level_m":2820.0,"cloudcover_pct":91,"sunshine_min":3600.0}},{"type":"Feature","geometry":{"type":"Point","coordinates":[7.425229,46.750965]},"properties":{"name":"Rüschegg","lat":46.750965,"lon":7.425229,"forecast_time_iso":"2026-10-08T12:00","forecast_time_str":"202610081200","temp_c":8.3,"wind_kmh":13.1,"gust_kmh":55.8,"precip_mm":2.2,"precip_prob_pct":99,"snowfall_cm":0.0,"weathercode":63,"zero_level_m":2280.0,"cloudcover_pct":99,"sunshine_min":0.0}},{"type":"Feature","geometry":{"type":"Point","coordinates":[7.963252,46.089706]},"properties":{"name":"Saas-Almagell","lat":46.089706,"lon":7.963252,"forecast_time_iso":"2026-10-08T12:00","forecast_time_str":"202610081200","temp_c":7.8,"wind_kmh":19.1,"gust_kmh":59.4,"precip_mm":0.1,"precip_prob_pct":82,"snowfall_cm":0.0,"weathercode":85,"zero_level_m":2860.0,"cloudcover_pct":92,"sunshine_min":3600.0}},{"type":"Feature","geometry":{"type":"Point","coordinates":[7.925277,46.099144]},"properties":{"name":"Saas Fee","lat":46.099144,"lon":7.925277,"forecast_time_iso":"2026-10-08T12:00","forecast_time_str":"202610081200","temp_c":6.6,"wind_kmh":11.0,"gust_kmh":30.6,"precip_mm":0.1,"precip_prob_pct":87,"snowfall_cm":0.0,"weathercode":3,"zero_level_m":2760.0,"cloudcover_pct":88,"sunshine_min":3600.0}},{"type":"Feature","geometry":{"type":"Point","coordinates":[6.995653,47.25581]},"properties":{"name":"Saignelégier","lat":47.25581,"lon":6.995653,"forecast_time_iso":"2026-10-08T12:00","forecast_time_str":"202610081200","temp_c":7.1,"wind_kmh":22.6,"gust_kmh":59.4,"precip_mm":0.1,"precip_prob_pct":92,"snowfall_cm":0.0,"weathercode":3,"zero_level_m":1930.0,"cloudcover_pct":96,"sunshine_min":0.0}},{"type":"Feature","geometry":{"type":"Point","coordinates":[7.290966,46.664074]},"properties":{"name":"Schwarzsee","lat":46.664074,"lon":7.290966,"forecast_time_iso":"2026-10-08T12:00","forecast_time_str":"202610081200","temp_c":7.6,"wind_kmh":8.4,"gust_kmh":44.6,"precip_mm":2.3,"precip_prob_pct":99,"snowfall_cm":0.0,"weathercode":63,"zero_level_m":2300.0,"cloudcover_pct":100,"sunshine_min":0.0}},{"type":"Feature","geometry":{"type":"Point","coordinates":[7.392882,46.744904]},"properties":{"name":"Selital","lat":46.744904,"lon":7.392882,"forecast_time_iso":"2026-10-08T12:00","forecast_time_str":"202610081200","temp_c":6.6,"wind_kmh":9.0,"gust_kmh":46.8,"precip_mm":2.3,"precip_prob_pct":99,"snowfall_cm":0.0,"weathercode":63,"zero_level_m":2350.0,"cloudcover_pct":100,"sunshine_min":0.0}},{"type":"Feature","geometry":{"type":"Point","coordinates":[8.030524,46.8148]},"properties":{"name":"Sörenberg","lat":46.8148,"lon":8.030524,"forecast_time_iso":"2026-10-08T12:00","forecast_time_str":"202610081200","temp_c":7.7,"wind_kmh":8.8,"gust_kmh":45.4,"precip_mm":3.1,"precip_prob_pct":97,"snowfall_cm":0.0,"weathercode":63,"zero_level_m":2340.0,"cloudcover_pct":100,"sunshine_min":0.0}},{"type":"Feature","geometry":{"type":"Point","coordinates":[7.576687,46.616902]},"properties":{"name":"Springenboden","lat":46.616902,"lon":7.576687,"forecast_time_iso":"2026-10-08T12:00","forecast_time_str":"202610081200","temp_c":7.9,"wind_kmh":3.8,"gust_kmh":32.4,"precip_mm":1.1,"precip_prob_pct":97,"snowfall_cm":0.0,"weathercode":80,"zero_level_m":2410.0,"cloudcover_pct":99,"sunshine_min":0.0}},{"type":"Feature","geometry":{"type":"Point","coordinates":[6.08722,46.442966]},"properties":{"name":"St Cergue","lat":46.442966,"lon":6.08722,"forecast_time_iso":"2026-10-08T12:00","forecast_time_str":"202610081200","temp_c":6.8,"wind_kmh":17.7,"gust_kmh":40.3,"precip_mm":0.2,"precip_prob_pct":92,"snowfall_cm":0.0,"weathercode":3,"zero_level_m":2090.0,"cloudcover_pct":95,"sunshine_min":1335.22}},{"type":"Feature","geometry":{"type":"Point","coordinates":[7.604917,46.248325]},"properties":{"name":"St-Luc / Chandolin","lat":46.248325,"lon":7.604917,"forecast_time_iso":"2026-10-08T12:00","forecast_time_str":"202610081200","temp_c":6.0,"wind_kmh":11.7,"gust_kmh":35.6,"precip_mm":0.5,"precip_prob_pct":94,"snowfall_cm":0.0,"weathercode":80,"zero_level_m":2620.0,"cloudcover_pct":96,"sunshine_min":2555.69}},{"type":"Feature","geometry":{"type":"Point","coordinates":[7.083587,47.214433]},"properties":{"name":"Tramelan","lat":47.214433,"lon":7.083587,"forecast_time_iso":"2026-10-08T12:00","forecast_time_str":"202610081200","temp_c":8.2,"wind_kmh":21.3,"gust_kmh":69.1,"precip_mm":0.2,"precip_prob_pct":94,"snowfall_cm":0.0,"weathercode":3,"zero_level_m":1990.0,"cloudcover_pct":96,"sunshine_min":0.0}},{"type":"Feature","geometry":{"type":"Point","coordinates":[7.799555,46.27927]},"properties":{"name":"Unterbäch","lat":46.27927,"lon":7.799555,"forecast_time_iso":"2026-10-08T12:00","forecast_time_str":"202610081200","temp_c":10.3,"wind_kmh":13.2,"gust_kmh":34.2,"precip_mm":0.1,"precip_prob_pct":90,"snowfall_cm":0.0,"weathercode":2,"zero_level_m":2680.0,"cloudcover_pct":86,"sunshine_min":3600.0}},{"type":"Feature","geometry":{"type":"Point","coordinates":[7.532484,46.246895]},"properties":{"name":"Vercorin","lat":46.246895,"lon":7.532484,"forecast_time_iso":"2026-10-08T12:00","forecast_time_str":"202610081200","temp_c":7.4,"wind_kmh":6.8,"gust_kmh":22.0,"precip_mm":0.2,"precip_prob_pct":96,"snowfall_cm":0.0,"weathercode":3,"zero_level_m":2610.0,"cloudcover_pct":95,"sunshine_min":2670.18}},{"type":"Feature","geometry":{"type":"Point","coordinates":[7.090662,46.299984]},"properties":{"name":"Villars-Gryon","lat":46.299984,"lon":7.090662,"forecast_time_iso":"2026-10-08T12:00","forecast_time_str":"202610081200","temp_c":6.8,"wind_kmh":6.8,"gust_kmh":31.0,"precip_mm":0.9,"precip_prob_pct":98,"snowfall_cm":0.0,"weathercode":80,"zero_level_m":2480.0,"cloudcover_pct":100,"sunshine_min":0.0}},{"type":"Feature","geometry":{"type":"Point","coordinates":[7.913731,46.256939]},"properties":{"name":"Visperterminen","lat":46.256939,"lon":7.913731,"forecast_time_iso":"2026-10-08T12:00","forecast_time_str":"202610081200","temp_c":8.6,"wind_kmh":9.0,"gust_kmh":24.5,"precip_mm":0.0,"precip_prob_pct":87,"snowfall_cm":0.0,"weathercode":2,"zero_level_m":2730.0,"cloudcover_pct":85,"sunshine_min":3600.0}},{"type":"Feature","geometry":{"type":"Point","coordinates":[7.745841,46.726089]},"properties":{"name":"Wilerallmi","lat":46.726089,"lon":7.745841,"forecast_time_iso":"2026-10-08T12:00","forecast_time_str":"202610081200","temp_c":7.6,"wind_kmh":6.6,"gust_kmh":43.9,"precip_mm":1.6,"precip_prob_pct":96,"snowfall_cm":0.0,"weathercode":61,"zero_level_m":2320.0,"cloudcover_pct":100,"sunshine_min":0.0}}]}