{"type":"FeatureCollection","metadata":{"source":"Open-Meteo — ICON Seamless","forecast_time_iso":"2026-10-10T12:00","forecast_time_str":"202610101200","updated_utc":"2026-10-08T22:40:15.765762+00:00","total_stations":31},"features":[{"type":"Feature","geometry":{"type":"Point","coordinates":[7.477226,46.121571]},"properties":{"name":"Evolène","lat":46.121571,"lon":7.477226,"forecast_time_iso":"2026-10-10T12:00","forecast_time_str":"202610101200","temp_c":8.2,"wind_kmh":5.2,"gust_kmh":11.9,"precip_mm":1.0,"precip_prob_pct":23,"snowfall_cm":0.0,"weathercode":80,"zero_level_m":2710.0,"cloudcover_pct":100,"sunshine_min":0.0}},{"type":"Feature","geometry":{"type":"Point","coordinates":[7.523221,46.086246]},"properties":{"name":"La Forclaz","lat":46.086246,"lon":7.523221,"forecast_time_iso":"2026-10-10T12:00","forecast_time_str":"202610101200","temp_c":5.4,"wind_kmh":0.7,"gust_kmh":5.0,"precip_mm":0.6,"precip_prob_pct":21,"snowfall_cm":0.0,"weathercode":80,"zero_level_m":2700.0,"cloudcover_pct":100,"sunshine_min":42.32}},{"type":"Feature","geometry":{"type":"Point","coordinates":[7.206613,46.472771]},"properties":{"name":"Rougemont","lat":46.472771,"lon":7.206613,"forecast_time_iso":"2026-10-10T12:00","forecast_time_str":"202610101200","temp_c":7.4,"wind_kmh":8.4,"gust_kmh":30.6,"precip_mm":0.6,"precip_prob_pct":36,"snowfall_cm":0.0,"weathercode":61,"zero_level_m":2690.0,"cloudcover_pct":100,"sunshine_min":0.0}},{"type":"Feature","geometry":{"type":"Point","coordinates":[7.44959,46.757008]},"properties":{"name":"Gurnigelbad","lat":46.757008,"lon":7.44959,"forecast_time_iso":"2026-10-10T12:00","forecast_time_str":"202610101200","temp_c":9.1,"wind_kmh":12.2,"gust_kmh":35.6,"precip_mm":0.7,"precip_prob_pct":41,"snowfall_cm":0.0,"weathercode":61,"zero_level_m":2660.0,"cloudcover_pct":100,"sunshine_min":0.0}},{"type":"Feature","geometry":{"type":"Point","coordinates":[7.006306,46.111336]},"properties":{"name":"Les Marécottes","lat":46.111336,"lon":7.006306,"forecast_time_iso":"2026-10-10T12:00","forecast_time_str":"202610101200","temp_c":9.4,"wind_kmh":3.6,"gust_kmh":19.4,"precip_mm":0.3,"precip_prob_pct":28,"snowfall_cm":0.0,"weathercode":80,"zero_level_m":2670.0,"cloudcover_pct":100,"sunshine_min":295.0}},{"type":"Feature","geometry":{"type":"Point","coordinates":[7.284725,46.256624]},"properties":{"name":"Les Mayens de Conthey","lat":46.256624,"lon":7.284725,"forecast_time_iso":"2026-10-10T12:00","forecast_time_str":"202610101200","temp_c":8.6,"wind_kmh":3.1,"gust_kmh":8.6,"precip_mm":1.2,"precip_prob_pct":27,"snowfall_cm":0.0,"weathercode":80,"zero_level_m":2610.0,"cloudcover_pct":98,"sunshine_min":0.0}},{"type":"Feature","geometry":{"type":"Point","coordinates":[7.462543,46.225464]},"properties":{"name":"Nax","lat":46.225464,"lon":7.462543,"forecast_time_iso":"2026-10-10T12:00","forecast_time_str":"202610101200","temp_c":7.0,"wind_kmh":2.3,"gust_kmh":17.3,"precip_mm":0.7,"precip_prob_pct":23,"snowfall_cm":0.0,"weathercode":61,"zero_level_m":2620.0,"cloudcover_pct":100,"sunshine_min":0.0}},{"type":"Feature","geometry":{"type":"Point","coordinates":[7.775802,46.710602]},"properties":{"name":"Niederhorn","lat":46.710602,"lon":7.775802,"forecast_time_iso":"2026-10-10T12:00","forecast_time_str":"202610101200","temp_c":4.5,"wind_kmh":11.4,"gust_kmh":41.4,"precip_mm":1.4,"precip_prob_pct":43,"snowfall_cm":0.0,"weathercode":61,"zero_level_m":2530.0,"cloudcover_pct":100,"sunshine_min":0.0}},{"type":"Feature","geometry":{"type":"Point","coordinates":[7.364665,46.735054]},"properties":{"name":"Ottenleue","lat":46.735054,"lon":7.364665,"forecast_time_iso":"2026-10-10T12:00","forecast_time_str":"202610101200","temp_c":6.5,"wind_kmh":12.2,"gust_kmh":49.7,"precip_mm":0.9,"precip_prob_pct":43,"snowfall_cm":0.0,"weathercode":61,"zero_level_m":2670.0,"cloudcover_pct":100,"sunshine_min":0.0}},{"type":"Feature","geometry":{"type":"Point","coordinates":[7.151211,46.204193]},"properties":{"name":"Ovronnaz","lat":46.204193,"lon":7.151211,"forecast_time_iso":"2026-10-10T12:00","forecast_time_str":"202610101200","temp_c":7.0,"wind_kmh":4.3,"gust_kmh":10.4,"precip_mm":1.7,"precip_prob_pct":34,"snowfall_cm":0.0,"weathercode":80,"zero_level_m":2670.0,"cloudcover_pct":97,"sunshine_min":0.0}},{"type":"Feature","geometry":{"type":"Point","coordinates":[6.55007,46.8811]},"properties":{"name":"Robella - Val de Travers","lat":46.8811,"lon":6.55007,"forecast_time_iso":"2026-10-10T12:00","forecast_time_str":"202610101200","temp_c":9.3,"wind_kmh":11.0,"gust_kmh":30.6,"precip_mm":0.1,"precip_prob_pct":47,"snowfall_cm":0.0,"weathercode":80,"zero_level_m":2600.0,"cloudcover_pct":100,"sunshine_min":0.0}},{"type":"Feature","geometry":{"type":"Point","coordinates":[7.433806,46.627453]},"properties":{"name":"Rossberg","lat":46.627453,"lon":7.433806,"forecast_time_iso":"2026-10-10T12:00","forecast_time_str":"202610101200","temp_c":8.0,"wind_kmh":10.0,"gust_kmh":47.9,"precip_mm":0.5,"precip_prob_pct":43,"snowfall_cm":0.0,"weathercode":80,"zero_level_m":2680.0,"cloudcover_pct":100,"sunshine_min":0.0}},{"type":"Feature","geometry":{"type":"Point","coordinates":[8.041525,46.304493]},"properties":{"name":"Rosswald","lat":46.304493,"lon":8.041525,"forecast_time_iso":"2026-10-10T12:00","forecast_time_str":"202610101200","temp_c":4.9,"wind_kmh":2.4,"gust_kmh":6.8,"precip_mm":0.1,"precip_prob_pct":13,"snowfall_cm":0.0,"weathercode":80,"zero_level_m":2670.0,"cloudcover_pct":100,"sunshine_min":0.0}},{"type":"Feature","geometry":{"type":"Point","coordinates":[7.425229,46.750965]},"properties":{"name":"Rüschegg","lat":46.750965,"lon":7.425229,"forecast_time_iso":"2026-10-10T12:00","forecast_time_str":"202610101200","temp_c":8.6,"wind_kmh":14.0,"gust_kmh":56.9,"precip_mm":0.9,"precip_prob_pct":34,"snowfall_cm":0.0,"weathercode":61,"zero_level_m":2670.0,"cloudcover_pct":100,"sunshine_min":0.0}},{"type":"Feature","geometry":{"type":"Point","coordinates":[7.963252,46.089706]},"properties":{"name":"Saas-Almagell","lat":46.089706,"lon":7.963252,"forecast_time_iso":"2026-10-10T12:00","forecast_time_str":"202610101200","temp_c":6.0,"wind_kmh":6.6,"gust_kmh":13.7,"precip_mm":0.3,"precip_prob_pct":11,"snowfall_cm":0.0,"weathercode":80,"zero_level_m":2760.0,"cloudcover_pct":100,"sunshine_min":938.97}},{"type":"Feature","geometry":{"type":"Point","coordinates":[7.925277,46.099144]},"properties":{"name":"Saas Fee","lat":46.099144,"lon":7.925277,"forecast_time_iso":"2026-10-10T12:00","forecast_time_str":"202610101200","temp_c":5.8,"wind_kmh":6.6,"gust_kmh":13.7,"precip_mm":0.3,"precip_prob_pct":16,"snowfall_cm":0.0,"weathercode":80,"zero_level_m":2760.0,"cloudcover_pct":100,"sunshine_min":939.52}},{"type":"Feature","geometry":{"type":"Point","coordinates":[6.995653,47.25581]},"properties":{"name":"Saignelégier","lat":47.25581,"lon":6.995653,"forecast_time_iso":"2026-10-10T12:00","forecast_time_str":"202610101200","temp_c":8.7,"wind_kmh":14.4,"gust_kmh":32.4,"precip_mm":0.3,"precip_prob_pct":45,"snowfall_cm":0.0,"weathercode":80,"zero_level_m":2580.0,"cloudcover_pct":100,"sunshine_min":0.0}},{"type":"Feature","geometry":{"type":"Point","coordinates":[7.729452,46.736632]},"properties":{"name":"Schwanden","lat":46.736632,"lon":7.729452,"forecast_time_iso":"2026-10-10T12:00","forecast_time_str":"202610101200","temp_c":10.2,"wind_kmh":1.1,"gust_kmh":12.6,"precip_mm":0.8,"precip_prob_pct":33,"snowfall_cm":0.0,"weathercode":61,"zero_level_m":2590.0,"cloudcover_pct":100,"sunshine_min":0.0}},{"type":"Feature","geometry":{"type":"Point","coordinates":[7.290966,46.664074]},"properties":{"name":"Schwarzsee","lat":46.664074,"lon":7.290966,"forecast_time_iso":"2026-10-10T12:00","forecast_time_str":"202610101200","temp_c":8.7,"wind_kmh":8.9,"gust_kmh":20.9,"precip_mm":1.8,"precip_prob_pct":39,"snowfall_cm":0.0,"weathercode":61,"zero_level_m":2670.0,"cloudcover_pct":100,"sunshine_min":0.0}},{"type":"Feature","geometry":{"type":"Point","coordinates":[7.392882,46.744904]},"properties":{"name":"Selital","lat":46.744904,"lon":7.392882,"forecast_time_iso":"2026-10-10T12:00","forecast_time_str":"202610101200","temp_c":7.0,"wind_kmh":11.8,"gust_kmh":31.0,"precip_mm":1.0,"precip_prob_pct":43,"snowfall_cm":0.0,"weathercode":61,"zero_level_m":2670.0,"cloudcover_pct":100,"sunshine_min":0.0}},{"type":"Feature","geometry":{"type":"Point","coordinates":[8.030524,46.8148]},"properties":{"name":"Sörenberg","lat":46.8148,"lon":8.030524,"forecast_time_iso":"2026-10-10T12:00","forecast_time_str":"202610101200","temp_c":8.6,"wind_kmh":9.4,"gust_kmh":18.0,"precip_mm":0.4,"precip_prob_pct":42,"snowfall_cm":0.0,"weathercode":61,"zero_level_m":2540.0,"cloudcover_pct":100,"sunshine_min":0.0}},{"type":"Feature","geometry":{"type":"Point","coordinates":[7.576687,46.616902]},"properties":{"name":"Springenboden","lat":46.616902,"lon":7.576687,"forecast_time_iso":"2026-10-10T12:00","forecast_time_str":"202610101200","temp_c":9.6,"wind_kmh":6.5,"gust_kmh":13.0,"precip_mm":1.0,"precip_prob_pct":43,"snowfall_cm":0.0,"weathercode":80,"zero_level_m":2630.0,"cloudcover_pct":100,"sunshine_min":0.0}},{"type":"Feature","geometry":{"type":"Point","coordinates":[6.08722,46.442966]},"properties":{"name":"St Cergue","lat":46.442966,"lon":6.08722,"forecast_time_iso":"2026-10-10T12:00","forecast_time_str":"202610101200","temp_c":8.0,"wind_kmh":12.7,"gust_kmh":34.6,"precip_mm":0.5,"precip_prob_pct":33,"snowfall_cm":0.0,"weathercode":80,"zero_level_m":2750.0,"cloudcover_pct":100,"sunshine_min":0.0}},{"type":"Feature","geometry":{"type":"Point","coordinates":[7.604917,46.248325]},"properties":{"name":"St-Luc / Chandolin","lat":46.248325,"lon":7.604917,"forecast_time_iso":"2026-10-10T12:00","forecast_time_str":"202610101200","temp_c":5.0,"wind_kmh":6.1,"gust_kmh":33.1,"precip_mm":0.5,"precip_prob_pct":26,"snowfall_cm":0.0,"weathercode":61,"zero_level_m":2630.0,"cloudcover_pct":100,"sunshine_min":0.0}},{"type":"Feature","geometry":{"type":"Point","coordinates":[7.083587,47.214433]},"properties":{"name":"Tramelan","lat":47.214433,"lon":7.083587,"forecast_time_iso":"2026-10-10T12:00","forecast_time_str":"202610101200","temp_c":9.3,"wind_kmh":16.1,"gust_kmh":29.9,"precip_mm":0.2,"precip_prob_pct":46,"snowfall_cm":0.0,"weathercode":80,"zero_level_m":2640.0,"cloudcover_pct":100,"sunshine_min":0.0}},{"type":"Feature","geometry":{"type":"Point","coordinates":[7.799555,46.27927]},"properties":{"name":"Unterbäch","lat":46.27927,"lon":7.799555,"forecast_time_iso":"2026-10-10T12:00","forecast_time_str":"202610101200","temp_c":7.8,"wind_kmh":4.8,"gust_kmh":13.0,"precip_mm":0.8,"precip_prob_pct":21,"snowfall_cm":0.0,"weathercode":61,"zero_level_m":2720.0,"cloudcover_pct":100,"sunshine_min":400.83}},{"type":"Feature","geometry":{"type":"Point","coordinates":[7.532484,46.246895]},"properties":{"name":"Vercorin","lat":46.246895,"lon":7.532484,"forecast_time_iso":"2026-10-10T12:00","forecast_time_str":"202610101200","temp_c":6.6,"wind_kmh":5.5,"gust_kmh":29.2,"precip_mm":0.5,"precip_prob_pct":23,"snowfall_cm":0.0,"weathercode":61,"zero_level_m":2630.0,"cloudcover_pct":100,"sunshine_min":0.0}},{"type":"Feature","geometry":{"type":"Point","coordinates":[7.090662,46.299984]},"properties":{"name":"Villars-Gryon","lat":46.299984,"lon":7.090662,"forecast_time_iso":"2026-10-10T12:00","forecast_time_str":"202610101200","temp_c":8.1,"wind_kmh":5.8,"gust_kmh":14.0,"precip_mm":0.9,"precip_prob_pct":34,"snowfall_cm":0.0,"weathercode":80,"zero_level_m":2620.0,"cloudcover_pct":100,"sunshine_min":0.0}},{"type":"Feature","geometry":{"type":"Point","coordinates":[7.913731,46.256939]},"properties":{"name":"Visperterminen","lat":46.256939,"lon":7.913731,"forecast_time_iso":"2026-10-10T12:00","forecast_time_str":"202610101200","temp_c":6.1,"wind_kmh":4.0,"gust_kmh":20.9,"precip_mm":0.2,"precip_prob_pct":16,"snowfall_cm":0.0,"weathercode":80,"zero_level_m":2630.0,"cloudcover_pct":100,"sunshine_min":0.0}},{"type":"Feature","geometry":{"type":"Point","coordinates":[7.745841,46.726089]},"properties":{"name":"Wilerallmi","lat":46.726089,"lon":7.745841,"forecast_time_iso":"2026-10-10T12:00","forecast_time_str":"202610101200","temp_c":8.4,"wind_kmh":1.0,"gust_kmh":31.3,"precip_mm":1.0,"precip_prob_pct":33,"snowfall_cm":0.0,"weathercode":61,"zero_level_m":2560.0,"cloudcover_pct":100,"sunshine_min":0.0}},{"type":"Feature","geometry":{"type":"Point","coordinates":[7.532542,46.612373]},"properties":{"name":"Wiriehorn","lat":46.612373,"lon":7.532542,"forecast_time_iso":"2026-10-10T12:00","forecast_time_str":"202610101200","temp_c":12.1,"wind_kmh":2.7,"gust_kmh":6.5,"precip_mm":0.7,"precip_prob_pct":43,"snowfall_cm":0.0,"weathercode":80,"zero_level_m":2630.0,"cloudcover_pct":100,"sunshine_min":0.0}}]}